{
"type": "FeatureCollection",
"name": "corridor_access_anchors_method3",
"crs": { "type": "name", "properties": { "name": "urn:ogc:def:crs:OGC:1.3:CRS84" } },
"features": [
{ "type": "Feature", "properties": { "name": "Access: Portland", "access_name": "Portland", "hub_class": "corridor_access_anchor", "is_corridor_access": true, "is_fixed_hub": false, "lon": -122.6765, "lat": 45.5152, "source_corridors": [ "San Francisco–Seattle", "Seattle–San Francisco" ] }, "geometry": { "type": "Point", "coordinates": [ -122.6765, 45.5152 ] } },
{ "type": "Feature", "properties": { "name": "Access: Eugene", "access_name": "Eugene", "hub_class": "corridor_access_anchor", "is_corridor_access": true, "is_fixed_hub": false, "lon": -123.0868, "lat": 44.0521, "source_corridors": [ "San Francisco–Seattle", "Seattle–San Francisco" ] }, "geometry": { "type": "Point", "coordinates": [ -123.0868, 44.0521 ] } },
{ "type": "Feature", "properties": { "name": "Access: Medford", "access_name": "Medford", "hub_class": "corridor_access_anchor", "is_corridor_access": true, "is_fixed_hub": false, "lon": -122.8756, "lat": 42.3265, "source_corridors": [ "San Francisco–Seattle", "Seattle–San Francisco" ] }, "geometry": { "type": "Point", "coordinates": [ -122.8756, 42.3265 ] } },
{ "type": "Feature", "properties": { "name": "Access: Redding", "access_name": "Redding", "hub_class": "corridor_access_anchor", "is_corridor_access": true, "is_fixed_hub": false, "lon": -122.3917, "lat": 40.5865, "source_corridors": [ "San Francisco–Seattle", "Seattle–San Francisco" ] }, "geometry": { "type": "Point", "coordinates": [ -122.3917, 40.5865 ] } },
{ "type": "Feature", "properties": { "name": "Access: Chico", "access_name": "Chico", "hub_class": "corridor_access_anchor", "is_corridor_access": true, "is_fixed_hub": false, "lon": -121.8375, "lat": 39.7285, "source_corridors": [ "San Francisco–Seattle", "Seattle–San Francisco" ] }, "geometry": { "type": "Point", "coordinates": [ -121.8375, 39.7285 ] } },
{ "type": "Feature", "properties": { "name": "Access: Yuba City", "access_name": "Yuba City", "hub_class": "corridor_access_anchor", "is_corridor_access": true, "is_fixed_hub": false, "lon": -121.6169, "lat": 39.1404, "source_corridors": [ "San Francisco–Seattle", "Seattle–San Francisco" ] }, "geometry": { "type": "Point", "coordinates": [ -121.6169, 39.1404 ] } },
{ "type": "Feature", "properties": { "name": "Access: Sacramento", "access_name": "Sacramento", "hub_class": "corridor_access_anchor", "is_corridor_access": true, "is_fixed_hub": false, "lon": -121.4944, "lat": 38.5816, "source_corridors": [ "Salt Lake City–San Francisco", "San Francisco–Salt Lake City", "San Francisco–Seattle", "Seattle–San Francisco" ] }, "geometry": { "type": "Point", "coordinates": [ -121.4944, 38.5816 ] } },
{ "type": "Feature", "properties": { "name": "Access: San Jose", "access_name": "San Jose", "hub_class": "corridor_access_anchor", "is_corridor_access": true, "is_fixed_hub": false, "lon": -121.8863, "lat": 37.3382, "source_corridors": [ "Los Angeles–San Francisco", "San Francisco–Los Angeles" ] }, "geometry": { "type": "Point", "coordinates": [ -121.8863, 37.3382 ] } },
{ "type": "Feature", "properties": { "name": "Access: Gilroy", "access_name": "Gilroy", "hub_class": "corridor_access_anchor", "is_corridor_access": true, "is_fixed_hub": false, "lon": -121.5683, "lat": 37.0058, "source_corridors": [ "Los Angeles–San Francisco", "San Francisco–Los Angeles" ] }, "geometry": { "type": "Point", "coordinates": [ -121.5683, 37.0058 ] } },
{ "type": "Feature", "properties": { "name": "Access: Madera", "access_name": "Madera", "hub_class": "corridor_access_anchor", "is_corridor_access": true, "is_fixed_hub": false, "lon": -120.0607, "lat": 36.9613, "source_corridors": [ "Los Angeles–San Francisco", "San Francisco–Los Angeles" ] }, "geometry": { "type": "Point", "coordinates": [ -120.0607, 36.9613 ] } },
{ "type": "Feature", "properties": { "name": "Access: Fresno", "access_name": "Fresno", "hub_class": "corridor_access_anchor", "is_corridor_access": true, "is_fixed_hub": false, "lon": -119.7871, "lat": 36.7378, "source_corridors": [ "Los Angeles–San Francisco", "San Francisco–Los Angeles" ] }, "geometry": { "type": "Point", "coordinates": [ -119.7871, 36.7378 ] } },
{ "type": "Feature", "properties": { "name": "Access: Kings/Tulare", "access_name": "Kings/Tulare", "hub_class": "corridor_access_anchor", "is_corridor_access": true, "is_fixed_hub": false, "lon": -119.6457, "lat": 36.3275, "source_corridors": [ "Los Angeles–San Francisco", "San Francisco–Los Angeles" ] }, "geometry": { "type": "Point", "coordinates": [ -119.6457, 36.3275 ] } },
{ "type": "Feature", "properties": { "name": "Access: Bakersfield", "access_name": "Bakersfield", "hub_class": "corridor_access_anchor", "is_corridor_access": true, "is_fixed_hub": false, "lon": -119.0187, "lat": 35.3733, "source_corridors": [ "Los Angeles–San Francisco", "San Francisco–Los Angeles" ] }, "geometry": { "type": "Point", "coordinates": [ -119.0187, 35.3733 ] } },
{ "type": "Feature", "properties": { "name": "Access: Reno", "access_name": "Reno", "hub_class": "corridor_access_anchor", "is_corridor_access": true, "is_fixed_hub": false, "lon": -119.8138, "lat": 39.5296, "source_corridors": [ "Salt Lake City–San Francisco", "San Francisco–Salt Lake City" ] }, "geometry": { "type": "Point", "coordinates": [ -119.8138, 39.5296 ] } },
{ "type": "Feature", "properties": { "name": "Access: Evanston", "access_name": "Evanston", "hub_class": "corridor_access_anchor", "is_corridor_access": true, "is_fixed_hub": false, "lon": -110.9632, "lat": 41.2683, "source_corridors": [ "Denver–Salt Lake City", "Salt Lake City–Denver" ] }, "geometry": { "type": "Point", "coordinates": [ -110.9632, 41.2683 ] } },
{ "type": "Feature", "properties": { "name": "Access: Rock Springs", "access_name": "Rock Springs", "hub_class": "corridor_access_anchor", "is_corridor_access": true, "is_fixed_hub": false, "lon": -109.2029, "lat": 41.5875, "source_corridors": [ "Denver–Salt Lake City", "Salt Lake City–Denver" ] }, "geometry": { "type": "Point", "coordinates": [ -109.2029, 41.5875 ] } },
{ "type": "Feature", "properties": { "name": "Access: Rawlins", "access_name": "Rawlins", "hub_class": "corridor_access_anchor", "is_corridor_access": true, "is_fixed_hub": false, "lon": -107.2387, "lat": 41.7911, "source_corridors": [ "Denver–Salt Lake City", "Salt Lake City–Denver" ] }, "geometry": { "type": "Point", "coordinates": [ -107.2387, 41.7911 ] } },
{ "type": "Feature", "properties": { "name": "Access: Laramie", "access_name": "Laramie", "hub_class": "corridor_access_anchor", "is_corridor_access": true, "is_fixed_hub": false, "lon": -105.5911, "lat": 41.3114, "source_corridors": [ "Denver–Salt Lake City", "Salt Lake City–Denver" ] }, "geometry": { "type": "Point", "coordinates": [ -105.5911, 41.3114 ] } },
{ "type": "Feature", "properties": { "name": "Access: Cheyenne", "access_name": "Cheyenne", "hub_class": "corridor_access_anchor", "is_corridor_access": true, "is_fixed_hub": false, "lon": -104.8202, "lat": 41.14, "source_corridors": [ "Denver–Salt Lake City", "Salt Lake City–Denver" ] }, "geometry": { "type": "Point", "coordinates": [ -104.8202, 41.14 ] } },
{ "type": "Feature", "properties": { "name": "Access: Riverside", "access_name": "Riverside", "hub_class": "corridor_access_anchor", "is_corridor_access": true, "is_fixed_hub": false, "lon": -117.3962, "lat": 33.9533, "source_corridors": [ "Los Angeles–Phoenix", "Phoenix–Los Angeles" ] }, "geometry": { "type": "Point", "coordinates": [ -117.3962, 33.9533 ] } },
{ "type": "Feature", "properties": { "name": "Access: Palm Springs", "access_name": "Palm Springs", "hub_class": "corridor_access_anchor", "is_corridor_access": true, "is_fixed_hub": false, "lon": -116.5453, "lat": 33.8303, "source_corridors": [ "Los Angeles–Phoenix", "Phoenix–Los Angeles" ] }, "geometry": { "type": "Point", "coordinates": [ -116.5453, 33.8303 ] } },
{ "type": "Feature", "properties": { "name": "Access: Tucson", "access_name": "Tucson", "hub_class": "corridor_access_anchor", "is_corridor_access": true, "is_fixed_hub": false, "lon": -110.9747, "lat": 32.2226, "source_corridors": [ "Phoenix–San Antonio", "San Antonio–Phoenix" ] }, "geometry": { "type": "Point", "coordinates": [ -110.9747, 32.2226 ] } },
{ "type": "Feature", "properties": { "name": "Access: Las Cruces", "access_name": "Las Cruces", "hub_class": "corridor_access_anchor", "is_corridor_access": true, "is_fixed_hub": false, "lon": -106.7637, "lat": 32.3199, "source_corridors": [ "Phoenix–San Antonio", "San Antonio–Phoenix" ] }, "geometry": { "type": "Point", "coordinates": [ -106.7637, 32.3199 ] } },
{ "type": "Feature", "properties": { "name": "Access: El Paso", "access_name": "El Paso", "hub_class": "corridor_access_anchor", "is_corridor_access": true, "is_fixed_hub": false, "lon": -106.485, "lat": 31.7619, "source_corridors": [ "Phoenix–San Antonio", "San Antonio–Phoenix" ] }, "geometry": { "type": "Point", "coordinates": [ -106.485, 31.7619 ] } },
{ "type": "Feature", "properties": { "name": "Access: Colorado Springs", "access_name": "Colorado Springs", "hub_class": "corridor_access_anchor", "is_corridor_access": true, "is_fixed_hub": false, "lon": -104.8214, "lat": 38.8339, "source_corridors": [ "Dallas–Denver", "Denver–Dallas", "Denver–Phoenix", "Phoenix–Denver" ] }, "geometry": { "type": "Point", "coordinates": [ -104.8214, 38.8339 ] } },
{ "type": "Feature", "properties": { "name": "Access: Pueblo", "access_name": "Pueblo", "hub_class": "corridor_access_anchor", "is_corridor_access": true, "is_fixed_hub": false, "lon": -104.6091, "lat": 38.2544, "source_corridors": [ "Dallas–Denver", "Denver–Dallas", "Denver–Phoenix", "Phoenix–Denver" ] }, "geometry": { "type": "Point", "coordinates": [ -104.6091, 38.2544 ] } },
{ "type": "Feature", "properties": { "name": "Access: Trinidad", "access_name": "Trinidad", "hub_class": "corridor_access_anchor", "is_corridor_access": true, "is_fixed_hub": false, "lon": -104.5005, "lat": 37.1695, "source_corridors": [ "Dallas–Denver", "Denver–Dallas", "Denver–Phoenix", "Phoenix–Denver" ] }, "geometry": { "type": "Point", "coordinates": [ -104.5005, 37.1695 ] } },
{ "type": "Feature", "properties": { "name": "Access: Santa Fe", "access_name": "Santa Fe", "hub_class": "corridor_access_anchor", "is_corridor_access": true, "is_fixed_hub": false, "lon": -105.9378, "lat": 35.687, "source_corridors": [ "Dallas–Denver", "Denver–Dallas", "Denver–Phoenix", "Phoenix–Denver" ] }, "geometry": { "type": "Point", "coordinates": [ -105.9378, 35.687 ] } },
{ "type": "Feature", "properties": { "name": "Access: Albuquerque", "access_name": "Albuquerque", "hub_class": "corridor_access_anchor", "is_corridor_access": true, "is_fixed_hub": false, "lon": -106.6504, "lat": 35.0844, "source_corridors": [ "Denver–Phoenix", "Phoenix–Denver" ] }, "geometry": { "type": "Point", "coordinates": [ -106.6504, 35.0844 ] } },
{ "type": "Feature", "properties": { "name": "Access: Flagstaff", "access_name": "Flagstaff", "hub_class": "corridor_access_anchor", "is_corridor_access": true, "is_fixed_hub": false, "lon": -111.6513, "lat": 35.1983, "source_corridors": [ "Denver–Phoenix", "Phoenix–Denver" ] }, "geometry": { "type": "Point", "coordinates": [ -111.6513, 35.1983 ] } },
{ "type": "Feature", "properties": { "name": "Access: Clovis", "access_name": "Clovis", "hub_class": "corridor_access_anchor", "is_corridor_access": true, "is_fixed_hub": false, "lon": -103.2052, "lat": 34.4048, "source_corridors": [ "Dallas–Denver", "Denver–Dallas" ] }, "geometry": { "type": "Point", "coordinates": [ -103.2052, 34.4048 ] } },
{ "type": "Feature", "properties": { "name": "Access: Lubbock", "access_name": "Lubbock", "hub_class": "corridor_access_anchor", "is_corridor_access": true, "is_fixed_hub": false, "lon": -101.8552, "lat": 33.5779, "source_corridors": [ "Dallas–Denver", "Denver–Dallas" ] }, "geometry": { "type": "Point", "coordinates": [ -101.8552, 33.5779 ] } },
{ "type": "Feature", "properties": { "name": "Access: Abilene", "access_name": "Abilene", "hub_class": "corridor_access_anchor", "is_corridor_access": true, "is_fixed_hub": false, "lon": -99.7331, "lat": 32.4487, "source_corridors": [ "Dallas–Denver", "Denver–Dallas" ] }, "geometry": { "type": "Point", "coordinates": [ -99.7331, 32.4487 ] } },
{ "type": "Feature", "properties": { "name": "Access: Fort Worth", "access_name": "Fort Worth", "hub_class": "corridor_access_anchor", "is_corridor_access": true, "is_fixed_hub": false, "lon": -97.3308, "lat": 32.7555, "source_corridors": [ "Dallas–Denver", "Denver–Dallas" ] }, "geometry": { "type": "Point", "coordinates": [ -97.3308, 32.7555 ] } },
{ "type": "Feature", "properties": { "name": "Access: Austin", "access_name": "Austin", "hub_class": "corridor_access_anchor", "is_corridor_access": true, "is_fixed_hub": false, "lon": -97.7431, "lat": 30.2672, "source_corridors": [ "Dallas–San Antonio", "San Antonio–Dallas" ] }, "geometry": { "type": "Point", "coordinates": [ -97.7431, 30.2672 ] } },
{ "type": "Feature", "properties": { "name": "Access: Waco", "access_name": "Waco", "hub_class": "corridor_access_anchor", "is_corridor_access": true, "is_fixed_hub": false, "lon": -97.1467, "lat": 31.5493, "source_corridors": [ "Dallas–Houston", "Dallas–San Antonio", "Houston–Dallas", "San Antonio–Dallas" ] }, "geometry": { "type": "Point", "coordinates": [ -97.1467, 31.5493 ] } },
{ "type": "Feature", "properties": { "name": "Access: College Station", "access_name": "College Station", "hub_class": "corridor_access_anchor", "is_corridor_access": true, "is_fixed_hub": false, "lon": -96.3344, "lat": 30.6279, "source_corridors": [ "Dallas–Houston", "Houston–Dallas" ] }, "geometry": { "type": "Point", "coordinates": [ -96.3344, 30.6279 ] } },
{ "type": "Feature", "properties": { "name": "Access: Beaumont", "access_name": "Beaumont", "hub_class": "corridor_access_anchor", "is_corridor_access": true, "is_fixed_hub": false, "lon": -94.1266, "lat": 30.0802, "source_corridors": [ "Atlanta–Houston", "Houston–Atlanta" ] }, "geometry": { "type": "Point", "coordinates": [ -94.1266, 30.0802 ] } },
{ "type": "Feature", "properties": { "name": "Access: Lafayette", "access_name": "Lafayette", "hub_class": "corridor_access_anchor", "is_corridor_access": true, "is_fixed_hub": false, "lon": -92.0198, "lat": 30.2241, "source_corridors": [ "Atlanta–Houston", "Houston–Atlanta" ] }, "geometry": { "type": "Point", "coordinates": [ -92.0198, 30.2241 ] } },
{ "type": "Feature", "properties": { "name": "Access: Baton Rouge", "access_name": "Baton Rouge", "hub_class": "corridor_access_anchor", "is_corridor_access": true, "is_fixed_hub": false, "lon": -91.1871, "lat": 30.4515, "source_corridors": [ "Atlanta–Houston", "Houston–Atlanta" ] }, "geometry": { "type": "Point", "coordinates": [ -91.1871, 30.4515 ] } },
{ "type": "Feature", "properties": { "name": "Access: New Orleans", "access_name": "New Orleans", "hub_class": "corridor_access_anchor", "is_corridor_access": true, "is_fixed_hub": false, "lon": -90.0715, "lat": 29.9511, "source_corridors": [ "Atlanta–Houston", "Houston–Atlanta" ] }, "geometry": { "type": "Point", "coordinates": [ -90.0715, 29.9511 ] } },
{ "type": "Feature", "properties": { "name": "Access: Mobile", "access_name": "Mobile", "hub_class": "corridor_access_anchor", "is_corridor_access": true, "is_fixed_hub": false, "lon": -88.0399, "lat": 30.6954, "source_corridors": [ "Atlanta–Houston", "Houston–Atlanta" ] }, "geometry": { "type": "Point", "coordinates": [ -88.0399, 30.6954 ] } },
{ "type": "Feature", "properties": { "name": "Access: Birmingham", "access_name": "Birmingham", "hub_class": "corridor_access_anchor", "is_corridor_access": true, "is_fixed_hub": false, "lon": -86.8025, "lat": 33.5186, "source_corridors": [ "Atlanta–Houston", "Houston–Atlanta" ] }, "geometry": { "type": "Point", "coordinates": [ -86.8025, 33.5186 ] } },
{ "type": "Feature", "properties": { "name": "Access: Gainesville", "access_name": "Gainesville", "hub_class": "corridor_access_anchor", "is_corridor_access": true, "is_fixed_hub": false, "lon": -82.3248, "lat": 29.6516, "source_corridors": [ "Atlanta–Orlando", "Orlando–Atlanta" ] }, "geometry": { "type": "Point", "coordinates": [ -82.3248, 29.6516 ] } },
{ "type": "Feature", "properties": { "name": "Access: Valdosta", "access_name": "Valdosta", "hub_class": "corridor_access_anchor", "is_corridor_access": true, "is_fixed_hub": false, "lon": -83.2785, "lat": 30.8327, "source_corridors": [ "Atlanta–Orlando", "Orlando–Atlanta" ] }, "geometry": { "type": "Point", "coordinates": [ -83.2785, 30.8327 ] } },
{ "type": "Feature", "properties": { "name": "Access: Macon", "access_name": "Macon", "hub_class": "corridor_access_anchor", "is_corridor_access": true, "is_fixed_hub": false, "lon": -83.6324, "lat": 32.8407, "source_corridors": [ "Atlanta–Orlando", "Orlando–Atlanta" ] }, "geometry": { "type": "Point", "coordinates": [ -83.6324, 32.8407 ] } },
{ "type": "Feature", "properties": { "name": "Access: Charlotte", "access_name": "Charlotte", "hub_class": "corridor_access_anchor", "is_corridor_access": true, "is_fixed_hub": false, "lon": -80.8431, "lat": 35.2271, "source_corridors": [ "Atlanta–Washington DC", "Washington DC–Atlanta" ] }, "geometry": { "type": "Point", "coordinates": [ -80.8431, 35.2271 ] } },
{ "type": "Feature", "properties": { "name": "Access: Greensboro", "access_name": "Greensboro", "hub_class": "corridor_access_anchor", "is_corridor_access": true, "is_fixed_hub": false, "lon": -79.792, "lat": 36.0726, "source_corridors": [ "Atlanta–Washington DC", "Washington DC–Atlanta" ] }, "geometry": { "type": "Point", "coordinates": [ -79.792, 36.0726 ] } },
{ "type": "Feature", "properties": { "name": "Access: Richmond", "access_name": "Richmond", "hub_class": "corridor_access_anchor", "is_corridor_access": true, "is_fixed_hub": false, "lon": -77.436, "lat": 37.5407, "source_corridors": [ "Atlanta–Washington DC", "Washington DC–Atlanta" ] }, "geometry": { "type": "Point", "coordinates": [ -77.436, 37.5407 ] } },
{ "type": "Feature", "properties": { "name": "Access: Oklahoma City", "access_name": "Oklahoma City", "hub_class": "corridor_access_anchor", "is_corridor_access": true, "is_fixed_hub": false, "lon": -97.5164, "lat": 35.4676, "source_corridors": [ "Chicago–Dallas", "Dallas–Chicago" ] }, "geometry": { "type": "Point", "coordinates": [ -97.5164, 35.4676 ] } },
{ "type": "Feature", "properties": { "name": "Access: Tulsa", "access_name": "Tulsa", "hub_class": "corridor_access_anchor", "is_corridor_access": true, "is_fixed_hub": false, "lon": -95.9928, "lat": 36.154, "source_corridors": [ "Chicago–Dallas", "Dallas–Chicago" ] }, "geometry": { "type": "Point", "coordinates": [ -95.9928, 36.154 ] } },
{ "type": "Feature", "properties": { "name": "Access: St. Louis", "access_name": "St. Louis", "hub_class": "corridor_access_anchor", "is_corridor_access": true, "is_fixed_hub": false, "lon": -90.1994, "lat": 38.627, "source_corridors": [ "Chicago–Dallas", "Dallas–Chicago" ] }, "geometry": { "type": "Point", "coordinates": [ -90.1994, 38.627 ] } },
{ "type": "Feature", "properties": { "name": "Access: Springfield", "access_name": "Springfield", "hub_class": "corridor_access_anchor", "is_corridor_access": true, "is_fixed_hub": false, "lon": -89.6501, "lat": 39.7817, "source_corridors": [ "Chicago–Dallas", "Dallas–Chicago" ] }, "geometry": { "type": "Point", "coordinates": [ -89.6501, 39.7817 ] } },
{ "type": "Feature", "properties": { "name": "Access: Urbana", "access_name": "Urbana", "hub_class": "corridor_access_anchor", "is_corridor_access": true, "is_fixed_hub": false, "lon": -88.2073, "lat": 40.1106, "source_corridors": [ "Chicago–Dallas", "Dallas–Chicago" ] }, "geometry": { "type": "Point", "coordinates": [ -88.2073, 40.1106 ] } },
{ "type": "Feature", "properties": { "name": "Access: Lincoln", "access_name": "Lincoln", "hub_class": "corridor_access_anchor", "is_corridor_access": true, "is_fixed_hub": false, "lon": -96.7026, "lat": 40.8136, "source_corridors": [ "Chicago–Denver", "Denver–Chicago" ] }, "geometry": { "type": "Point", "coordinates": [ -96.7026, 40.8136 ] } },
{ "type": "Feature", "properties": { "name": "Access: Omaha", "access_name": "Omaha", "hub_class": "corridor_access_anchor", "is_corridor_access": true, "is_fixed_hub": false, "lon": -95.9345, "lat": 41.2565, "source_corridors": [ "Chicago–Denver", "Denver–Chicago" ] }, "geometry": { "type": "Point", "coordinates": [ -95.9345, 41.2565 ] } },
{ "type": "Feature", "properties": { "name": "Access: Des Moines", "access_name": "Des Moines", "hub_class": "corridor_access_anchor", "is_corridor_access": true, "is_fixed_hub": false, "lon": -93.6091, "lat": 41.5868, "source_corridors": [ "Chicago–Denver", "Denver–Chicago" ] }, "geometry": { "type": "Point", "coordinates": [ -93.6091, 41.5868 ] } },
{ "type": "Feature", "properties": { "name": "Access: Davenport", "access_name": "Davenport", "hub_class": "corridor_access_anchor", "is_corridor_access": true, "is_fixed_hub": false, "lon": -90.5776, "lat": 41.5236, "source_corridors": [ "Chicago–Denver", "Denver–Chicago" ] }, "geometry": { "type": "Point", "coordinates": [ -90.5776, 41.5236 ] } },
{ "type": "Feature", "properties": { "name": "Access: Indianapolis", "access_name": "Indianapolis", "hub_class": "corridor_access_anchor", "is_corridor_access": true, "is_fixed_hub": false, "lon": -86.1581, "lat": 39.7684, "source_corridors": [ "Atlanta–Chicago", "Chicago–Atlanta" ] }, "geometry": { "type": "Point", "coordinates": [ -86.1581, 39.7684 ] } },
{ "type": "Feature", "properties": { "name": "Access: Louisville", "access_name": "Louisville", "hub_class": "corridor_access_anchor", "is_corridor_access": true, "is_fixed_hub": false, "lon": -85.7585, "lat": 38.2527, "source_corridors": [ "Atlanta–Chicago", "Chicago–Atlanta" ] }, "geometry": { "type": "Point", "coordinates": [ -85.7585, 38.2527 ] } },
{ "type": "Feature", "properties": { "name": "Access: Nashville", "access_name": "Nashville", "hub_class": "corridor_access_anchor", "is_corridor_access": true, "is_fixed_hub": false, "lon": -86.7816, "lat": 36.1627, "source_corridors": [ "Atlanta–Chicago", "Chicago–Atlanta" ] }, "geometry": { "type": "Point", "coordinates": [ -86.7816, 36.1627 ] } },
{ "type": "Feature", "properties": { "name": "Access: Huntsville", "access_name": "Huntsville", "hub_class": "corridor_access_anchor", "is_corridor_access": true, "is_fixed_hub": false, "lon": -86.5861, "lat": 34.7304, "source_corridors": [ "Atlanta–Chicago", "Chicago–Atlanta" ] }, "geometry": { "type": "Point", "coordinates": [ -86.5861, 34.7304 ] } },
{ "type": "Feature", "properties": { "name": "Access: Fort Wayne", "access_name": "Fort Wayne", "hub_class": "corridor_access_anchor", "is_corridor_access": true, "is_fixed_hub": false, "lon": -85.1394, "lat": 41.0793, "source_corridors": [ "Chicago–Washington DC", "Washington DC–Chicago" ] }, "geometry": { "type": "Point", "coordinates": [ -85.1394, 41.0793 ] } },
{ "type": "Feature", "properties": { "name": "Access: Columbus", "access_name": "Columbus", "hub_class": "corridor_access_anchor", "is_corridor_access": true, "is_fixed_hub": false, "lon": -82.9988, "lat": 39.9612, "source_corridors": [ "Chicago–Washington DC", "Washington DC–Chicago" ] }, "geometry": { "type": "Point", "coordinates": [ -82.9988, 39.9612 ] } },
{ "type": "Feature", "properties": { "name": "Access: Parkersburg", "access_name": "Parkersburg", "hub_class": "corridor_access_anchor", "is_corridor_access": true, "is_fixed_hub": false, "lon": -81.5615, "lat": 39.2667, "source_corridors": [ "Chicago–Washington DC", "Washington DC–Chicago" ] }, "geometry": { "type": "Point", "coordinates": [ -81.5615, 39.2667 ] } },
{ "type": "Feature", "properties": { "name": "Access: Morgantown", "access_name": "Morgantown", "hub_class": "corridor_access_anchor", "is_corridor_access": true, "is_fixed_hub": false, "lon": -79.9559, "lat": 39.6295, "source_corridors": [ "Chicago–Washington DC", "Washington DC–Chicago" ] }, "geometry": { "type": "Point", "coordinates": [ -79.9559, 39.6295 ] } },
{ "type": "Feature", "properties": { "name": "Access: Cumberland", "access_name": "Cumberland", "hub_class": "corridor_access_anchor", "is_corridor_access": true, "is_fixed_hub": false, "lon": -78.7625, "lat": 39.6529, "source_corridors": [ "Chicago–Washington DC", "Washington DC–Chicago" ] }, "geometry": { "type": "Point", "coordinates": [ -78.7625, 39.6529 ] } },
{ "type": "Feature", "properties": { "name": "Access: Martinsburg", "access_name": "Martinsburg", "hub_class": "corridor_access_anchor", "is_corridor_access": true, "is_fixed_hub": false, "lon": -77.9639, "lat": 39.4562, "source_corridors": [ "Chicago–Washington DC", "Washington DC–Chicago" ] }, "geometry": { "type": "Point", "coordinates": [ -77.9639, 39.4562 ] } },
{ "type": "Feature", "properties": { "name": "Access: Baltimore", "access_name": "Baltimore", "hub_class": "corridor_access_anchor", "is_corridor_access": true, "is_fixed_hub": false, "lon": -76.6122, "lat": 39.2904, "source_corridors": [ "New York–Washington DC", "Washington DC–New York" ] }, "geometry": { "type": "Point", "coordinates": [ -76.6122, 39.2904 ] } },
{ "type": "Feature", "properties": { "name": "Access: Wilmington", "access_name": "Wilmington", "hub_class": "corridor_access_anchor", "is_corridor_access": true, "is_fixed_hub": false, "lon": -75.5398, "lat": 39.7391, "source_corridors": [ "New York–Washington DC", "Washington DC–New York" ] }, "geometry": { "type": "Point", "coordinates": [ -75.5398, 39.7391 ] } },
{ "type": "Feature", "properties": { "name": "Access: Philadelphia", "access_name": "Philadelphia", "hub_class": "corridor_access_anchor", "is_corridor_access": true, "is_fixed_hub": false, "lon": -75.1652, "lat": 39.9526, "source_corridors": [ "New York–Washington DC", "Washington DC–New York" ] }, "geometry": { "type": "Point", "coordinates": [ -75.1652, 39.9526 ] } },
{ "type": "Feature", "properties": { "name": "Access: Trenton", "access_name": "Trenton", "hub_class": "corridor_access_anchor", "is_corridor_access": true, "is_fixed_hub": false, "lon": -74.7429, "lat": 40.2206, "source_corridors": [ "New York–Washington DC", "Washington DC–New York" ] }, "geometry": { "type": "Point", "coordinates": [ -74.7429, 40.2206 ] } }
]
}
