{
"type": "FeatureCollection",
"name": "fixed_hubs_method4",
"crs": { "type": "name", "properties": { "name": "urn:ogc:def:crs:OGC:1.3:CRS84" } },
"features": [
{ "type": "Feature", "properties": { "name": "New York", "state": "NY", "lon": -73.94, "lat": 40.66, "method4_hub_reason": "top_40_us_city", "source_layer": "method4_population_based_us_hubs" }, "geometry": { "type": "Point", "coordinates": [ -73.94, 40.66 ] } },
{ "type": "Feature", "properties": { "name": "Los Angeles", "state": "CA", "lon": -118.41, "lat": 34.02, "method4_hub_reason": "top_40_us_city", "source_layer": "method4_population_based_us_hubs" }, "geometry": { "type": "Point", "coordinates": [ -118.41, 34.02 ] } },
{ "type": "Feature", "properties": { "name": "Chicago", "state": "IL", "lon": -87.68, "lat": 41.84, "method4_hub_reason": "top_40_us_city", "source_layer": "method4_population_based_us_hubs" }, "geometry": { "type": "Point", "coordinates": [ -87.68, 41.84 ] } },
{ "type": "Feature", "properties": { "name": "Houston", "state": "TX", "lon": -95.39, "lat": 29.79, "method4_hub_reason": "top_40_us_city", "source_layer": "method4_population_based_us_hubs" }, "geometry": { "type": "Point", "coordinates": [ -95.39, 29.79 ] } },
{ "type": "Feature", "properties": { "name": "Phoenix", "state": "AZ", "lon": -112.09, "lat": 33.57, "method4_hub_reason": "top_40_us_city", "source_layer": "method4_population_based_us_hubs" }, "geometry": { "type": "Point", "coordinates": [ -112.09, 33.57 ] } },
{ "type": "Feature", "properties": { "name": "Philadelphia", "state": "PA", "lon": -75.13, "lat": 40.01, "method4_hub_reason": "top_40_us_city", "source_layer": "method4_population_based_us_hubs" }, "geometry": { "type": "Point", "coordinates": [ -75.13, 40.01 ] } },
{ "type": "Feature", "properties": { "name": "San Antonio", "state": "TX", "lon": -98.52, "lat": 29.46, "method4_hub_reason": "top_40_us_city", "source_layer": "method4_population_based_us_hubs" }, "geometry": { "type": "Point", "coordinates": [ -98.52, 29.46 ] } },
{ "type": "Feature", "properties": { "name": "San Diego", "state": "CA", "lon": -117.14, "lat": 32.81, "method4_hub_reason": "top_40_us_city", "source_layer": "method4_population_based_us_hubs" }, "geometry": { "type": "Point", "coordinates": [ -117.14, 32.81 ] } },
{ "type": "Feature", "properties": { "name": "Dallas", "state": "TX", "lon": -96.77, "lat": 32.79, "method4_hub_reason": "top_40_us_city", "source_layer": "method4_population_based_us_hubs" }, "geometry": { "type": "Point", "coordinates": [ -96.77, 32.79 ] } },
{ "type": "Feature", "properties": { "name": "Fort Worth", "state": "TX", "lon": -97.35, "lat": 32.78, "method4_hub_reason": "top_40_us_city", "source_layer": "method4_population_based_us_hubs" }, "geometry": { "type": "Point", "coordinates": [ -97.35, 32.78 ] } },
{ "type": "Feature", "properties": { "name": "Jacksonville", "state": "FL", "lon": -81.66, "lat": 30.34, "method4_hub_reason": "top_40_us_city", "source_layer": "method4_population_based_us_hubs" }, "geometry": { "type": "Point", "coordinates": [ -81.66, 30.34 ] } },
{ "type": "Feature", "properties": { "name": "Austin", "state": "TX", "lon": -97.75, "lat": 30.3, "method4_hub_reason": "top_40_us_city", "source_layer": "method4_population_based_us_hubs" }, "geometry": { "type": "Point", "coordinates": [ -97.75, 30.3 ] } },
{ "type": "Feature", "properties": { "name": "San Jose", "state": "CA", "lon": -121.81, "lat": 37.3, "method4_hub_reason": "top_40_us_city", "source_layer": "method4_population_based_us_hubs" }, "geometry": { "type": "Point", "coordinates": [ -121.81, 37.3 ] } },
{ "type": "Feature", "properties": { "name": "Charlotte", "state": "NC", "lon": -80.83, "lat": 35.21, "method4_hub_reason": "top_40_us_city", "source_layer": "method4_population_based_us_hubs" }, "geometry": { "type": "Point", "coordinates": [ -80.83, 35.21 ] } },
{ "type": "Feature", "properties": { "name": "Columbus", "state": "OH", "lon": -82.99, "lat": 39.99, "method4_hub_reason": "top_40_us_city", "source_layer": "method4_population_based_us_hubs" }, "geometry": { "type": "Point", "coordinates": [ -82.99, 39.99 ] } },
{ "type": "Feature", "properties": { "name": "Indianapolis", "state": "IN", "lon": -86.15, "lat": 39.78, "method4_hub_reason": "top_40_us_city", "source_layer": "method4_population_based_us_hubs" }, "geometry": { "type": "Point", "coordinates": [ -86.15, 39.78 ] } },
{ "type": "Feature", "properties": { "name": "San Francisco", "state": "CA", "lon": -123.03, "lat": 37.73, "method4_hub_reason": "top_40_us_city", "source_layer": "method4_population_based_us_hubs" }, "geometry": { "type": "Point", "coordinates": [ -123.03, 37.73 ] } },
{ "type": "Feature", "properties": { "name": "Seattle", "state": "WA", "lon": -122.35, "lat": 47.62, "method4_hub_reason": "top_40_us_city", "source_layer": "method4_population_based_us_hubs" }, "geometry": { "type": "Point", "coordinates": [ -122.35, 47.62 ] } },
{ "type": "Feature", "properties": { "name": "Denver", "state": "CO", "lon": -104.88, "lat": 39.76, "method4_hub_reason": "top_40_us_city", "source_layer": "method4_population_based_us_hubs" }, "geometry": { "type": "Point", "coordinates": [ -104.88, 39.76 ] } },
{ "type": "Feature", "properties": { "name": "Nashville", "state": "TN", "lon": -86.79, "lat": 36.17, "method4_hub_reason": "top_40_us_city", "source_layer": "method4_population_based_us_hubs" }, "geometry": { "type": "Point", "coordinates": [ -86.79, 36.17 ] } },
{ "type": "Feature", "properties": { "name": "Oklahoma City", "state": "OK", "lon": -97.51, "lat": 35.47, "method4_hub_reason": "top_40_us_city", "source_layer": "method4_population_based_us_hubs" }, "geometry": { "type": "Point", "coordinates": [ -97.51, 35.47 ] } },
{ "type": "Feature", "properties": { "name": "Washington", "state": "DC", "lon": -77.02, "lat": 38.9, "method4_hub_reason": "top_40_us_city", "source_layer": "method4_population_based_us_hubs" }, "geometry": { "type": "Point", "coordinates": [ -77.02, 38.9 ] } },
{ "type": "Feature", "properties": { "name": "El Paso", "state": "TX", "lon": -106.43, "lat": 31.85, "method4_hub_reason": "top_40_us_city", "source_layer": "method4_population_based_us_hubs" }, "geometry": { "type": "Point", "coordinates": [ -106.43, 31.85 ] } },
{ "type": "Feature", "properties": { "name": "Las Vegas", "state": "NV", "lon": -115.26, "lat": 36.23, "method4_hub_reason": "top_40_us_city", "source_layer": "method4_population_based_us_hubs" }, "geometry": { "type": "Point", "coordinates": [ -115.26, 36.23 ] } },
{ "type": "Feature", "properties": { "name": "Boston", "state": "MA", "lon": -71.02, "lat": 42.34, "method4_hub_reason": "top_40_us_city", "source_layer": "method4_population_based_us_hubs" }, "geometry": { "type": "Point", "coordinates": [ -71.02, 42.34 ] } },
{ "type": "Feature", "properties": { "name": "Detroit", "state": "MI", "lon": -83.1, "lat": 42.38, "method4_hub_reason": "top_40_us_city", "source_layer": "method4_population_based_us_hubs" }, "geometry": { "type": "Point", "coordinates": [ -83.1, 42.38 ] } },
{ "type": "Feature", "properties": { "name": "Louisville", "state": "KY", "lon": -85.65, "lat": 38.17, "method4_hub_reason": "top_40_us_city", "source_layer": "method4_population_based_us_hubs" }, "geometry": { "type": "Point", "coordinates": [ -85.65, 38.17 ] } },
{ "type": "Feature", "properties": { "name": "Portland", "state": "OR", "lon": -122.65, "lat": 45.54, "method4_hub_reason": "top_40_us_city", "source_layer": "method4_population_based_us_hubs" }, "geometry": { "type": "Point", "coordinates": [ -122.65, 45.54 ] } },
{ "type": "Feature", "properties": { "name": "Memphis", "state": "TN", "lon": -89.97, "lat": 35.11, "method4_hub_reason": "top_40_us_city", "source_layer": "method4_population_based_us_hubs" }, "geometry": { "type": "Point", "coordinates": [ -89.97, 35.11 ] } },
{ "type": "Feature", "properties": { "name": "Baltimore", "state": "MD", "lon": -76.61, "lat": 39.3, "method4_hub_reason": "top_40_us_city", "source_layer": "method4_population_based_us_hubs" }, "geometry": { "type": "Point", "coordinates": [ -76.61, 39.3 ] } },
{ "type": "Feature", "properties": { "name": "Milwaukee", "state": "WI", "lon": -87.97, "lat": 43.06, "method4_hub_reason": "top_40_us_city", "source_layer": "method4_population_based_us_hubs" }, "geometry": { "type": "Point", "coordinates": [ -87.97, 43.06 ] } },
{ "type": "Feature", "properties": { "name": "Albuquerque", "state": "NM", "lon": -106.65, "lat": 35.1, "method4_hub_reason": "top_40_us_city", "source_layer": "method4_population_based_us_hubs" }, "geometry": { "type": "Point", "coordinates": [ -106.65, 35.1 ] } },
{ "type": "Feature", "properties": { "name": "Fresno", "state": "CA", "lon": -119.79, "lat": 36.78, "method4_hub_reason": "top_40_us_city", "source_layer": "method4_population_based_us_hubs" }, "geometry": { "type": "Point", "coordinates": [ -119.79, 36.78 ] } },
{ "type": "Feature", "properties": { "name": "Tucson", "state": "AZ", "lon": -110.87, "lat": 32.15, "method4_hub_reason": "top_40_us_city", "source_layer": "method4_population_based_us_hubs" }, "geometry": { "type": "Point", "coordinates": [ -110.87, 32.15 ] } },
{ "type": "Feature", "properties": { "name": "Sacramento", "state": "CA", "lon": -121.47, "lat": 38.57, "method4_hub_reason": "top_40_us_city", "source_layer": "method4_population_based_us_hubs" }, "geometry": { "type": "Point", "coordinates": [ -121.47, 38.57 ] } },
{ "type": "Feature", "properties": { "name": "Atlanta", "state": "GA", "lon": -84.42, "lat": 33.76, "method4_hub_reason": "top_40_us_city", "source_layer": "method4_population_based_us_hubs" }, "geometry": { "type": "Point", "coordinates": [ -84.42, 33.76 ] } },
{ "type": "Feature", "properties": { "name": "Kansas City", "state": "MO", "lon": -94.56, "lat": 39.12, "method4_hub_reason": "top_40_us_city", "source_layer": "method4_population_based_us_hubs" }, "geometry": { "type": "Point", "coordinates": [ -94.56, 39.12 ] } },
{ "type": "Feature", "properties": { "name": "Mesa", "state": "AZ", "lon": -111.72, "lat": 33.4, "method4_hub_reason": "top_40_us_city", "source_layer": "method4_population_based_us_hubs" }, "geometry": { "type": "Point", "coordinates": [ -111.72, 33.4 ] } },
{ "type": "Feature", "properties": { "name": "Raleigh", "state": "NC", "lon": -78.64, "lat": 35.83, "method4_hub_reason": "top_40_us_city", "source_layer": "method4_population_based_us_hubs" }, "geometry": { "type": "Point", "coordinates": [ -78.64, 35.83 ] } },
{ "type": "Feature", "properties": { "name": "Colorado Springs", "state": "CO", "lon": -104.76, "lat": 38.87, "method4_hub_reason": "top_40_us_city", "source_layer": "method4_population_based_us_hubs" }, "geometry": { "type": "Point", "coordinates": [ -104.76, 38.87 ] } },
{ "type": "Feature", "properties": { "name": "Huntsville", "state": "AL", "lon": -86.53, "lat": 34.78, "method4_hub_reason": "largest_city_in_unrepresented_state", "source_layer": "method4_population_based_us_hubs" }, "geometry": { "type": "Point", "coordinates": [ -86.53, 34.78 ] } },
{ "type": "Feature", "properties": { "name": "Little Rock", "state": "AR", "lon": -92.36, "lat": 34.72, "method4_hub_reason": "largest_city_in_unrepresented_state", "source_layer": "method4_population_based_us_hubs" }, "geometry": { "type": "Point", "coordinates": [ -92.36, 34.72 ] } },
{ "type": "Feature", "properties": { "name": "Des Moines", "state": "IA", "lon": -93.61, "lat": 41.57, "method4_hub_reason": "largest_city_in_unrepresented_state", "source_layer": "method4_population_based_us_hubs" }, "geometry": { "type": "Point", "coordinates": [ -93.61, 41.57 ] } },
{ "type": "Feature", "properties": { "name": "Boise", "state": "ID", "lon": -116.23, "lat": 43.6, "method4_hub_reason": "largest_city_in_unrepresented_state", "source_layer": "method4_population_based_us_hubs" }, "geometry": { "type": "Point", "coordinates": [ -116.23, 43.6 ] } },
{ "type": "Feature", "properties": { "name": "Wichita", "state": "KS", "lon": -97.35, "lat": 37.69, "method4_hub_reason": "largest_city_in_unrepresented_state", "source_layer": "method4_population_based_us_hubs" }, "geometry": { "type": "Point", "coordinates": [ -97.35, 37.69 ] } },
{ "type": "Feature", "properties": { "name": "New Orleans", "state": "LA", "lon": -89.93, "lat": 30.05, "method4_hub_reason": "largest_city_in_unrepresented_state", "source_layer": "method4_population_based_us_hubs" }, "geometry": { "type": "Point", "coordinates": [ -89.93, 30.05 ] } },
{ "type": "Feature", "properties": { "name": "Minneapolis", "state": "MN", "lon": -93.27, "lat": 44.96, "method4_hub_reason": "largest_city_in_unrepresented_state", "source_layer": "method4_population_based_us_hubs" }, "geometry": { "type": "Point", "coordinates": [ -93.27, 44.96 ] } },
{ "type": "Feature", "properties": { "name": "Omaha", "state": "NE", "lon": -96.05, "lat": 41.26, "method4_hub_reason": "largest_city_in_unrepresented_state", "source_layer": "method4_population_based_us_hubs" }, "geometry": { "type": "Point", "coordinates": [ -96.05, 41.26 ] } },
{ "type": "Feature", "properties": { "name": "Newark", "state": "NJ", "lon": -74.17, "lat": 40.72, "method4_hub_reason": "largest_city_in_unrepresented_state", "source_layer": "method4_population_based_us_hubs" }, "geometry": { "type": "Point", "coordinates": [ -74.17, 40.72 ] } },
{ "type": "Feature", "properties": { "name": "Sioux Falls", "state": "SD", "lon": -96.73, "lat": 43.54, "method4_hub_reason": "largest_city_in_unrepresented_state", "source_layer": "method4_population_based_us_hubs" }, "geometry": { "type": "Point", "coordinates": [ -96.73, 43.54 ] } },
{ "type": "Feature", "properties": { "name": "Salt Lake City", "state": "UT", "lon": -111.93, "lat": 40.78, "method4_hub_reason": "largest_city_in_unrepresented_state", "source_layer": "method4_population_based_us_hubs" }, "geometry": { "type": "Point", "coordinates": [ -111.93, 40.78 ] } },
{ "type": "Feature", "properties": { "name": "Virginia Beach", "state": "VA", "lon": -76.03, "lat": 36.78, "method4_hub_reason": "largest_city_in_unrepresented_state", "source_layer": "method4_population_based_us_hubs" }, "geometry": { "type": "Point", "coordinates": [ -76.03, 36.78 ] } },
{ "type": "Feature", "properties": { "name": "Bridgeport", "state": "CT", "lon": -73.1952, "lat": 41.1865, "method4_hub_reason": "supplemental_largest_city_in_unrepresented_state", "source_layer": "method4_population_based_us_hubs" }, "geometry": { "type": "Point", "coordinates": [ -73.1952, 41.1865 ] } },
{ "type": "Feature", "properties": { "name": "Wilmington", "state": "DE", "lon": -75.5398, "lat": 39.7391, "method4_hub_reason": "supplemental_largest_city_in_unrepresented_state", "source_layer": "method4_population_based_us_hubs" }, "geometry": { "type": "Point", "coordinates": [ -75.5398, 39.7391 ] } },
{ "type": "Feature", "properties": { "name": "Portland", "state": "ME", "lon": -70.2553, "lat": 43.6591, "method4_hub_reason": "supplemental_largest_city_in_unrepresented_state", "source_layer": "method4_population_based_us_hubs" }, "geometry": { "type": "Point", "coordinates": [ -70.2553, 43.6591 ] } },
{ "type": "Feature", "properties": { "name": "Jackson", "state": "MS", "lon": -90.1848, "lat": 32.2988, "method4_hub_reason": "supplemental_largest_city_in_unrepresented_state", "source_layer": "method4_population_based_us_hubs" }, "geometry": { "type": "Point", "coordinates": [ -90.1848, 32.2988 ] } },
{ "type": "Feature", "properties": { "name": "Billings", "state": "MT", "lon": -108.5007, "lat": 45.7833, "method4_hub_reason": "supplemental_largest_city_in_unrepresented_state", "source_layer": "method4_population_based_us_hubs" }, "geometry": { "type": "Point", "coordinates": [ -108.5007, 45.7833 ] } },
{ "type": "Feature", "properties": { "name": "Fargo", "state": "ND", "lon": -96.7898, "lat": 46.8772, "method4_hub_reason": "supplemental_largest_city_in_unrepresented_state", "source_layer": "method4_population_based_us_hubs" }, "geometry": { "type": "Point", "coordinates": [ -96.7898, 46.8772 ] } },
{ "type": "Feature", "properties": { "name": "Manchester", "state": "NH", "lon": -71.4548, "lat": 42.9956, "method4_hub_reason": "supplemental_largest_city_in_unrepresented_state", "source_layer": "method4_population_based_us_hubs" }, "geometry": { "type": "Point", "coordinates": [ -71.4548, 42.9956 ] } },
{ "type": "Feature", "properties": { "name": "Providence", "state": "RI", "lon": -71.4128, "lat": 41.824, "method4_hub_reason": "supplemental_largest_city_in_unrepresented_state", "source_layer": "method4_population_based_us_hubs" }, "geometry": { "type": "Point", "coordinates": [ -71.4128, 41.824 ] } },
{ "type": "Feature", "properties": { "name": "Charleston SC", "state": "SC", "lon": -79.9311, "lat": 32.7765, "method4_hub_reason": "supplemental_largest_city_in_unrepresented_state", "source_layer": "method4_population_based_us_hubs" }, "geometry": { "type": "Point", "coordinates": [ -79.9311, 32.7765 ] } },
{ "type": "Feature", "properties": { "name": "Burlington", "state": "VT", "lon": -73.2121, "lat": 44.4759, "method4_hub_reason": "supplemental_largest_city_in_unrepresented_state", "source_layer": "method4_population_based_us_hubs" }, "geometry": { "type": "Point", "coordinates": [ -73.2121, 44.4759 ] } },
{ "type": "Feature", "properties": { "name": "Charleston WV", "state": "WV", "lon": -81.6326, "lat": 38.3498, "method4_hub_reason": "supplemental_largest_city_in_unrepresented_state", "source_layer": "method4_population_based_us_hubs" }, "geometry": { "type": "Point", "coordinates": [ -81.6326, 38.3498 ] } },
{ "type": "Feature", "properties": { "name": "Cheyenne", "state": "WY", "lon": -104.8202, "lat": 41.14, "method4_hub_reason": "supplemental_largest_city_in_unrepresented_state", "source_layer": "method4_population_based_us_hubs" }, "geometry": { "type": "Point", "coordinates": [ -104.8202, 41.14 ] } },
{ "type": "Feature", "properties": { "name": "Vancouver", "state": "BC", "lon": -123.1207, "lat": 49.2827, "method4_hub_reason": "fixed_canada_trunk_hub", "source_layer": "method4_retained_canadian_hubs" }, "geometry": { "type": "Point", "coordinates": [ -123.1207, 49.2827 ] } },
{ "type": "Feature", "properties": { "name": "Calgary", "state": "AB", "lon": -114.0719, "lat": 51.0447, "method4_hub_reason": "fixed_canada_trunk_hub", "source_layer": "method4_retained_canadian_hubs" }, "geometry": { "type": "Point", "coordinates": [ -114.0719, 51.0447 ] } },
{ "type": "Feature", "properties": { "name": "Winnipeg", "state": "MB", "lon": -97.1384, "lat": 49.8951, "method4_hub_reason": "fixed_canada_trunk_hub", "source_layer": "method4_retained_canadian_hubs" }, "geometry": { "type": "Point", "coordinates": [ -97.1384, 49.8951 ] } },
{ "type": "Feature", "properties": { "name": "Toronto", "state": "ON", "lon": -79.3832, "lat": 43.6532, "method4_hub_reason": "fixed_canada_trunk_hub", "source_layer": "method4_retained_canadian_hubs" }, "geometry": { "type": "Point", "coordinates": [ -79.3832, 43.6532 ] } },
{ "type": "Feature", "properties": { "name": "Montreal", "state": "QC", "lon": -73.5673, "lat": 45.5017, "method4_hub_reason": "fixed_canada_trunk_hub", "source_layer": "method4_retained_canadian_hubs" }, "geometry": { "type": "Point", "coordinates": [ -73.5673, 45.5017 ] } },
{ "type": "Feature", "properties": { "name": "Quebec City", "state": "QC", "lon": -71.208, "lat": 46.8139, "method4_hub_reason": "fixed_canada_trunk_hub", "source_layer": "method4_retained_canadian_hubs" }, "geometry": { "type": "Point", "coordinates": [ -71.208, 46.8139 ] } }
]
}
