{
"type": "FeatureCollection",
"name": "fixed_hubs_v3",
"crs": { "type": "name", "properties": { "name": "urn:ogc:def:crs:OGC:1.3:CRS84" } },
"features": [
{ "type": "Feature", "properties": { "name": "Chicago", "lon": -87.6298, "lat": 41.8781 }, "geometry": { "type": "Point", "coordinates": [ -87.6298, 41.8781 ] } },
{ "type": "Feature", "properties": { "name": "Atlanta", "lon": -84.388, "lat": 33.749 }, "geometry": { "type": "Point", "coordinates": [ -84.388, 33.749 ] } },
{ "type": "Feature", "properties": { "name": "Denver", "lon": -104.9903, "lat": 39.7392 }, "geometry": { "type": "Point", "coordinates": [ -104.9903, 39.7392 ] } },
{ "type": "Feature", "properties": { "name": "Dallas", "lon": -96.797, "lat": 32.7767 }, "geometry": { "type": "Point", "coordinates": [ -96.797, 32.7767 ] } },
{ "type": "Feature", "properties": { "name": "Houston", "lon": -95.3698, "lat": 29.7604 }, "geometry": { "type": "Point", "coordinates": [ -95.3698, 29.7604 ] } },
{ "type": "Feature", "properties": { "name": "San Antonio", "lon": -98.4936, "lat": 29.4241 }, "geometry": { "type": "Point", "coordinates": [ -98.4936, 29.4241 ] } },
{ "type": "Feature", "properties": { "name": "Los Angeles", "lon": -118.2437, "lat": 34.0522 }, "geometry": { "type": "Point", "coordinates": [ -118.2437, 34.0522 ] } },
{ "type": "Feature", "properties": { "name": "San Francisco", "lon": -122.4194, "lat": 37.7749 }, "geometry": { "type": "Point", "coordinates": [ -122.4194, 37.7749 ] } },
{ "type": "Feature", "properties": { "name": "Seattle", "lon": -122.3321, "lat": 47.6062 }, "geometry": { "type": "Point", "coordinates": [ -122.3321, 47.6062 ] } },
{ "type": "Feature", "properties": { "name": "New York", "lon": -74.006, "lat": 40.7128 }, "geometry": { "type": "Point", "coordinates": [ -74.006, 40.7128 ] } },
{ "type": "Feature", "properties": { "name": "Washington DC", "lon": -77.0369, "lat": 38.9072 }, "geometry": { "type": "Point", "coordinates": [ -77.0369, 38.9072 ] } },
{ "type": "Feature", "properties": { "name": "Orlando", "lon": -81.3792, "lat": 28.5383 }, "geometry": { "type": "Point", "coordinates": [ -81.3792, 28.5383 ] } },
{ "type": "Feature", "properties": { "name": "Salt Lake City", "lon": -111.891, "lat": 40.7608 }, "geometry": { "type": "Point", "coordinates": [ -111.891, 40.7608 ] } },
{ "type": "Feature", "properties": { "name": "Phoenix", "lon": -112.074, "lat": 33.4484 }, "geometry": { "type": "Point", "coordinates": [ -112.074, 33.4484 ] } }
]
}
