{
"type": "FeatureCollection",
"name": "network_junctions_sample",
"crs": { "type": "name", "properties": { "name": "urn:ogc:def:crs:OGC:1.3:CRS84" } },
"features": [
{ "type": "Feature", "properties": { "node_id": "-13655253.581_5703286.443", "x": -13655253.581, "y": 5703286.443, "degree": 3 }, "geometry": { "type": "Point", "coordinates": [ -122.667230003401272, 45.517021002414758 ] } },
{ "type": "Feature", "properties": { "node_id": "-13697762.487_5475093.431", "x": -13697762.487, "y": 5475093.431, "degree": 3 }, "geometry": { "type": "Point", "coordinates": [ -123.049094003111279, 44.062332998923004 ] } },
{ "type": "Feature", "properties": { "node_id": "-13575764.562_4632281.719", "x": -13575764.562000001, "y": 4632281.719, "degree": 3 }, "geometry": { "type": "Point", "coordinates": [ -121.953167996527597, 38.37320200079472 ] } },
{ "type": "Feature", "properties": { "node_id": "-13614247.599_4558119.867", "x": -13614247.599, "y": 4558119.867, "degree": 3 }, "geometry": { "type": "Point", "coordinates": [ -122.298866999691967, 37.849024001447141 ] } },
{ "type": "Feature", "properties": { "node_id": "-13614842.490_4554768.122", "x": -13614842.49, "y": 4554768.122, "degree": 3 }, "geometry": { "type": "Point", "coordinates": [ -122.304210996468825, 37.825245002296029 ] } },
{ "type": "Feature", "properties": { "node_id": "-13627339.439_4547904.637", "x": -13627339.439, "y": 4547904.637, "degree": 3 }, "geometry": { "type": "Point", "coordinates": [ -122.416472999384439, 37.776528002348265 ] } },
{ "type": "Feature", "properties": { "node_id": "-13609679.047_4551030.873", "x": -13609679.047, "y": 4551030.873, "degree": 3 }, "geometry": { "type": "Point", "coordinates": [ -122.25782699881303, 37.798722002537524 ] } },
{ "type": "Feature", "properties": { "node_id": "-13514349.265_4528502.364", "x": -13514349.265000001, "y": 4528502.364, "degree": 3 }, "geometry": { "type": "Point", "coordinates": [ -121.401464996789215, 37.638636996890462 ] } },
{ "type": "Feature", "properties": { "node_id": "-13242032.402_4166373.756", "x": -13242032.402000001, "y": 4166373.756, "degree": 3 }, "geometry": { "type": "Point", "coordinates": [ -118.955200995225383, 35.018339998552754 ] } },
{ "type": "Feature", "properties": { "node_id": "-13174276.793_4046058.488", "x": -13174276.793, "y": 4046058.488, "degree": 3 }, "geometry": { "type": "Point", "coordinates": [ -118.346542003730107, 34.128418001527052 ] } },
{ "type": "Feature", "properties": { "node_id": "-13163858.847_4036726.098", "x": -13163858.847, "y": 4036726.098, "degree": 3 }, "geometry": { "type": "Point", "coordinates": [ -118.25295600252079, 34.05899299988701 ] } },
{ "type": "Feature", "properties": { "node_id": "-13163290.227_4036283.495", "x": -13163290.227, "y": 4036283.495, "degree": 3 }, "geometry": { "type": "Point", "coordinates": [ -118.247848002152253, 34.055698997975227 ] } },
{ "type": "Feature", "properties": { "node_id": "-13551485.447_4656043.181", "x": -13551485.447000001, "y": 4656043.181, "degree": 3 }, "geometry": { "type": "Point", "coordinates": [ -121.73506499563365, 38.540351997338391 ] } },
{ "type": "Feature", "properties": { "node_id": "-13534277.792_4660792.980", "x": -13534277.792, "y": 4660792.98, "degree": 3 }, "geometry": { "type": "Point", "coordinates": [ -121.58048600073009, 38.573717997241111 ] } },
{ "type": "Feature", "properties": { "node_id": "-13509715.703_4673227.980", "x": -13509715.703, "y": 4673227.98, "degree": 3 }, "geometry": { "type": "Point", "coordinates": [ -121.359841001144048, 38.660997001010308 ] } },
{ "type": "Feature", "properties": { "node_id": "-12455974.197_4977101.144", "x": -12455974.197000001, "y": 4977101.144, "degree": 3 }, "geometry": { "type": "Point", "coordinates": [ -111.893919997634825, 40.760647999072944 ] } },
{ "type": "Feature", "properties": { "node_id": "-12455340.233_4977101.732", "x": -12455340.233, "y": 4977101.732, "degree": 4 }, "geometry": { "type": "Point", "coordinates": [ -111.888225002127001, 40.76065199996134 ] } },
{ "type": "Feature", "properties": { "node_id": "-11694470.177_4828278.314", "x": -11694470.177, "y": 4828278.314, "degree": 3 }, "geometry": { "type": "Point", "coordinates": [ -105.053212996790236, 39.74032399876647 ] } },
{ "type": "Feature", "properties": { "node_id": "-11688334.804_4828249.071", "x": -11688334.804, "y": 4828249.071, "degree": 3 }, "geometry": { "type": "Point", "coordinates": [ -104.998098003393508, 39.74012199970916 ] } },
{ "type": "Feature", "properties": { "node_id": "-13162566.539_4035705.343", "x": -13162566.539000001, "y": 4035705.343, "degree": 3 }, "geometry": { "type": "Point", "coordinates": [ -118.241347002238911, 34.051396001533426 ] } },
{ "type": "Feature", "properties": { "node_id": "-13160815.260_4035878.664", "x": -13160815.26, "y": 4035878.664, "degree": 3 }, "geometry": { "type": "Point", "coordinates": [ -118.225614995314317, 34.052685996032906 ] } },
{ "type": "Feature", "properties": { "node_id": "-13066037.067_4028838.549", "x": -13066037.067, "y": 4028838.549, "degree": 3 }, "geometry": { "type": "Point", "coordinates": [ -117.374208001583028, 34.000271998902797 ] } },
{ "type": "Feature", "properties": { "node_id": "-13038370.054_4020477.963", "x": -13038370.054, "y": 4020477.963, "degree": 3 }, "geometry": { "type": "Point", "coordinates": [ -117.125670995144688, 33.937984997350469 ] } },
{ "type": "Feature", "properties": { "node_id": "-12691614.850_3983430.845", "x": -12691614.85, "y": 3983430.845, "degree": 3 }, "geometry": { "type": "Point", "coordinates": [ -114.01071599913287, 33.661432998480144 ] } },
{ "type": "Feature", "properties": { "node_id": "-12479830.743_3956741.689", "x": -12479830.743000001, "y": 3956741.689, "degree": 3 }, "geometry": { "type": "Point", "coordinates": [ -112.108226996615841, 33.461649003462384 ] } },
{ "type": "Feature", "properties": { "node_id": "-12476982.189_3956629.336", "x": -12476982.189, "y": 3956629.336, "degree": 3 }, "geometry": { "type": "Point", "coordinates": [ -112.082638000657425, 33.460806998931538 ] } },
{ "type": "Feature", "properties": { "node_id": "-12463429.486_3953541.807", "x": -12463429.486, "y": 3953541.807, "degree": 3 }, "geometry": { "type": "Point", "coordinates": [ -111.960891998197113, 33.437665000650412 ] } },
{ "type": "Feature", "properties": { "node_id": "-11863362.439_3742251.463", "x": -11863362.439, "y": 3742251.463, "degree": 3 }, "geometry": { "type": "Point", "coordinates": [ -106.570398000031432, 31.839427996570414 ] } },
{ "type": "Feature", "properties": { "node_id": "-11860480.155_3738443.878", "x": -11860480.155, "y": 3738443.878, "degree": 3 }, "geometry": { "type": "Point", "coordinates": [ -106.544506002327708, 31.810366001975858 ] } },
{ "type": "Feature", "properties": { "node_id": "-11775677.412_3663097.296", "x": -11775677.412, "y": 3663097.296, "degree": 3 }, "geometry": { "type": "Point", "coordinates": [ -105.782710000606116, 31.233395996808067 ] } },
{ "type": "Feature", "properties": { "node_id": "-10616445.215_3473227.602", "x": -10616445.215, "y": 3473227.602, "degree": 3 }, "geometry": { "type": "Point", "coordinates": [ -95.369149996520576, 29.76382399887828 ] } },
{ "type": "Feature", "properties": { "node_id": "-10623147.094_3474989.950", "x": -10623147.094000001, "y": 3474989.95, "degree": 3 }, "geometry": { "type": "Point", "coordinates": [ -95.429353999900783, 29.777565999129397 ] } },
{ "type": "Feature", "properties": { "node_id": "-10964041.216_3429718.871", "x": -10964041.216, "y": 3429718.871, "degree": 3 }, "geometry": { "type": "Point", "coordinates": [ -98.491658000491825, 29.423965999534435 ] } },
{ "type": "Feature", "properties": { "node_id": "-10964208.195_3429760.536", "x": -10964208.195, "y": 3429760.536, "degree": 3 }, "geometry": { "type": "Point", "coordinates": [ -98.493157998370108, 29.424292002702142 ] } },
{ "type": "Feature", "properties": { "node_id": "-10885496.632_3525041.459", "x": -10885496.632, "y": 3525041.459, "degree": 3 }, "geometry": { "type": "Point", "coordinates": [ -97.786079997571733, 30.167055997298785 ] } },
{ "type": "Feature", "properties": { "node_id": "-10877610.426_3542417.922", "x": -10877610.426000001, "y": 3542417.922, "degree": 3 }, "geometry": { "type": "Point", "coordinates": [ -97.71523700373659, 30.301917999782678 ] } },
{ "type": "Feature", "properties": { "node_id": "-10776326.053_3864655.821", "x": -10776326.053, "y": 3864655.821, "degree": 3 }, "geometry": { "type": "Point", "coordinates": [ -96.80538400065295, 32.768797999007411 ] } },
{ "type": "Feature", "properties": { "node_id": "-10775595.908_3865145.268", "x": -10775595.908, "y": 3865145.268, "degree": 3 }, "geometry": { "type": "Point", "coordinates": [ -96.798824996521731, 32.772495002822936 ] } },
{ "type": "Feature", "properties": { "node_id": "-10616034.558_3474095.665", "x": -10616034.558, "y": 3474095.665, "degree": 3 }, "geometry": { "type": "Point", "coordinates": [ -95.365461001924274, 29.770593000916119 ] } },
{ "type": "Feature", "properties": { "node_id": "-10621186.980_3487851.439", "x": -10621186.98, "y": 3487851.439, "degree": 3 }, "geometry": { "type": "Point", "coordinates": [ -95.41174599625262, 29.877797000810752 ] } },
{ "type": "Feature", "properties": { "node_id": "-10626137.024_3530242.158", "x": -10626137.024, "y": 3530242.158, "degree": 3 }, "geometry": { "type": "Point", "coordinates": [ -95.456212998075259, 30.207438998177889 ] } },
{ "type": "Feature", "properties": { "node_id": "-10773705.703_3865065.832", "x": -10773705.703, "y": 3865065.832, "degree": 3 }, "geometry": { "type": "Point", "coordinates": [ -96.781844996105534, 32.771894998970041 ] } },
{ "type": "Feature", "properties": { "node_id": "-10774184.711_3865544.572", "x": -10774184.711, "y": 3865544.572, "degree": 3 }, "geometry": { "type": "Point", "coordinates": [ -96.78614799818169, 32.775511004022299 ] } },
{ "type": "Feature", "properties": { "node_id": "-10613380.033_3473892.141", "x": -10613380.033, "y": 3473892.141, "degree": 3 }, "geometry": { "type": "Point", "coordinates": [ -95.341614998128506, 29.769005997739352 ] } },
{ "type": "Feature", "properties": { "node_id": "-9730160.284_3918415.344", "x": -9730160.284, "y": 3918415.344, "degree": 3 }, "geometry": { "type": "Point", "coordinates": [ -87.407517000499439, 33.17394699887619 ] } },
{ "type": "Feature", "properties": { "node_id": "-9395153.961_3994612.400", "x": -9395153.961, "y": 3994612.4, "degree": 3 }, "geometry": { "type": "Point", "coordinates": [ -84.398103998223604, 33.744996003188092 ] } },
{ "type": "Feature", "properties": { "node_id": "-9394248.711_3994595.799", "x": -9394248.711, "y": 3994595.799, "degree": 4 }, "geometry": { "type": "Point", "coordinates": [ -84.389971999114124, 33.744871999364811 ] } },
{ "type": "Feature", "properties": { "node_id": "-9059079.417_3317947.131", "x": -9059079.417, "y": 3317947.131, "degree": 4 }, "geometry": { "type": "Point", "coordinates": [ -81.379095003436632, 28.545677998876965 ] } },
{ "type": "Feature", "properties": { "node_id": "-9059429.962_3318885.433", "x": -9059429.962, "y": 3318885.433, "degree": 3 }, "geometry": { "type": "Point", "coordinates": [ -81.382244002749346, 28.553082000437701 ] } },
{ "type": "Feature", "properties": { "node_id": "-9060917.524_3318871.492", "x": -9060917.524, "y": 3318871.492, "degree": 3 }, "geometry": { "type": "Point", "coordinates": [ -81.395606999556108, 28.55297199788944 ] } },
{ "type": "Feature", "properties": { "node_id": "-9389714.112_3994656.578", "x": -9389714.112, "y": 3994656.578, "degree": 3 }, "geometry": { "type": "Point", "coordinates": [ -84.349237003223607, 33.745325996947834 ] } },
{ "type": "Feature", "properties": { "node_id": "-10772263.337_3883266.991", "x": -10772263.337, "y": 3883266.991, "degree": 3 }, "geometry": { "type": "Point", "coordinates": [ -96.768888001874586, 32.909267998894613 ] } },
{ "type": "Feature", "properties": { "node_id": "-10758528.070_3916314.727", "x": -10758528.07, "y": 3916314.727, "degree": 3 }, "geometry": { "type": "Point", "coordinates": [ -96.645501999098968, 33.158150999619025 ] } },
{ "type": "Feature", "properties": { "node_id": "-10620174.864_4260989.768", "x": -10620174.864, "y": 4260989.768, "degree": 3 }, "geometry": { "type": "Point", "coordinates": [ -95.402654003531595, 35.71145099706105 ] } },
{ "type": "Feature", "properties": { "node_id": "-10567254.023_4400866.700", "x": -10567254.023, "y": 4400866.7, "degree": 3 }, "geometry": { "type": "Point", "coordinates": [ -94.927258000344011, 36.725161001330726 ] } },
{ "type": "Feature", "properties": { "node_id": "-10039956.416_4667424.550", "x": -10039956.416, "y": 4667424.55, "degree": 3 }, "geometry": { "type": "Point", "coordinates": [ -90.190463003866512, 38.620276997468423 ] } },
{ "type": "Feature", "properties": { "node_id": "-9788179.001_5001853.007", "x": -9788179.001, "y": 5001853.007, "degree": 3 }, "geometry": { "type": "Point", "coordinates": [ -87.928708002960477, 40.9288519974574 ] } },
{ "type": "Feature", "properties": { "node_id": "-9755015.811_5130253.540", "x": -9755015.811000001, "y": 5130253.54, "degree": 3 }, "geometry": { "type": "Point", "coordinates": [ -87.630797998488887, 41.794550002786657 ] } },
{ "type": "Feature", "properties": { "node_id": "-9755012.694_5142745.840", "x": -9755012.694, "y": 5142745.84, "degree": 4 }, "geometry": { "type": "Point", "coordinates": [ -87.630769998001483, 41.878160001725341 ] } },
{ "type": "Feature", "properties": { "node_id": "-11687142.795_4828239.951", "x": -11687142.795, "y": 4828239.951, "degree": 3 }, "geometry": { "type": "Point", "coordinates": [ -104.987390004358417, 39.740059002241566 ] } },
{ "type": "Feature", "properties": { "node_id": "-11684069.931_4828233.147", "x": -11684069.931, "y": 4828233.147, "degree": 3 }, "geometry": { "type": "Point", "coordinates": [ -104.959785997386206, 39.740012002777583 ] } },
{ "type": "Feature", "properties": { "node_id": "-10784725.888_3876499.728", "x": -10784725.888, "y": 3876499.728, "degree": 3 }, "geometry": { "type": "Point", "coordinates": [ -96.88084100229878, 32.858217002999965 ] } },
{ "type": "Feature", "properties": { "node_id": "-10776043.858_3866019.888", "x": -10776043.858, "y": 3866019.888, "degree": 3 }, "geometry": { "type": "Point", "coordinates": [ -96.802848999836925, 32.779101001662212 ] } },
{ "type": "Feature", "properties": { "node_id": "-11687142.795_4829713.360", "x": -11687142.795, "y": 4829713.36, "degree": 3 }, "geometry": { "type": "Point", "coordinates": [ -104.987390004358417, 39.750236000468469 ] } },
{ "type": "Feature", "properties": { "node_id": "-10681522.590_5049812.028", "x": -10681522.59, "y": 5049812.028, "degree": 4 }, "geometry": { "type": "Point", "coordinates": [ -95.953750002649357, 41.253547003005487 ] } },
{ "type": "Feature", "properties": { "node_id": "-10678159.628_5050673.838", "x": -10678159.628, "y": 5050673.838, "degree": 3 }, "geometry": { "type": "Point", "coordinates": [ -95.923540001004227, 41.259366999285973 ] } },
{ "type": "Feature", "properties": { "node_id": "-10407801.209_5110434.404", "x": -10407801.209000001, "y": 5110434.404, "degree": 3 }, "geometry": { "type": "Point", "coordinates": [ -93.49486900122335, 41.661677997072246 ] } },
{ "type": "Feature", "properties": { "node_id": "-9978344.083_5124808.113", "x": -9978344.083000001, "y": 5124808.113, "degree": 3 }, "geometry": { "type": "Point", "coordinates": [ -89.636989999624916, 41.758070000151115 ] } },
{ "type": "Feature", "properties": { "node_id": "-9797324.899_5136061.229", "x": -9797324.899, "y": 5136061.229, "degree": 3 }, "geometry": { "type": "Point", "coordinates": [ -88.010867002564467, 41.833434002888524 ] } },
{ "type": "Feature", "properties": { "node_id": "-9756312.906_5142364.599", "x": -9756312.906, "y": 5142364.599, "degree": 3 }, "geometry": { "type": "Point", "coordinates": [ -87.642450001123436, 41.875610001100156 ] } },
{ "type": "Feature", "properties": { "node_id": "-9738325.012_5107115.880", "x": -9738325.012, "y": 5107115.88, "degree": 3 }, "geometry": { "type": "Point", "coordinates": [ -87.480862000030214, 41.639402999224444 ] } },
{ "type": "Feature", "properties": { "node_id": "-9737208.811_5084986.409", "x": -9737208.811000001, "y": 5084986.409, "degree": 3 }, "geometry": { "type": "Point", "coordinates": [ -87.470834995845721, 41.490665997395254 ] } },
{ "type": "Feature", "properties": { "node_id": "-9689341.987_4963460.338", "x": -9689341.987, "y": 4963460.338, "degree": 3 }, "geometry": { "type": "Point", "coordinates": [ -87.040839999831135, 40.667767997419908 ] } },
{ "type": "Feature", "properties": { "node_id": "-9670138.707_4938423.267", "x": -9670138.707, "y": 4938423.267, "degree": 3 }, "geometry": { "type": "Point", "coordinates": [ -86.868334000538866, 40.496953997935108 ] } },
{ "type": "Feature", "properties": { "node_id": "-9601521.818_4842946.157", "x": -9601521.818, "y": 4842946.157, "degree": 3 }, "geometry": { "type": "Point", "coordinates": [ -86.251937999164539, 39.841569000643105 ] } },
{ "type": "Feature", "properties": { "node_id": "-9545949.236_4616062.977", "x": -9545949.236, "y": 4616062.977, "degree": 3 }, "geometry": { "type": "Point", "coordinates": [ -85.752721001278672, 38.258888998600256 ] } },
{ "type": "Feature", "properties": { "node_id": "-9546143.377_4616042.279", "x": -9546143.377, "y": 4616042.279, "degree": 3 }, "geometry": { "type": "Point", "coordinates": [ -85.754464999554429, 38.258742999747227 ] } },
{ "type": "Feature", "properties": { "node_id": "-9546244.232_4615320.988", "x": -9546244.232000001, "y": 4615320.988, "degree": 3 }, "geometry": { "type": "Point", "coordinates": [ -85.75537099543422, 38.253654998415207 ] } },
{ "type": "Feature", "properties": { "node_id": "-9659652.745_4330979.152", "x": -9659652.745, "y": 4330979.152, "degree": 3 }, "geometry": { "type": "Point", "coordinates": [ -86.774137001205901, 36.220316999769928 ] } },
{ "type": "Feature", "properties": { "node_id": "-9659014.328_4324268.821", "x": -9659014.328, "y": 4324268.821, "degree": 3 }, "geometry": { "type": "Point", "coordinates": [ -86.768402003718478, 36.171671003410147 ] } },
{ "type": "Feature", "properties": { "node_id": "-9638780.897_4128481.616", "x": -9638780.897, "y": 4128481.616, "degree": 3 }, "geometry": { "type": "Point", "coordinates": [ -86.586642000543691, 34.739096000481055 ] } },
{ "type": "Feature", "properties": { "node_id": "-9454626.511_4079527.779", "x": -9454626.511, "y": 4079527.779, "degree": 3 }, "geometry": { "type": "Point", "coordinates": [ -84.932355004729246, 34.376931998396088 ] } },
{ "type": "Feature", "properties": { "node_id": "-9408295.561_4022195.299", "x": -9408295.561000001, "y": 4022195.299, "degree": 3 }, "geometry": { "type": "Point", "coordinates": [ -84.516156999601478, 33.950783003788459 ] } },
{ "type": "Feature", "properties": { "node_id": "-9394259.175_3998129.835", "x": -9394259.175000001, "y": 3998129.835, "degree": 3 }, "geometry": { "type": "Point", "coordinates": [ -84.390065998825463, 33.77126600221122 ] } },
{ "type": "Feature", "properties": { "node_id": "-9393011.952_3996550.672", "x": -9393011.952, "y": 3996550.672, "degree": 3 }, "geometry": { "type": "Point", "coordinates": [ -84.378862003989411, 33.759473003137998 ] } },
{ "type": "Feature", "properties": { "node_id": "-9716260.598_5100542.704", "x": -9716260.598, "y": 5100542.704, "degree": 3 }, "geometry": { "type": "Point", "coordinates": [ -87.282653996716803, 41.595258996939513 ] } },
{ "type": "Feature", "properties": { "node_id": "-9477717.290_5026555.547", "x": -9477717.29, "y": 5026555.547, "degree": 3 }, "geometry": { "type": "Point", "coordinates": [ -85.139783001708494, 41.096295002129935 ] } },
{ "type": "Feature", "properties": { "node_id": "-9383912.140_4988567.507", "x": -9383912.14, "y": 4988567.507, "degree": 3 }, "geometry": { "type": "Point", "coordinates": [ -84.297117001967266, 40.838622000723923 ] } },
{ "type": "Feature", "properties": { "node_id": "-9174085.252_4980286.152", "x": -9174085.252, "y": 4980286.152, "degree": 4 }, "geometry": { "type": "Point", "coordinates": [ -82.412209996870914, 40.78231600000921 ] } },
{ "type": "Feature", "properties": { "node_id": "-8900554.116_4812224.128", "x": -8900554.116, "y": 4812224.128, "degree": 3 }, "geometry": { "type": "Point", "coordinates": [ -79.955037995357159, 39.629339001107851 ] } },
{ "type": "Feature", "properties": { "node_id": "-8895901.073_4815618.113", "x": -8895901.073000001, "y": 4815618.113, "degree": 3 }, "geometry": { "type": "Point", "coordinates": [ -79.91323899891151, 39.652816997703482 ] } },
{ "type": "Feature", "properties": { "node_id": "-8767529.106_4815107.453", "x": -8767529.106000001, "y": 4815107.453, "degree": 3 }, "geometry": { "type": "Point", "coordinates": [ -78.76005399882564, 39.649285000708453 ] } },
{ "type": "Feature", "properties": { "node_id": "-8639770.843_4741858.787", "x": -8639770.843, "y": 4741858.787, "degree": 3 }, "geometry": { "type": "Point", "coordinates": [ -77.612381995571027, 39.140790999275886 ] } },
{ "type": "Feature", "properties": { "node_id": "-8579286.400_4707949.737", "x": -8579286.4, "y": 4707949.737, "degree": 3 }, "geometry": { "type": "Point", "coordinates": [ -77.069040999587457, 38.904140000309646 ] } },
{ "type": "Feature", "properties": { "node_id": "-8577105.540_4707719.003", "x": -8577105.54, "y": 4707719.003, "degree": 3 }, "geometry": { "type": "Point", "coordinates": [ -77.049450000882203, 38.902526996844415 ] } },
{ "type": "Feature", "properties": { "node_id": "-8575991.900_4707718.431", "x": -8575991.9, "y": 4707718.431, "degree": 3 }, "geometry": { "type": "Point", "coordinates": [ -77.03944600255214, 38.90252299809049 ] } },
{ "type": "Feature", "properties": { "node_id": "-8575667.292_4708361.866", "x": -8575667.292, "y": 4708361.866, "degree": 3 }, "geometry": { "type": "Point", "coordinates": [ -77.036529999274663, 38.907020999493817 ] } },
{ "type": "Feature", "properties": { "node_id": "-9389685.725_3998473.736", "x": -9389685.725, "y": 3998473.736, "degree": 3 }, "geometry": { "type": "Point", "coordinates": [ -84.348981998463884, 33.773833998261502 ] } },
{ "type": "Feature", "properties": { "node_id": "-9238915.720_4096158.491", "x": -9238915.72, "y": 4096158.491, "degree": 3 }, "geometry": { "type": "Point", "coordinates": [ -82.994591999681134, 34.500143997209818 ] } },
{ "type": "Feature", "properties": { "node_id": "-9136568.580_4155628.252", "x": -9136568.58, "y": 4155628.252, "degree": 3 }, "geometry": { "type": "Point", "coordinates": [ -82.075191998201916, 34.939248002431654 ] } },
{ "type": "Feature", "properties": { "node_id": "-9083945.853_4178822.352", "x": -9083945.853, "y": 4178822.352, "degree": 3 }, "geometry": { "type": "Point", "coordinates": [ -81.602473998640434, 35.109871996623859 ] } },
{ "type": "Feature", "properties": { "node_id": "-8739324.866_4585047.766", "x": -8739324.866, "y": 4585047.766, "degree": 3 }, "geometry": { "type": "Point", "coordinates": [ -78.506691000135888, 38.039786000604551 ] } },
{ "type": "Feature", "properties": { "node_id": "-8575704.918_4708409.360", "x": -8575704.918, "y": 4708409.36, "degree": 3 }, "geometry": { "type": "Point", "coordinates": [ -77.036867999383475, 38.907353000102653 ] } },
{ "type": "Feature", "properties": { "node_id": "-8530138.734_4762726.989", "x": -8530138.734, "y": 4762726.989, "degree": 3 }, "geometry": { "type": "Point", "coordinates": [ -76.627540004121443, 39.286036002905028 ] } },
{ "type": "Feature", "properties": { "node_id": "-8438231.581_4813891.486", "x": -8438231.581, "y": 4813891.486, "degree": 3 }, "geometry": { "type": "Point", "coordinates": [ -75.801924001523332, 39.640873997831157 ] } },
{ "type": "Feature", "properties": { "node_id": "-8365913.987_4859704.171", "x": -8365913.987, "y": 4859704.171, "degree": 3 }, "geometry": { "type": "Point", "coordinates": [ -75.15228400151382, 39.957058999248261 ] } },
{ "type": "Feature", "properties": { "node_id": "-8282950.019_4938836.237", "x": -8282950.019, "y": 4938836.237, "degree": 3 }, "geometry": { "type": "Point", "coordinates": [ -74.407005996657801, 40.499774999944535 ] } },
{ "type": "Feature", "properties": { "node_id": "-8251593.434_4973248.714", "x": -8251593.434, "y": 4973248.714, "degree": 3 }, "geometry": { "type": "Point", "coordinates": [ -74.125325001024876, 40.734430002572367 ] } },
{ "type": "Feature", "properties": { "node_id": "-8238091.827_4970122.100", "x": -8238091.827, "y": 4970122.1, "degree": 3 }, "geometry": { "type": "Point", "coordinates": [ -74.004038001742117, 40.713144002086054 ] } },
{ "type": "Feature", "properties": { "node_id": "-8934983.677_2973899.834", "x": -8934983.677, "y": 2973899.834, "degree": 3 }, "geometry": { "type": "Point", "coordinates": [ -80.264324004075405, 25.796512003290566 ] } },
{ "type": "Feature", "properties": { "node_id": "-8934977.554_2975217.410", "x": -8934977.554, "y": 2975217.41, "degree": 3 }, "geometry": { "type": "Point", "coordinates": [ -80.264269000230556, 25.807167998733568 ] } },
{ "type": "Feature", "properties": { "node_id": "-8948450.218_2986784.308", "x": -8948450.218, "y": 2986784.308, "degree": 3 }, "geometry": { "type": "Point", "coordinates": [ -80.385296000120633, 25.900674995754748 ] } },
{ "type": "Feature", "properties": { "node_id": "-8953518.706_2992964.446", "x": -8953518.706, "y": 2992964.446, "degree": 3 }, "geometry": { "type": "Point", "coordinates": [ -80.430827002498404, 25.950604997474656 ] } },
{ "type": "Feature", "properties": { "node_id": "-9005183.306_3210668.445", "x": -9005183.306, "y": 3210668.445, "degree": 3 }, "geometry": { "type": "Point", "coordinates": [ -80.894938000777614, 27.695747997879671 ] } },
{ "type": "Feature", "properties": { "node_id": "-9061066.692_3313436.245", "x": -9061066.692, "y": 3313436.245, "degree": 3 }, "geometry": { "type": "Point", "coordinates": [ -81.396946998499118, 28.510076003516591 ] } },
{ "type": "Feature", "properties": { "node_id": "-9059717.389_3316611.394", "x": -9059717.389, "y": 3316611.394, "degree": 3 }, "geometry": { "type": "Point", "coordinates": [ -81.38482600342104, 28.535136998936494 ] } },
{ "type": "Feature", "properties": { "node_id": "-7916457.313_5210804.709", "x": -7916457.313, "y": 5210804.709, "degree": 3 }, "geometry": { "type": "Point", "coordinates": [ -71.114746003476583, 42.331753002975695 ] } },
{ "type": "Feature", "properties": { "node_id": "-7956956.234_5205540.143", "x": -7956956.234, "y": 5205540.143, "degree": 3 }, "geometry": { "type": "Point", "coordinates": [ -71.478554000723065, 42.29678200089154 ] } },
{ "type": "Feature", "properties": { "node_id": "-8023842.995_5178074.569", "x": -8023842.995, "y": 5178074.569, "degree": 3 }, "geometry": { "type": "Point", "coordinates": [ -72.079407997838572, 42.114021002515415 ] } },
{ "type": "Feature", "properties": { "node_id": "-8078445.428_5128100.673", "x": -8078445.428, "y": 5128100.673, "degree": 3 }, "geometry": { "type": "Point", "coordinates": [ -72.569909998978687, 41.780129997059703 ] } },
{ "type": "Feature", "properties": { "node_id": "-8086640.212_5124901.680", "x": -8086640.212, "y": 5124901.68, "degree": 3 }, "geometry": { "type": "Point", "coordinates": [ -72.643524996151271, 41.758696999365583 ] } },
{ "type": "Feature", "properties": { "node_id": "-8089391.028_5120081.551", "x": -8089391.028, "y": 5120081.551, "degree": 3 }, "geometry": { "type": "Point", "coordinates": [ -72.668235996717272, 41.726388997045476 ] } },
{ "type": "Feature", "properties": { "node_id": "-8105041.881_5085106.785", "x": -8105041.881, "y": 5085106.785, "degree": 3 }, "geometry": { "type": "Point", "coordinates": [ -72.80883000131135, 41.491475996816725 ] } },
{ "type": "Feature", "properties": { "node_id": "-8152536.342_5036737.621", "x": -8152536.342, "y": 5036737.621, "degree": 3 }, "geometry": { "type": "Point", "coordinates": [ -73.235480003584541, 41.1651889984755 ] } },
{ "type": "Feature", "properties": { "node_id": "-8228474.268_4985247.561", "x": -8228474.268, "y": 4985247.561, "degree": 3 }, "geometry": { "type": "Point", "coordinates": [ -73.917641999285905, 40.816054997605967 ] } },
{ "type": "Feature", "properties": { "node_id": "-8238093.385_4969913.704", "x": -8238093.385, "y": 4969913.704, "degree": 3 }, "geometry": { "type": "Point", "coordinates": [ -74.004051997494258, 40.711724999304082 ] } },
{ "type": "Feature", "properties": { "node_id": "-8922842.394_3022441.059", "x": -8922842.394, "y": 3022441.059, "degree": 3 }, "geometry": { "type": "Point", "coordinates": [ -80.155257003198201, 26.18845800318276 ] } },
{ "type": "Feature", "properties": { "node_id": "-8924203.052_3029484.699", "x": -8924203.052, "y": 3029484.699, "degree": 3 }, "geometry": { "type": "Point", "coordinates": [ -80.167480001976784, 26.245222997341195 ] } },
{ "type": "Feature", "properties": { "node_id": "-8936731.393_3139126.939", "x": -8936731.393, "y": 3139126.939, "degree": 3 }, "geometry": { "type": "Point", "coordinates": [ -80.280024004026401, 27.125234999164565 ] } },
{ "type": "Feature", "properties": { "node_id": "-13122050.697_3999355.768", "x": -13122050.697000001, "y": 3999355.768, "degree": 3 }, "geometry": { "type": "Point", "coordinates": [ -117.877387001063184, 33.780420003184538 ] } },
{ "type": "Feature", "properties": { "node_id": "-13159435.789_4032701.384", "x": -13159435.789000001, "y": 4032701.384, "degree": 3 }, "geometry": { "type": "Point", "coordinates": [ -118.213222996481335, 34.029035000942891 ] } },
{ "type": "Feature", "properties": { "node_id": "-9124868.234_3259690.666", "x": -9124868.234, "y": 3259690.666, "degree": 3 }, "geometry": { "type": "Point", "coordinates": [ -81.970086001789042, 28.08496899771011 ] } },
{ "type": "Feature", "properties": { "node_id": "-9099682.533_3271931.181", "x": -9099682.533, "y": 3271931.181, "degree": 3 }, "geometry": { "type": "Point", "coordinates": [ -81.743839000293406, 28.181935997939661 ] } },
{ "type": "Feature", "properties": { "node_id": "-13605533.732_4507932.783", "x": -13605533.732000001, "y": 4507932.783, "degree": 3 }, "geometry": { "type": "Point", "coordinates": [ -122.220589000593122, 37.492169999498294 ] } },
{ "type": "Feature", "properties": { "node_id": "-8780607.588_5294673.173", "x": -8780607.588, "y": 5294673.173, "degree": 3 }, "geometry": { "type": "Point", "coordinates": [ -78.877540001562451, 42.886244998473259 ] } },
{ "type": "Feature", "properties": { "node_id": "-8682818.313_4935451.744", "x": -8682818.313, "y": 4935451.744, "degree": 3 }, "geometry": { "type": "Point", "coordinates": [ -77.999083998007777, 40.476651998568173 ] } },
{ "type": "Feature", "properties": { "node_id": "-8682813.749_4856147.207", "x": -8682813.749, "y": 4856147.207, "degree": 3 }, "geometry": { "type": "Point", "coordinates": [ -77.999042998898219, 39.93256199971362 ] } },
{ "type": "Feature", "properties": { "node_id": "-10150963.433_3560102.613", "x": -10150963.433, "y": 3560102.613, "degree": 3 }, "geometry": { "type": "Point", "coordinates": [ -91.187656004022671, 30.438982002455582 ] } },
{ "type": "Feature", "properties": { "node_id": "-9455030.711_4103846.131", "x": -9455030.711, "y": 4103846.131, "degree": 3 }, "geometry": { "type": "Point", "coordinates": [ -84.935985995107643, 34.557037999080407 ] } },
{ "type": "Feature", "properties": { "node_id": "-10880698.651_3539326.059", "x": -10880698.651000001, "y": 3539326.059, "degree": 3 }, "geometry": { "type": "Point", "coordinates": [ -97.74297900091959, 30.277935003413678 ] } },
{ "type": "Feature", "properties": { "node_id": "-10880984.631_3538018.145", "x": -10880984.631, "y": 3538018.145, "degree": 3 }, "geometry": { "type": "Point", "coordinates": [ -97.745548002969102, 30.267787997291034 ] } },
{ "type": "Feature", "properties": { "node_id": "-9246407.410_5210773.990", "x": -9246407.41, "y": 5210773.99, "degree": 3 }, "geometry": { "type": "Point", "coordinates": [ -83.061890995989984, 42.331549001832521 ] } },
{ "type": "Feature", "properties": { "node_id": "-9308254.961_5197150.672", "x": -9308254.961, "y": 5197150.672, "degree": 3 }, "geometry": { "type": "Point", "coordinates": [ -83.61747699947658, 42.241012997523242 ] } },
{ "type": "Feature", "properties": { "node_id": "-9598071.470_5132206.169", "x": -9598071.47, "y": 5132206.169, "degree": 3 }, "geometry": { "type": "Point", "coordinates": [ -86.220942995725224, 41.807625999835039 ] } },
{ "type": "Feature", "properties": { "node_id": "-9653703.497_5131163.652", "x": -9653703.497, "y": 5131163.652, "degree": 3 }, "geometry": { "type": "Point", "coordinates": [ -86.720693997131718, 41.800645000915161 ] } },
{ "type": "Feature", "properties": { "node_id": "-9111790.977_3152708.954", "x": -9111790.977, "y": 3152708.954, "degree": 3 }, "geometry": { "type": "Point", "coordinates": [ -81.852611003414466, 27.233772002098771 ] } },
{ "type": "Feature", "properties": { "node_id": "-8257363.791_4973612.027", "x": -8257363.791, "y": 4973612.027, "degree": 3 }, "geometry": { "type": "Point", "coordinates": [ -74.177160999904132, 40.736902997419179 ] } },
{ "type": "Feature", "properties": { "node_id": "-13327141.274_4086023.435", "x": -13327141.274, "y": 4086023.435, "degree": 3 }, "geometry": { "type": "Point", "coordinates": [ -119.719747000543109, 34.425078003468933 ] } },
{ "type": "Feature", "properties": { "node_id": "-10327461.042_5615502.130", "x": -10327461.042, "y": 5615502.13, "degree": 3 }, "geometry": { "type": "Point", "coordinates": [ -92.773161001775179, 44.961752001014496 ] } },
{ "type": "Feature", "properties": { "node_id": "-9938328.066_5319115.669", "x": -9938328.066, "y": 5319115.669, "degree": 3 }, "geometry": { "type": "Point", "coordinates": [ -89.277520002818036, 43.046915999224453 ] } },
{ "type": "Feature", "properties": { "node_id": "-9761353.452_5150195.050", "x": -9761353.452, "y": 5150195.05, "degree": 3 }, "geometry": { "type": "Point", "coordinates": [ -87.687729996244514, 41.927964996361659 ] } },
{ "type": "Feature", "properties": { "node_id": "-8999983.907_4195149.566", "x": -8999983.907, "y": 4195149.566, "degree": 3 }, "geometry": { "type": "Point", "coordinates": [ -80.848231004878244, 35.229766997418771 ] } },
{ "type": "Feature", "properties": { "node_id": "-12629201.017_4462408.671", "x": -12629201.017000001, "y": 4462408.671, "degree": 3 }, "geometry": { "type": "Point", "coordinates": [ -113.450042997889042, 37.166990003448532 ] } },
{ "type": "Feature", "properties": { "node_id": "-9133660.804_3115367.187", "x": -9133660.804, "y": 3115367.187, "degree": 3 }, "geometry": { "type": "Point", "coordinates": [ -82.049071001965956, 26.935111997101874 ] } },
{ "type": "Feature", "properties": { "node_id": "-9130298.732_3116058.081", "x": -9130298.732000001, "y": 3116058.081, "degree": 3 }, "geometry": { "type": "Point", "coordinates": [ -82.018868995326869, 26.940644997406398 ] } },
{ "type": "Feature", "properties": { "node_id": "-9091656.732_5083270.396", "x": -9091656.732000001, "y": 5083270.396, "degree": 3 }, "geometry": { "type": "Point", "coordinates": [ -81.671742003237398, 41.479117996950158 ] } },
{ "type": "Feature", "properties": { "node_id": "-8869735.316_4911882.344", "x": -8869735.316, "y": 4911882.344, "degree": 3 }, "geometry": { "type": "Point", "coordinates": [ -79.67818800457492, 40.315403996990398 ] } },
{ "type": "Feature", "properties": { "node_id": "-9322839.595_5203229.662", "x": -9322839.595000001, "y": 5203229.662, "degree": 3 }, "geometry": { "type": "Point", "coordinates": [ -83.748492995831484, 42.281428002945361 ] } },
{ "type": "Feature", "properties": { "node_id": "-10781342.555_3864091.070", "x": -10781342.555, "y": 3864091.07, "degree": 3 }, "geometry": { "type": "Point", "coordinates": [ -96.850448004847109, 32.764532000862275 ] } },
{ "type": "Feature", "properties": { "node_id": "-7929521.100_5213160.115", "x": -7929521.1, "y": 5213160.115, "degree": 3 }, "geometry": { "type": "Point", "coordinates": [ -71.232099998782402, 42.347392997372438 ] } },
{ "type": "Feature", "properties": { "node_id": "-9632878.626_4745276.610", "x": -9632878.626, "y": 4745276.61, "degree": 3 }, "geometry": { "type": "Point", "coordinates": [ -86.533620998040547, 39.164599998080909 ] } },
{ "type": "Feature", "properties": { "node_id": "-8457870.009_5211796.047", "x": -8457870.009, "y": 5211796.047, "degree": 3 }, "geometry": { "type": "Point", "coordinates": [ -75.978339001808138, 42.338336002861602 ] } },
{ "type": "Feature", "properties": { "node_id": "-8900203.126_4931041.197", "x": -8900203.126, "y": 4931041.197, "degree": 3 }, "geometry": { "type": "Point", "coordinates": [ -79.951884998541416, 40.44650699740351 ] } },
{ "type": "Feature", "properties": { "node_id": "-9952026.708_5323081.419", "x": -9952026.708000001, "y": 5323081.419, "degree": 3 }, "geometry": { "type": "Point", "coordinates": [ -89.40057699762086, 43.072945001518477 ] } },
{ "type": "Feature", "properties": { "node_id": "-11698999.545_4853767.509", "x": -11698999.545, "y": 4853767.509, "degree": 3 }, "geometry": { "type": "Point", "coordinates": [ -105.093901001808263, 39.916167996653492 ] } },
{ "type": "Feature", "properties": { "node_id": "-11691312.266_4842153.865", "x": -11691312.266000001, "y": 4842153.865, "degree": 3 }, "geometry": { "type": "Point", "coordinates": [ -105.024844999618367, 39.836104000908044 ] } },
{ "type": "Feature", "properties": { "node_id": "-12437262.949_4911367.438", "x": -12437262.949, "y": 4911367.438, "degree": 3 }, "geometry": { "type": "Point", "coordinates": [ -111.725833997001303, 40.311877002764291 ] } },
{ "type": "Feature", "properties": { "node_id": "-8928628.001_2990016.517", "x": -8928628.001, "y": 2990016.517, "degree": 3 }, "geometry": { "type": "Point", "coordinates": [ -80.207229995158286, 25.926790999437813 ] } },
{ "type": "Feature", "properties": { "node_id": "-8928355.158_2990477.347", "x": -8928355.158, "y": 2990477.347, "degree": 3 }, "geometry": { "type": "Point", "coordinates": [ -80.204779004787639, 25.930513999736377 ] } },
{ "type": "Feature", "properties": { "node_id": "-12354693.943_3794292.073", "x": -12354693.943, "y": 3794292.073, "degree": 3 }, "geometry": { "type": "Point", "coordinates": [ -110.984103996157742, 32.235716996989098 ] } },
{ "type": "Feature", "properties": { "node_id": "-9764020.667_5160585.491", "x": -9764020.667, "y": 5160585.491, "degree": 3 }, "geometry": { "type": "Point", "coordinates": [ -87.711689996249845, 41.997370000363482 ] } },
{ "type": "Feature", "properties": { "node_id": "-12456716.810_5010366.253", "x": -12456716.81, "y": 5010366.253, "degree": 3 }, "geometry": { "type": "Point", "coordinates": [ -111.900591003715689, 40.986606002748651 ] } },
{ "type": "Feature", "properties": { "node_id": "-8514392.703_5226709.814", "x": -8514392.703, "y": 5226709.814, "degree": 3 }, "geometry": { "type": "Point", "coordinates": [ -76.486091001006244, 42.437288002321274 ] } },
{ "type": "Feature", "properties": { "node_id": "-9499076.495_3851967.753", "x": -9499076.495, "y": 3851967.753, "degree": 3 }, "geometry": { "type": "Point", "coordinates": [ -85.33165600478992, 32.672906000865062 ] } },
{ "type": "Feature", "properties": { "node_id": "-10927374.579_3036454.793", "x": -10927374.579, "y": 3036454.793, "degree": 3 }, "geometry": { "type": "Point", "coordinates": [ -98.162275996148196, 26.301367999167926 ] } },
{ "type": "Feature", "properties": { "node_id": "-11841861.859_3733351.326", "x": -11841861.859, "y": 3733351.326, "degree": 3 }, "geometry": { "type": "Point", "coordinates": [ -106.377255003717082, 31.771481997098995 ] } },
{ "type": "Feature", "properties": { "node_id": "-13152594.093_4033275.220", "x": -13152594.093, "y": 4033275.22, "degree": 3 }, "geometry": { "type": "Point", "coordinates": [ -118.151762995620359, 34.033307001805412 ] } },
{ "type": "Feature", "properties": { "node_id": "-8783447.459_4299265.837", "x": -8783447.459000001, "y": 4299265.837, "degree": 3 }, "geometry": { "type": "Point", "coordinates": [ -78.903050996804751, 35.990148002166521 ] } },
{ "type": "Feature", "properties": { "node_id": "-8723183.540_4351610.661", "x": -8723183.54, "y": 4351610.661, "degree": 3 }, "geometry": { "type": "Point", "coordinates": [ -78.361691001618325, 36.369693998785586 ] } },
{ "type": "Feature", "properties": { "node_id": "-8616468.223_4471589.614", "x": -8616468.223, "y": 4471589.614, "degree": 3 }, "geometry": { "type": "Point", "coordinates": [ -77.403050998510722, 37.232682998454386 ] } },
{ "type": "Feature", "properties": { "node_id": "-9739716.506_4678064.648", "x": -9739716.506, "y": 4678064.648, "degree": 3 }, "geometry": { "type": "Point", "coordinates": [ -87.493362003309812, 38.694916001257496 ] } },
{ "type": "Feature", "properties": { "node_id": "-9738647.393_4680640.843", "x": -9738647.393, "y": 4680640.843, "degree": 3 }, "geometry": { "type": "Point", "coordinates": [ -87.483757997826316, 38.712976000830238 ] } },
{ "type": "Feature", "properties": { "node_id": "-9738127.865_3921501.528", "x": -9738127.865, "y": 3921501.528, "degree": 3 }, "geometry": { "type": "Point", "coordinates": [ -87.479090998397041, 33.197148998362294 ] } },
{ "type": "Feature", "properties": { "node_id": "-8920841.648_3014254.326", "x": -8920841.648, "y": 3014254.326, "degree": 3 }, "geometry": { "type": "Point", "coordinates": [ -80.137283996083795, 26.122446003587388 ] } },
{ "type": "Feature", "properties": { "node_id": "-10484124.635_4308430.556", "x": -10484124.635, "y": 4308430.556, "degree": 3 }, "geometry": { "type": "Point", "coordinates": [ -94.180494002344986, 36.056733000335868 ] } },
{ "type": "Feature", "properties": { "node_id": "-9373365.954_4830805.129", "x": -9373365.954, "y": 4830805.129, "degree": 3 }, "geometry": { "type": "Point", "coordinates": [ -84.202379001237588, 39.757775999597357 ] } },
{ "type": "Feature", "properties": { "node_id": "-12934971.391_5398567.744", "x": -12934971.391000001, "y": 5398567.744, "degree": 3 }, "geometry": { "type": "Point", "coordinates": [ -116.196825001840466, 43.566288002973231 ] } },
{ "type": "Feature", "properties": { "node_id": "-12483505.177_5113179.330", "x": -12483505.177, "y": 5113179.33, "degree": 3 }, "geometry": { "type": "Point", "coordinates": [ -112.141234998842705, 41.680097000503409 ] } },
{ "type": "Feature", "properties": { "node_id": "-12820776.184_4320482.494", "x": -12820776.184, "y": 4320482.494, "degree": 3 }, "geometry": { "type": "Point", "coordinates": [ -115.170992003627532, 36.144208999288267 ] } },
{ "type": "Feature", "properties": { "node_id": "-8754710.778_4268932.994", "x": -8754710.778000001, "y": 4268932.994, "degree": 3 }, "geometry": { "type": "Point", "coordinates": [ -78.644904999233063, 35.769368003938588 ] } },
{ "type": "Feature", "properties": { "node_id": "-8754466.654_4271137.582", "x": -8754466.654, "y": 4271137.582, "degree": 3 }, "geometry": { "type": "Point", "coordinates": [ -78.642711996028851, 35.785435002060801 ] } },
{ "type": "Feature", "properties": { "node_id": "-12934612.497_5399882.480", "x": -12934612.497, "y": 5399882.48, "degree": 3 }, "geometry": { "type": "Point", "coordinates": [ -116.193601002184678, 43.574844999120614 ] } },
{ "type": "Feature", "properties": { "node_id": "-9238476.231_4861211.150", "x": -9238476.231000001, "y": 4861211.15, "degree": 4 }, "geometry": { "type": "Point", "coordinates": [ -82.990644002822108, 39.967434998050187 ] } },
{ "type": "Feature", "properties": { "node_id": "-9245715.560_5210110.246", "x": -9245715.56, "y": 5210110.246, "degree": 3 }, "geometry": { "type": "Point", "coordinates": [ -83.055676001696796, 42.327140997050378 ] } },
{ "type": "Feature", "properties": { "node_id": "-7919235.513_5266974.861", "x": -7919235.513, "y": 5266974.861, "degree": 3 }, "geometry": { "type": "Point", "coordinates": [ -71.139702998699988, 42.703665000793187 ] } },
{ "type": "Feature", "properties": { "node_id": "-10681342.809_5051943.298", "x": -10681342.809, "y": 5051943.298, "degree": 3 }, "geometry": { "type": "Point", "coordinates": [ -95.952135002448415, 41.267939002931833 ] } },
{ "type": "Feature", "properties": { "node_id": "-11870729.674_4175110.195", "x": -11870729.674000001, "y": 4175110.195, "degree": 3 }, "geometry": { "type": "Point", "coordinates": [ -106.636578998053437, 35.082588000229237 ] } },
{ "type": "Feature", "properties": { "node_id": "-8781245.671_3987696.090", "x": -8781245.671, "y": 3987696.09, "degree": 3 }, "geometry": { "type": "Point", "coordinates": [ -78.883271998676832, 33.69331800131804 ] } },
{ "type": "Feature", "properties": { "node_id": "-8795620.580_4002857.241", "x": -8795620.58, "y": 4002857.241, "degree": 3 }, "geometry": { "type": "Point", "coordinates": [ -79.012404003302095, 33.806559998186273 ] } },
{ "type": "Feature", "properties": { "node_id": "-9786298.703_3588122.614", "x": -9786298.703, "y": 3588122.614, "degree": 3 }, "geometry": { "type": "Point", "coordinates": [ -87.91181699863948, 30.655755003251318 ] } },
{ "type": "Feature", "properties": { "node_id": "-9244744.631_5210681.683", "x": -9244744.631, "y": 5210681.683, "degree": 3 }, "geometry": { "type": "Point", "coordinates": [ -83.046953998091851, 42.330935998289988 ] } },
{ "type": "Feature", "properties": { "node_id": "-9094026.278_5082539.089", "x": -9094026.278000001, "y": 5082539.089, "degree": 3 }, "geometry": { "type": "Point", "coordinates": [ -81.693027997119643, 41.474196002295159 ] } },
{ "type": "Feature", "properties": { "node_id": "-9407134.944_4587072.281", "x": -9407134.944, "y": 4587072.281, "degree": 3 }, "geometry": { "type": "Point", "coordinates": [ -84.505730999700376, 38.05410800070436 ] } },
{ "type": "Feature", "properties": { "node_id": "-9406578.235_4586257.593", "x": -9406578.235, "y": 4586257.593, "degree": 3 }, "geometry": { "type": "Point", "coordinates": [ -84.500729997665303, 38.048345000873098 ] } },
{ "type": "Feature", "properties": { "node_id": "-9743847.015_4675384.441", "x": -9743847.015000001, "y": 4675384.441, "degree": 3 }, "geometry": { "type": "Point", "coordinates": [ -87.530466996968755, 38.67612200142819 ] } },
{ "type": "Feature", "properties": { "node_id": "-9836176.848_4633190.224", "x": -9836176.848, "y": 4633190.224, "degree": 3 }, "geometry": { "type": "Point", "coordinates": [ -88.35987999860977, 38.379599998025071 ] } },
{ "type": "Feature", "properties": { "node_id": "-8800186.126_4007550.947", "x": -8800186.126, "y": 4007550.947, "degree": 3 }, "geometry": { "type": "Point", "coordinates": [ -79.0534170008236, 33.841587999120847 ] } },
{ "type": "Feature", "properties": { "node_id": "-8812852.614_4266058.930", "x": -8812852.614, "y": 4266058.93, "degree": 3 }, "geometry": { "type": "Point", "coordinates": [ -79.167201998488764, 35.7484170017323 ] } },
{ "type": "Feature", "properties": { "node_id": "-9632883.858_4744814.019", "x": -9632883.858, "y": 4744814.019, "degree": 3 }, "geometry": { "type": "Point", "coordinates": [ -86.533667997896202, 39.16137800048071 ] } },
{ "type": "Feature", "properties": { "node_id": "-9625575.066_4658292.961", "x": -9625575.066, "y": 4658292.961, "degree": 3 }, "geometry": { "type": "Point", "coordinates": [ -86.4680120022757, 38.556157998594863 ] } },
{ "type": "Feature", "properties": { "node_id": "-9737476.312_4415690.657", "x": -9737476.312000001, "y": 4415690.657, "degree": 3 }, "geometry": { "type": "Point", "coordinates": [ -87.473237998213904, 36.831820997707439 ] } }
]
}
