{
"type": "FeatureCollection",
"name": "network_nodes_method3",
"crs": { "type": "name", "properties": { "name": "urn:ogc:def:crs:OGC:1.3:CRS84" } },
"features": [
{ "type": "Feature", "properties": { "node_id": "-13655797.042_5703503.779", "x": -13655797.042, "y": 5703503.779, "degree": 3 }, "geometry": { "type": "Point", "coordinates": [ -122.672111996627507, 45.518389001012515 ] } },
{ "type": "Feature", "properties": { "node_id": "-13700731.823_5472851.773", "x": -13700731.823000001, "y": 5472851.773, "degree": 3 }, "geometry": { "type": "Point", "coordinates": [ -123.075768002236146, 44.047860999266298 ] } },
{ "type": "Feature", "properties": { "node_id": "-13525313.456_4661677.103", "x": -13525313.456, "y": 4661677.103, "degree": 3 }, "geometry": { "type": "Point", "coordinates": [ -121.499958000322266, 38.579927002439824 ] } },
{ "type": "Feature", "properties": { "node_id": "-13551485.447_4656043.181", "x": -13551485.447000001, "y": 4656043.181, "degree": 3 }, "geometry": { "type": "Point", "coordinates": [ -121.73506499563365, 38.540351997338391 ] } },
{ "type": "Feature", "properties": { "node_id": "-13614247.599_4558119.867", "x": -13614247.599, "y": 4558119.867, "degree": 3 }, "geometry": { "type": "Point", "coordinates": [ -122.298866999691967, 37.849024001447141 ] } },
{ "type": "Feature", "properties": { "node_id": "-13614842.490_4554768.122", "x": -13614842.49, "y": 4554768.122, "degree": 3 }, "geometry": { "type": "Point", "coordinates": [ -122.304210996468825, 37.825245002296029 ] } },
{ "type": "Feature", "properties": { "node_id": "-13627339.439_4547904.637", "x": -13627339.439, "y": 4547904.637, "degree": 3 }, "geometry": { "type": "Point", "coordinates": [ -122.416472999384439, 37.776528002348265 ] } },
{ "type": "Feature", "properties": { "node_id": "-13568674.847_4486053.872", "x": -13568674.847, "y": 4486053.872, "degree": 3 }, "geometry": { "type": "Point", "coordinates": [ -121.889480003082085, 37.336063999731742 ] } },
{ "type": "Feature", "properties": { "node_id": "-13566883.939_4483226.784", "x": -13566883.939, "y": 4483226.784, "degree": 3 }, "geometry": { "type": "Point", "coordinates": [ -121.873392002793551, 37.31586900203633 ] } },
{ "type": "Feature", "properties": { "node_id": "-13531585.419_4439529.139", "x": -13531585.419, "y": 4439529.139, "degree": 3 }, "geometry": { "type": "Point", "coordinates": [ -121.556300002565578, 37.003030002933926 ] } },
{ "type": "Feature", "properties": { "node_id": "-13364581.024_4432619.745", "x": -13364581.024, "y": 4432619.745, "degree": 3 }, "geometry": { "type": "Point", "coordinates": [ -120.056073997129246, 36.953445999727698 ] } },
{ "type": "Feature", "properties": { "node_id": "-13334177.890_4402683.353", "x": -13334177.89, "y": 4402683.353, "degree": 3 }, "geometry": { "type": "Point", "coordinates": [ -119.782957997555911, 36.738239997721166 ] } },
{ "type": "Feature", "properties": { "node_id": "-13317828.174_4345324.913", "x": -13317828.174000001, "y": 4345324.913, "degree": 3 }, "geometry": { "type": "Point", "coordinates": [ -119.63608599981778, 36.324213997872356 ] } },
{ "type": "Feature", "properties": { "node_id": "-13248998.220_4215647.203", "x": -13248998.22, "y": 4215647.203, "degree": 3 }, "geometry": { "type": "Point", "coordinates": [ -119.017776002983339, 35.380036002393055 ] } },
{ "type": "Feature", "properties": { "node_id": "-13248995.659_4214708.168", "x": -13248995.659, "y": 4214708.168, "degree": 3 }, "geometry": { "type": "Point", "coordinates": [ -119.017752997128895, 35.373158000641965 ] } },
{ "type": "Feature", "properties": { "node_id": "-13162799.308_4035895.997", "x": -13162799.308, "y": 4035895.997, "degree": 3 }, "geometry": { "type": "Point", "coordinates": [ -118.243438001742589, 34.052815001101735 ] } },
{ "type": "Feature", "properties": { "node_id": "-13524176.661_4661620.997", "x": -13524176.661, "y": 4661620.997, "degree": 3 }, "geometry": { "type": "Point", "coordinates": [ -121.48974599708815, 38.579532998047547 ] } },
{ "type": "Feature", "properties": { "node_id": "-13509715.703_4673227.980", "x": -13509715.703, "y": 4673227.98, "degree": 3 }, "geometry": { "type": "Point", "coordinates": [ -121.359841001144048, 38.660997001010308 ] } },
{ "type": "Feature", "properties": { "node_id": "-12455340.233_4977101.732", "x": -12455340.233, "y": 4977101.732, "degree": 4 }, "geometry": { "type": "Point", "coordinates": [ -111.888225002127001, 40.76065199996134 ] } },
{ "type": "Feature", "properties": { "node_id": "-12155794.177_5100399.361", "x": -12155794.177, "y": 5100399.361, "degree": 3 }, "geometry": { "type": "Point", "coordinates": [ -109.197356998101782, 41.594296000296886 ] } },
{ "type": "Feature", "properties": { "node_id": "-11671954.808_5029849.282", "x": -11671954.808, "y": 5029849.282, "degree": 3 }, "geometry": { "type": "Point", "coordinates": [ -104.850953995787336, 41.118589003000253 ] } },
{ "type": "Feature", "properties": { "node_id": "-11667864.374_5031999.810", "x": -11667864.374, "y": 5031999.81, "degree": 3 }, "geometry": { "type": "Point", "coordinates": [ -104.814209001978512, 41.133140999238698 ] } },
{ "type": "Feature", "properties": { "node_id": "-11688267.567_4968770.618", "x": -11688267.567, "y": 4968770.618, "degree": 3 }, "geometry": { "type": "Point", "coordinates": [ -104.997494003145917, 40.703941000074252 ] } },
{ "type": "Feature", "properties": { "node_id": "-11687142.795_4829713.360", "x": -11687142.795, "y": 4829713.36, "degree": 3 }, "geometry": { "type": "Point", "coordinates": [ -104.987390004358417, 39.750236000468469 ] } },
{ "type": "Feature", "properties": { "node_id": "-11687142.795_4828239.951", "x": -11687142.795, "y": 4828239.951, "degree": 4 }, "geometry": { "type": "Point", "coordinates": [ -104.987390004358417, 39.740059002241566 ] } },
{ "type": "Feature", "properties": { "node_id": "-10616445.215_3473227.602", "x": -10616445.215, "y": 3473227.602, "degree": 3 }, "geometry": { "type": "Point", "coordinates": [ -95.369149996520576, 29.76382399887828 ] } },
{ "type": "Feature", "properties": { "node_id": "-10964041.216_3429718.871", "x": -10964041.216, "y": 3429718.871, "degree": 3 }, "geometry": { "type": "Point", "coordinates": [ -98.491658000491825, 29.423965999534435 ] } },
{ "type": "Feature", "properties": { "node_id": "-10964208.195_3429760.536", "x": -10964208.195, "y": 3429760.536, "degree": 3 }, "geometry": { "type": "Point", "coordinates": [ -98.493157998370108, 29.424292002702142 ] } },
{ "type": "Feature", "properties": { "node_id": "-10880984.631_3538018.145", "x": -10880984.631, "y": 3538018.145, "degree": 3 }, "geometry": { "type": "Point", "coordinates": [ -97.745548002969102, 30.267787997291034 ] } },
{ "type": "Feature", "properties": { "node_id": "-10877610.426_3542417.922", "x": -10877610.426000001, "y": 3542417.922, "degree": 3 }, "geometry": { "type": "Point", "coordinates": [ -97.71523700373659, 30.301917999782678 ] } },
{ "type": "Feature", "properties": { "node_id": "-10810815.391_3708565.182", "x": -10810815.391000001, "y": 3708565.182, "degree": 3 }, "geometry": { "type": "Point", "coordinates": [ -97.115206995298607, 31.581995002206479 ] } },
{ "type": "Feature", "properties": { "node_id": "-10776326.053_3864655.821", "x": -10776326.053, "y": 3864655.821, "degree": 3 }, "geometry": { "type": "Point", "coordinates": [ -96.80538400065295, 32.768797999007411 ] } },
{ "type": "Feature", "properties": { "node_id": "-10775595.908_3865145.268", "x": -10775595.908, "y": 3865145.268, "degree": 3 }, "geometry": { "type": "Point", "coordinates": [ -96.798824996521731, 32.772495002822936 ] } },
{ "type": "Feature", "properties": { "node_id": "-10616034.558_3474095.665", "x": -10616034.558, "y": 3474095.665, "degree": 3 }, "geometry": { "type": "Point", "coordinates": [ -95.365461001924274, 29.770593000916119 ] } },
{ "type": "Feature", "properties": { "node_id": "-10621186.980_3487851.439", "x": -10621186.98, "y": 3487851.439, "degree": 3 }, "geometry": { "type": "Point", "coordinates": [ -95.41174599625262, 29.877797000810752 ] } },
{ "type": "Feature", "properties": { "node_id": "-10723945.891_3584504.995", "x": -10723945.891000001, "y": 3584504.995, "degree": 3 }, "geometry": { "type": "Point", "coordinates": [ -96.334844999560389, 30.62779500148406 ] } },
{ "type": "Feature", "properties": { "node_id": "-10150923.803_3560101.451", "x": -10150923.803, "y": 3560101.451, "degree": 3 }, "geometry": { "type": "Point", "coordinates": [ -91.187300001675567, 30.438973002768016 ] } },
{ "type": "Feature", "properties": { "node_id": "-10149948.867_3560703.144", "x": -10149948.867000001, "y": 3560703.144, "degree": 3 }, "geometry": { "type": "Point", "coordinates": [ -91.178542002577203, 30.443633002639164 ] } },
{ "type": "Feature", "properties": { "node_id": "-10026834.965_3497859.074", "x": -10026834.965, "y": 3497859.074, "degree": 3 }, "geometry": { "type": "Point", "coordinates": [ -90.07259100403526, 29.955717997791552 ] } },
{ "type": "Feature", "properties": { "node_id": "-10026047.045_3500044.892", "x": -10026047.045, "y": 3500044.892, "degree": 3 }, "geometry": { "type": "Point", "coordinates": [ -90.065512998248636, 29.972728998773299 ] } },
{ "type": "Feature", "properties": { "node_id": "-9800445.629_3592643.649", "x": -9800445.629000001, "y": 3592643.649, "degree": 3 }, "geometry": { "type": "Point", "coordinates": [ -88.038900997130568, 30.690685997654484 ] } },
{ "type": "Feature", "properties": { "node_id": "-9699807.800_3928479.915", "x": -9699807.8, "y": 3928479.915, "degree": 3 }, "geometry": { "type": "Point", "coordinates": [ -87.134855997617507, 33.249590001890553 ] } },
{ "type": "Feature", "properties": { "node_id": "-9661838.837_3963594.446", "x": -9661838.837, "y": 3963594.446, "degree": 3 }, "geometry": { "type": "Point", "coordinates": [ -86.793774999766796, 33.512989999078918 ] } },
{ "type": "Feature", "properties": { "node_id": "-9395153.961_3994612.400", "x": -9395153.961, "y": 3994612.4, "degree": 3 }, "geometry": { "type": "Point", "coordinates": [ -84.398103998223604, 33.744996003188092 ] } },
{ "type": "Feature", "properties": { "node_id": "-9394248.711_3994595.799", "x": -9394248.711, "y": 3994595.799, "degree": 3 }, "geometry": { "type": "Point", "coordinates": [ -84.389971999114124, 33.744871999364811 ] } },
{ "type": "Feature", "properties": { "node_id": "-9059079.417_3317947.131", "x": -9059079.417, "y": 3317947.131, "degree": 4 }, "geometry": { "type": "Point", "coordinates": [ -81.379095003436632, 28.545677998876965 ] } },
{ "type": "Feature", "properties": { "node_id": "-9115678.142_3353570.797", "x": -9115678.142000001, "y": 3353570.797, "degree": 3 }, "geometry": { "type": "Point", "coordinates": [ -81.887530000728418, 28.826413001897102 ] } },
{ "type": "Feature", "properties": { "node_id": "-9164378.527_3458891.563", "x": -9164378.527000001, "y": 3458891.563, "degree": 4 }, "geometry": { "type": "Point", "coordinates": [ -82.325013002608472, 29.651967998327716 ] } },
{ "type": "Feature", "properties": { "node_id": "-9311418.327_3874207.078", "x": -9311418.327, "y": 3874207.078, "degree": 3 }, "geometry": { "type": "Point", "coordinates": [ -83.64589399974723, 32.840915002431728 ] } },
{ "type": "Feature", "properties": { "node_id": "-10776043.858_3866019.888", "x": -10776043.858, "y": 3866019.888, "degree": 3 }, "geometry": { "type": "Point", "coordinates": [ -96.802848999836925, 32.779101001662212 ] } },
{ "type": "Feature", "properties": { "node_id": "-10776291.433_3867008.448", "x": -10776291.433, "y": 3867008.448, "degree": 4 }, "geometry": { "type": "Point", "coordinates": [ -96.805073003901597, 32.786566998120684 ] } },
{ "type": "Feature", "properties": { "node_id": "-10845768.598_4245742.703", "x": -10845768.598, "y": 4245742.703, "degree": 3 }, "geometry": { "type": "Point", "coordinates": [ -97.429196996069521, 35.600161003278629 ] } },
{ "type": "Feature", "properties": { "node_id": "-10656841.166_4323051.928", "x": -10656841.166, "y": 4323051.928, "degree": 3 }, "geometry": { "type": "Point", "coordinates": [ -95.732032998519017, 36.162845999927725 ] } },
{ "type": "Feature", "properties": { "node_id": "-10517314.541_4445586.087", "x": -10517314.541, "y": 4445586.087, "degree": 4 }, "geometry": { "type": "Point", "coordinates": [ -94.478644000727883, 37.046470000950386 ] } },
{ "type": "Feature", "properties": { "node_id": "-10041029.647_4667803.411", "x": -10041029.647, "y": 4667803.411, "degree": 3 }, "geometry": { "type": "Point", "coordinates": [ -90.200104001973429, 38.622935996990265 ] } },
{ "type": "Feature", "properties": { "node_id": "-10035293.687_4669145.852", "x": -10035293.687000001, "y": 4669145.852, "degree": 3 }, "geometry": { "type": "Point", "coordinates": [ -90.148576996602458, 38.632356996577371 ] } },
{ "type": "Feature", "properties": { "node_id": "-9755015.811_5130253.540", "x": -9755015.811000001, "y": 5130253.54, "degree": 3 }, "geometry": { "type": "Point", "coordinates": [ -87.630797998488887, 41.794550002786657 ] } },
{ "type": "Feature", "properties": { "node_id": "-9755083.271_5137663.728", "x": -9755083.271, "y": 5137663.728, "degree": 3 }, "geometry": { "type": "Point", "coordinates": [ -87.631404001979547, 41.844158998181172 ] } },
{ "type": "Feature", "properties": { "node_id": "-9755012.694_5142745.840", "x": -9755012.694, "y": 5142745.84, "degree": 4 }, "geometry": { "type": "Point", "coordinates": [ -87.630769998001483, 41.878160001725341 ] } },
{ "type": "Feature", "properties": { "node_id": "-11634230.525_4462196.616", "x": -11634230.525, "y": 4462196.616, "degree": 3 }, "geometry": { "type": "Point", "coordinates": [ -104.51207099577384, 37.165471997171039 ] } },
{ "type": "Feature", "properties": { "node_id": "-11793493.651_4257564.760", "x": -11793493.651000001, "y": 4257564.76, "degree": 3 }, "geometry": { "type": "Point", "coordinates": [ -105.942755998598372, 35.686464996324645 ] } },
{ "type": "Feature", "properties": { "node_id": "-11792924.697_4257345.200", "x": -11792924.697000001, "y": 4257345.2, "degree": 3 }, "geometry": { "type": "Point", "coordinates": [ -105.937644997856765, 35.684863002730935 ] } },
{ "type": "Feature", "properties": { "node_id": "-11488780.701_4082448.783", "x": -11488780.701, "y": 4082448.783, "degree": 3 }, "geometry": { "type": "Point", "coordinates": [ -103.205472996056898, 34.398585998988047 ] } },
{ "type": "Feature", "properties": { "node_id": "-11338475.900_3972252.396", "x": -11338475.9, "y": 3972252.396, "degree": 3 }, "geometry": { "type": "Point", "coordinates": [ -101.855261995908464, 33.577812000423279 ] } },
{ "type": "Feature", "properties": { "node_id": "-10835138.589_3863057.219", "x": -10835138.589, "y": 3863057.219, "degree": 3 }, "geometry": { "type": "Point", "coordinates": [ -97.333706000519243, 32.756722000404928 ] } },
{ "type": "Feature", "properties": { "node_id": "-10832335.564_3861887.131", "x": -10832335.564, "y": 3861887.131, "degree": 3 }, "geometry": { "type": "Point", "coordinates": [ -97.308525998526548, 32.747882001091682 ] } },
{ "type": "Feature", "properties": { "node_id": "-10762622.735_4984871.606", "x": -10762622.735, "y": 4984871.606, "degree": 3 }, "geometry": { "type": "Point", "coordinates": [ -96.682285000627459, 40.813498996784006 ] } },
{ "type": "Feature", "properties": { "node_id": "-10679379.690_5050565.441", "x": -10679379.69, "y": 5050565.441, "degree": 3 }, "geometry": { "type": "Point", "coordinates": [ -95.934500004425971, 41.258634998536394 ] } },
{ "type": "Feature", "properties": { "node_id": "-10676444.083_5051052.644", "x": -10676444.083000001, "y": 5051052.644, "degree": 3 }, "geometry": { "type": "Point", "coordinates": [ -95.90812899806329, 41.261924997126229 ] } },
{ "type": "Feature", "properties": { "node_id": "-10419553.096_5101337.459", "x": -10419553.096000001, "y": 5101337.459, "degree": 3 }, "geometry": { "type": "Point", "coordinates": [ -93.600437998316792, 41.600598002206908 ] } },
{ "type": "Feature", "properties": { "node_id": "-10416738.494_5105380.276", "x": -10416738.494000001, "y": 5105380.276, "degree": 3 }, "geometry": { "type": "Point", "coordinates": [ -93.57515399836366, 41.627750000812213 ] } },
{ "type": "Feature", "properties": { "node_id": "-9797324.899_5136061.229", "x": -9797324.899, "y": 5136061.229, "degree": 3 }, "geometry": { "type": "Point", "coordinates": [ -88.010867002564467, 41.833434002888524 ] } },
{ "type": "Feature", "properties": { "node_id": "-9756312.906_5142364.599", "x": -9756312.906, "y": 5142364.599, "degree": 3 }, "geometry": { "type": "Point", "coordinates": [ -87.642450001123436, 41.875610001100156 ] } },
{ "type": "Feature", "properties": { "node_id": "-9738325.012_5107115.880", "x": -9738325.012, "y": 5107115.88, "degree": 3 }, "geometry": { "type": "Point", "coordinates": [ -87.480862000030214, 41.639402999224444 ] } },
{ "type": "Feature", "properties": { "node_id": "-9628765.928_4876050.322", "x": -9628765.928, "y": 4876050.322, "degree": 3 }, "geometry": { "type": "Point", "coordinates": [ -86.496676003316864, 40.069523002813646 ] } },
{ "type": "Feature", "properties": { "node_id": "-9591005.911_4834437.208", "x": -9591005.911, "y": 4834437.208, "degree": 3 }, "geometry": { "type": "Point", "coordinates": [ -86.157471999319739, 39.782854003030749 ] } },
{ "type": "Feature", "properties": { "node_id": "-9591035.633_4833373.140", "x": -9591035.633, "y": 4833373.14, "degree": 3 }, "geometry": { "type": "Point", "coordinates": [ -86.157738996588492, 39.775507999710491 ] } },
{ "type": "Feature", "properties": { "node_id": "-9591081.720_4831941.478", "x": -9591081.72, "y": 4831941.478, "degree": 3 }, "geometry": { "type": "Point", "coordinates": [ -86.158153003153487, 39.765623001481224 ] } },
{ "type": "Feature", "properties": { "node_id": "-9546143.377_4616042.279", "x": -9546143.377, "y": 4616042.279, "degree": 3 }, "geometry": { "type": "Point", "coordinates": [ -85.754464999554429, 38.258742999747227 ] } },
{ "type": "Feature", "properties": { "node_id": "-9546244.232_4615320.988", "x": -9546244.232000001, "y": 4615320.988, "degree": 4 }, "geometry": { "type": "Point", "coordinates": [ -85.75537099543422, 38.253654998415207 ] } },
{ "type": "Feature", "properties": { "node_id": "-9659652.745_4330979.152", "x": -9659652.745, "y": 4330979.152, "degree": 3 }, "geometry": { "type": "Point", "coordinates": [ -86.774137001205901, 36.220316999769928 ] } },
{ "type": "Feature", "properties": { "node_id": "-9659014.328_4324268.821", "x": -9659014.328, "y": 4324268.821, "degree": 3 }, "geometry": { "type": "Point", "coordinates": [ -86.768402003718478, 36.171671003410147 ] } },
{ "type": "Feature", "properties": { "node_id": "-9660535.286_4322508.680", "x": -9660535.286, "y": 4322508.68, "degree": 3 }, "geometry": { "type": "Point", "coordinates": [ -86.782065001897521, 36.158906002026193 ] } },
{ "type": "Feature", "properties": { "node_id": "-9638780.897_4128481.616", "x": -9638780.897, "y": 4128481.616, "degree": 3 }, "geometry": { "type": "Point", "coordinates": [ -86.586642000543691, 34.739096000481055 ] } },
{ "type": "Feature", "properties": { "node_id": "-9408295.561_4022195.299", "x": -9408295.561000001, "y": 4022195.299, "degree": 3 }, "geometry": { "type": "Point", "coordinates": [ -84.516156999601478, 33.950783003788459 ] } },
{ "type": "Feature", "properties": { "node_id": "-9394259.175_3998129.835", "x": -9394259.175000001, "y": 3998129.835, "degree": 4 }, "geometry": { "type": "Point", "coordinates": [ -84.390065998825463, 33.77126600221122 ] } },
{ "type": "Feature", "properties": { "node_id": "-9393011.952_3996550.672", "x": -9393011.952, "y": 3996550.672, "degree": 3 }, "geometry": { "type": "Point", "coordinates": [ -84.378862003989411, 33.759473003137998 ] } },
{ "type": "Feature", "properties": { "node_id": "-9477717.290_5026555.547", "x": -9477717.29, "y": 5026555.547, "degree": 3 }, "geometry": { "type": "Point", "coordinates": [ -85.139783001708494, 41.096295002129935 ] } },
{ "type": "Feature", "properties": { "node_id": "-9466481.591_5022635.223", "x": -9466481.591, "y": 5022635.223, "degree": 3 }, "geometry": { "type": "Point", "coordinates": [ -85.038851000313841, 41.069750000253094 ] } },
{ "type": "Feature", "properties": { "node_id": "-9239590.650_4860454.001", "x": -9239590.65, "y": 4860454.001, "degree": 3 }, "geometry": { "type": "Point", "coordinates": [ -83.000654999028242, 39.962221998722882 ] } },
{ "type": "Feature", "properties": { "node_id": "-9239295.097_4860497.137", "x": -9239295.097, "y": 4860497.137, "degree": 3 }, "geometry": { "type": "Point", "coordinates": [ -82.998000001256557, 39.962519002382081 ] } },
{ "type": "Feature", "properties": { "node_id": "-9079449.436_4760087.002", "x": -9079449.436000001, "y": 4760087.002, "degree": 3 }, "geometry": { "type": "Point", "coordinates": [ -81.562081997491688, 39.267678002017583 ] } },
{ "type": "Feature", "properties": { "node_id": "-8895901.073_4815618.113", "x": -8895901.073000001, "y": 4815618.113, "degree": 3 }, "geometry": { "type": "Point", "coordinates": [ -79.91323899891151, 39.652816997703482 ] } },
{ "type": "Feature", "properties": { "node_id": "-8767529.106_4815107.453", "x": -8767529.106000001, "y": 4815107.453, "degree": 3 }, "geometry": { "type": "Point", "coordinates": [ -78.76005399882564, 39.649285000708453 ] } },
{ "type": "Feature", "properties": { "node_id": "-8762768.528_4818614.649", "x": -8762768.528000001, "y": 4818614.649, "degree": 3 }, "geometry": { "type": "Point", "coordinates": [ -78.717288999039212, 39.673539003005303 ] } },
{ "type": "Feature", "properties": { "node_id": "-8579418.648_4708076.049", "x": -8579418.648, "y": 4708076.049, "degree": 3 }, "geometry": { "type": "Point", "coordinates": [ -77.070229003584402, 38.905023000267789 ] } },
{ "type": "Feature", "properties": { "node_id": "-8577253.595_4707718.860", "x": -8577253.595000001, "y": 4707718.86, "degree": 3 }, "geometry": { "type": "Point", "coordinates": [ -77.050780001576115, 38.902525997155962 ] } },
{ "type": "Feature", "properties": { "node_id": "-8575991.900_4707718.431", "x": -8575991.9, "y": 4707718.431, "degree": 3 }, "geometry": { "type": "Point", "coordinates": [ -77.03944600255214, 38.90252299809049 ] } },
{ "type": "Feature", "properties": { "node_id": "-8575667.292_4708361.866", "x": -8575667.292, "y": 4708361.866, "degree": 3 }, "geometry": { "type": "Point", "coordinates": [ -77.036529999274663, 38.907020999493817 ] } },
{ "type": "Feature", "properties": { "node_id": "-9389685.725_3998473.736", "x": -9389685.725, "y": 3998473.736, "degree": 4 }, "geometry": { "type": "Point", "coordinates": [ -84.348981998463884, 33.773833998261502 ] } },
{ "type": "Feature", "properties": { "node_id": "-9264950.232_4081484.879", "x": -9264950.232000001, "y": 4081484.879, "degree": 3 }, "geometry": { "type": "Point", "coordinates": [ -83.228464000123054, 34.391441000511165 ] } },
{ "type": "Feature", "properties": { "node_id": "-9238915.720_4096158.491", "x": -9238915.72, "y": 4096158.491, "degree": 3 }, "geometry": { "type": "Point", "coordinates": [ -82.994591999681134, 34.500143997209818 ] } },
{ "type": "Feature", "properties": { "node_id": "-9086403.899_4177850.519", "x": -9086403.899, "y": 4177850.519, "degree": 3 }, "geometry": { "type": "Point", "coordinates": [ -81.624555001549126, 35.102729999936365 ] } },
{ "type": "Feature", "properties": { "node_id": "-8999983.907_4195149.566", "x": -8999983.907, "y": 4195149.566, "degree": 3 }, "geometry": { "type": "Point", "coordinates": [ -80.848231004878244, 35.229766997418771 ] } },
{ "type": "Feature", "properties": { "node_id": "-8881434.549_4310537.534", "x": -8881434.549000001, "y": 4310537.534, "degree": 3 }, "geometry": { "type": "Point", "coordinates": [ -79.783284002738696, 36.072033000984035 ] } },
{ "type": "Feature", "properties": { "node_id": "-8621392.330_4515874.974", "x": -8621392.33, "y": 4515874.974, "degree": 3 }, "geometry": { "type": "Point", "coordinates": [ -77.447285004298138, 37.548756999166926 ] } },
{ "type": "Feature", "properties": { "node_id": "-8528483.969_4763950.148", "x": -8528483.969000001, "y": 4763950.148, "degree": 3 }, "geometry": { "type": "Point", "coordinates": [ -76.612674997210192, 39.294540002659154 ] } },
{ "type": "Feature", "properties": { "node_id": "-8411200.537_4828318.126", "x": -8411200.537, "y": 4828318.126, "degree": 3 }, "geometry": { "type": "Point", "coordinates": [ -75.559100001814258, 39.740599003336378 ] } },
{ "type": "Feature", "properties": { "node_id": "-8367358.357_4859054.742", "x": -8367358.357, "y": 4859054.742, "degree": 3 }, "geometry": { "type": "Point", "coordinates": [ -75.165258997983074, 39.952587001863378 ] } },
{ "type": "Feature", "properties": { "node_id": "-8292302.304_4931855.708", "x": -8292302.304, "y": 4931855.708, "degree": 3 }, "geometry": { "type": "Point", "coordinates": [ -74.491019002227219, 40.452074997634575 ] } },
{ "type": "Feature", "properties": { "node_id": "-8251593.434_4973248.714", "x": -8251593.434, "y": 4973248.714, "degree": 3 }, "geometry": { "type": "Point", "coordinates": [ -74.125325001024876, 40.734430002572367 ] } },
{ "type": "Feature", "properties": { "node_id": "-8238860.377_4971964.075", "x": -8238860.377, "y": 4971964.075, "degree": 3 }, "geometry": { "type": "Point", "coordinates": [ -74.010942003858233, 40.725684999095847 ] } },
{ "type": "Feature", "properties": { "node_id": "-8238091.827_4970122.100", "x": -8238091.827, "y": 4970122.1, "degree": 3 }, "geometry": { "type": "Point", "coordinates": [ -74.004038001742117, 40.713144002086054 ] } },
{ "type": "Feature", "properties": { "node_id": "-11872138.200_4175335.877", "x": -11872138.2, "y": 4175335.877, "degree": 3 }, "geometry": { "type": "Point", "coordinates": [ -106.649232002392239, 35.084247001837255 ] } },
{ "type": "Feature", "properties": { "node_id": "-12421919.673_4193984.299", "x": -12421919.673, "y": 4193984.299, "degree": 3 }, "geometry": { "type": "Point", "coordinates": [ -111.588003003608677, 35.221215996725746 ] } },
{ "type": "Feature", "properties": { "node_id": "-12476973.951_3955375.520", "x": -12476973.951, "y": 3955375.52, "degree": 3 }, "geometry": { "type": "Point", "coordinates": [ -112.082563997444325, 33.451409999377908 ] } },
{ "type": "Feature", "properties": { "node_id": "-13162566.539_4035705.343", "x": -13162566.539000001, "y": 4035705.343, "degree": 3 }, "geometry": { "type": "Point", "coordinates": [ -118.241347002238911, 34.051396001533426 ] } },
{ "type": "Feature", "properties": { "node_id": "-13068951.634_4021570.356", "x": -13068951.634, "y": 4021570.356, "degree": 3 }, "geometry": { "type": "Point", "coordinates": [ -117.400390002409935, 33.946125998936189 ] } },
{ "type": "Feature", "properties": { "node_id": "-13063756.464_4021408.524", "x": -13063756.464, "y": 4021408.524, "degree": 3 }, "geometry": { "type": "Point", "coordinates": [ -117.353720996263945, 33.944920003561691 ] } },
{ "type": "Feature", "properties": { "node_id": "-13021758.181_4018991.371", "x": -13021758.181, "y": 4018991.371, "degree": 3 }, "geometry": { "type": "Point", "coordinates": [ -116.976444001007181, 33.926904997844524 ] } },
{ "type": "Feature", "properties": { "node_id": "-12973706.010_4007973.271", "x": -12973706.01, "y": 4007973.271, "degree": 3 }, "geometry": { "type": "Point", "coordinates": [ -116.544784004562914, 33.844738998053771 ] } },
{ "type": "Feature", "properties": { "node_id": "-12475028.643_3954957.523", "x": -12475028.643, "y": 3954957.523, "degree": 3 }, "geometry": { "type": "Point", "coordinates": [ -112.065088998357112, 33.44827700266103 ] } },
{ "type": "Feature", "properties": { "node_id": "-12353538.892_3792424.876", "x": -12353538.892000001, "y": 3792424.876, "degree": 3 }, "geometry": { "type": "Point", "coordinates": [ -110.97372799648538, 32.221527998512343 ] } },
{ "type": "Feature", "properties": { "node_id": "-12353247.792_3792357.110", "x": -12353247.792, "y": 3792357.11, "degree": 3 }, "geometry": { "type": "Point", "coordinates": [ -110.971113000693308, 32.221012996908222 ] } },
{ "type": "Feature", "properties": { "node_id": "-11883042.946_3804577.084", "x": -11883042.946, "y": 3804577.084, "degree": 3 }, "geometry": { "type": "Point", "coordinates": [ -106.747191002404648, 32.313833997662641 ] } },
{ "type": "Feature", "properties": { "node_id": "-11863362.439_3742251.463", "x": -11863362.439, "y": 3742251.463, "degree": 3 }, "geometry": { "type": "Point", "coordinates": [ -106.570398000031432, 31.839427996570414 ] } },
{ "type": "Feature", "properties": { "node_id": "-11852576.694_3732847.217", "x": -11852576.694, "y": 3732847.217, "degree": 3 }, "geometry": { "type": "Point", "coordinates": [ -106.473508004190279, 31.767632000694679 ] } },
{ "type": "Feature", "properties": { "node_id": "-9764020.667_5160585.491", "x": -9764020.667, "y": 5160585.491, "degree": 3 }, "geometry": { "type": "Point", "coordinates": [ -87.711689996249845, 41.997370000363482 ] } },
{ "type": "Feature", "properties": { "node_id": "-9232715.002_4123168.566", "x": -9232715.002, "y": 4123168.566, "degree": 3 }, "geometry": { "type": "Point", "coordinates": [ -82.938890002161983, 34.699866000812555 ] } },
{ "type": "Feature", "properties": { "node_id": "-9341837.380_4294850.513", "x": -9341837.38, "y": 4294850.513, "degree": 3 }, "geometry": { "type": "Point", "coordinates": [ -83.919153002130656, 35.958048996895627 ] } },
{ "type": "Feature", "properties": { "node_id": "-11691312.266_4842153.865", "x": -11691312.266000001, "y": 4842153.865, "degree": 3 }, "geometry": { "type": "Point", "coordinates": [ -105.024844999618367, 39.836104000908044 ] } },
{ "type": "Feature", "properties": { "node_id": "-10927374.579_3036454.793", "x": -10927374.579, "y": 3036454.793, "degree": 3 }, "geometry": { "type": "Point", "coordinates": [ -98.162275996148196, 26.301367999167926 ] } },
{ "type": "Feature", "properties": { "node_id": "-13152360.879_4033494.446", "x": -13152360.879000001, "y": 4033494.446, "degree": 3 }, "geometry": { "type": "Point", "coordinates": [ -118.149667998613651, 34.03493900306615 ] } },
{ "type": "Feature", "properties": { "node_id": "-13139764.188_4032529.857", "x": -13139764.188, "y": 4032529.857, "degree": 3 }, "geometry": { "type": "Point", "coordinates": [ -118.036509998067316, 34.027758002892284 ] } },
{ "type": "Feature", "properties": { "node_id": "-8514392.703_5226709.814", "x": -8514392.703, "y": 5226709.814, "degree": 3 }, "geometry": { "type": "Point", "coordinates": [ -76.486091001006244, 42.437288002321274 ] } },
{ "type": "Feature", "properties": { "node_id": "-8457870.009_5211796.047", "x": -8457870.009, "y": 5211796.047, "degree": 3 }, "geometry": { "type": "Point", "coordinates": [ -75.978339001808138, 42.338336002861602 ] } },
{ "type": "Feature", "properties": { "node_id": "-8257363.791_4973612.027", "x": -8257363.791, "y": 4973612.027, "degree": 3 }, "geometry": { "type": "Point", "coordinates": [ -74.177160999904132, 40.736902997419179 ] } },
{ "type": "Feature", "properties": { "node_id": "-8237625.955_4971390.339", "x": -8237625.955, "y": 4971390.339, "degree": 3 }, "geometry": { "type": "Point", "coordinates": [ -73.999853002361689, 40.721778998855299 ] } },
{ "type": "Feature", "properties": { "node_id": "-8230497.277_4983429.110", "x": -8230497.277, "y": 4983429.11, "degree": 4 }, "geometry": { "type": "Point", "coordinates": [ -73.93581499833202, 40.803691002491988 ] } },
{ "type": "Feature", "properties": { "node_id": "-8226804.030_4989437.732", "x": -8226804.03, "y": 4989437.732, "degree": 4 }, "geometry": { "type": "Point", "coordinates": [ -73.902637996050743, 40.844535998346657 ] } },
{ "type": "Feature", "properties": { "node_id": "-7913135.984_5212459.155", "x": -7913135.984, "y": 5212459.155, "degree": 4 }, "geometry": { "type": "Point", "coordinates": [ -71.084909997433698, 42.342739000223112 ] } },
{ "type": "Feature", "properties": { "node_id": "-7879465.178_5323279.225", "x": -7879465.178, "y": 5323279.225, "degree": 3 }, "geometry": { "type": "Point", "coordinates": [ -70.782440000849448, 43.074243002006199 ] } },
{ "type": "Feature", "properties": { "node_id": "-7915720.934_5213789.428", "x": -7915720.934, "y": 5213789.428, "degree": 3 }, "geometry": { "type": "Point", "coordinates": [ -71.108130998370527, 42.351571003494996 ] } },
{ "type": "Feature", "properties": { "node_id": "-7949183.462_5135090.297", "x": -7949183.462, "y": 5135090.297, "degree": 3 }, "geometry": { "type": "Point", "coordinates": [ -71.408730001847303, 41.826935002023625 ] } },
{ "type": "Feature", "properties": { "node_id": "-8232768.974_4984860.869", "x": -8232768.974, "y": 4984860.869, "degree": 3 }, "geometry": { "type": "Point", "coordinates": [ -73.956221999691905, 40.81342599782247 ] } },
{ "type": "Feature", "properties": { "node_id": "-8089890.408_5126515.297", "x": -8089890.408, "y": 5126515.297, "degree": 3 }, "geometry": { "type": "Point", "coordinates": [ -72.672722003583104, 41.769508999471171 ] } },
{ "type": "Feature", "properties": { "node_id": "-8044637.031_5135200.099", "x": -8044637.031, "y": 5135200.099, "degree": 3 }, "geometry": { "type": "Point", "coordinates": [ -72.266204001411879, 41.827670002436122 ] } },
{ "type": "Feature", "properties": { "node_id": "-7841727.425_5388553.175", "x": -7841727.425, "y": 5388553.175, "degree": 3 }, "geometry": { "type": "Point", "coordinates": [ -70.443435997767182, 43.50106800155875 ] } },
{ "type": "Feature", "properties": { "node_id": "-9059717.389_3316611.394", "x": -9059717.389, "y": 3316611.394, "degree": 3 }, "geometry": { "type": "Point", "coordinates": [ -81.38482600342104, 28.535136998936494 ] } },
{ "type": "Feature", "properties": { "node_id": "-8926784.328_2972555.301", "x": -8926784.328, "y": 2972555.301, "degree": 3 }, "geometry": { "type": "Point", "coordinates": [ -80.190667998810113, 25.785637003485746 ] } },
{ "type": "Feature", "properties": { "node_id": "-9061091.516_3316606.706", "x": -9061091.516000001, "y": 3316606.706, "degree": 3 }, "geometry": { "type": "Point", "coordinates": [ -81.397169996285257, 28.535100001616996 ] } },
{ "type": "Feature", "properties": { "node_id": "-9061066.692_3313436.245", "x": -9061066.692, "y": 3313436.245, "degree": 3 }, "geometry": { "type": "Point", "coordinates": [ -81.396946998499118, 28.510076003516591 ] } },
{ "type": "Feature", "properties": { "node_id": "-9099682.533_3271931.181", "x": -9099682.533, "y": 3271931.181, "degree": 3 }, "geometry": { "type": "Point", "coordinates": [ -81.743839000293406, 28.181935997939661 ] } },
{ "type": "Feature", "properties": { "node_id": "-8920841.648_3014254.326", "x": -8920841.648, "y": 3014254.326, "degree": 3 }, "geometry": { "type": "Point", "coordinates": [ -80.137283996083795, 26.122446003587388 ] } },
{ "type": "Feature", "properties": { "node_id": "-8922842.394_3022441.059", "x": -8922842.394, "y": 3022441.059, "degree": 3 }, "geometry": { "type": "Point", "coordinates": [ -80.155257003198201, 26.18845800318276 ] } },
{ "type": "Feature", "properties": { "node_id": "-9178191.272_3243069.872", "x": -9178191.272, "y": 3243069.872, "degree": 3 }, "geometry": { "type": "Point", "coordinates": [ -82.449095002099909, 27.953162001655915 ] } },
{ "type": "Feature", "properties": { "node_id": "-8913960.545_3086793.715", "x": -8913960.545, "y": 3086793.715, "degree": 3 }, "geometry": { "type": "Point", "coordinates": [ -80.075469996118784, 26.706045000302776 ] } },
{ "type": "Feature", "properties": { "node_id": "-9107120.901_3052584.554", "x": -9107120.901000001, "y": 3052584.554, "degree": 3 }, "geometry": { "type": "Point", "coordinates": [ -81.810658996926477, 26.431191000358442 ] } },
{ "type": "Feature", "properties": { "node_id": "-9133660.804_3115367.187", "x": -9133660.804, "y": 3115367.187, "degree": 3 }, "geometry": { "type": "Point", "coordinates": [ -82.049071001965956, 26.935111997101874 ] } },
{ "type": "Feature", "properties": { "node_id": "-9111790.977_3152708.954", "x": -9111790.977, "y": 3152708.954, "degree": 3 }, "geometry": { "type": "Point", "coordinates": [ -81.852611003414466, 27.233772002098771 ] } },
{ "type": "Feature", "properties": { "node_id": "-12934612.497_5399882.480", "x": -12934612.497, "y": 5399882.48, "degree": 3 }, "geometry": { "type": "Point", "coordinates": [ -116.193601002184678, 43.574844999120614 ] } },
{ "type": "Feature", "properties": { "node_id": "-12934971.391_5398567.744", "x": -12934971.391000001, "y": 5398567.744, "degree": 3 }, "geometry": { "type": "Point", "coordinates": [ -116.196825001840466, 43.566288002973231 ] } },
{ "type": "Feature", "properties": { "node_id": "-12456716.810_5010366.253", "x": -12456716.81, "y": 5010366.253, "degree": 3 }, "geometry": { "type": "Point", "coordinates": [ -111.900591003715689, 40.986606002748651 ] } },
{ "type": "Feature", "properties": { "node_id": "-13327141.274_4086023.435", "x": -13327141.274, "y": 4086023.435, "degree": 3 }, "geometry": { "type": "Point", "coordinates": [ -119.719747000543109, 34.425078003468933 ] } },
{ "type": "Feature", "properties": { "node_id": "-13043798.995_3946997.506", "x": -13043798.995, "y": 3946997.506, "degree": 3 }, "geometry": { "type": "Point", "coordinates": [ -117.17444000191351, 33.388593003314632 ] } },
{ "type": "Feature", "properties": { "node_id": "-13042502.457_3964876.394", "x": -13042502.457, "y": 3964876.394, "degree": 3 }, "geometry": { "type": "Point", "coordinates": [ -117.162793002895114, 33.522590999790324 ] } },
{ "type": "Feature", "properties": { "node_id": "-12820776.184_4320482.494", "x": -12820776.184, "y": 4320482.494, "degree": 3 }, "geometry": { "type": "Point", "coordinates": [ -115.170992003627532, 36.144208999288267 ] } },
{ "type": "Feature", "properties": { "node_id": "-11852574.356_3733398.465", "x": -11852574.356000001, "y": 3733398.465, "degree": 3 }, "geometry": { "type": "Point", "coordinates": [ -106.473487001578945, 31.771842000295219 ] } },
{ "type": "Feature", "properties": { "node_id": "-11870729.674_4175110.195", "x": -11870729.674000001, "y": 4175110.195, "degree": 3 }, "geometry": { "type": "Point", "coordinates": [ -106.636578998053437, 35.082588000229237 ] } },
{ "type": "Feature", "properties": { "node_id": "-12629201.017_4462408.671", "x": -12629201.017000001, "y": 4462408.671, "degree": 3 }, "geometry": { "type": "Point", "coordinates": [ -113.450042997889042, 37.166990003448532 ] } },
{ "type": "Feature", "properties": { "node_id": "-10880698.651_3539326.059", "x": -10880698.651000001, "y": 3539326.059, "degree": 3 }, "geometry": { "type": "Point", "coordinates": [ -97.74297900091959, 30.277935003413678 ] } },
{ "type": "Feature", "properties": { "node_id": "-9738127.865_3921501.528", "x": -9738127.865, "y": 3921501.528, "degree": 3 }, "geometry": { "type": "Point", "coordinates": [ -87.479090998397041, 33.197148998362294 ] } },
{ "type": "Feature", "properties": { "node_id": "-8781245.671_3987696.090", "x": -8781245.671, "y": 3987696.09, "degree": 3 }, "geometry": { "type": "Point", "coordinates": [ -78.883271998676832, 33.69331800131804 ] } },
{ "type": "Feature", "properties": { "node_id": "-8754681.501_4268923.390", "x": -8754681.501, "y": 4268923.39, "degree": 3 }, "geometry": { "type": "Point", "coordinates": [ -78.644641999467339, 35.769298003054743 ] } },
{ "type": "Feature", "properties": { "node_id": "-10804515.599_4316548.391", "x": -10804515.599, "y": 4316548.391, "degree": 3 }, "geometry": { "type": "Point", "coordinates": [ -97.058615000894861, 36.115664997064883 ] } },
{ "type": "Feature", "properties": { "node_id": "-10484124.635_4308430.556", "x": -10484124.635, "y": 4308430.556, "degree": 3 }, "geometry": { "type": "Point", "coordinates": [ -94.180494002344986, 36.056733000335868 ] } },
{ "type": "Feature", "properties": { "node_id": "-10486364.049_4311396.968", "x": -10486364.049000001, "y": 4311396.968, "degree": 3 }, "geometry": { "type": "Point", "coordinates": [ -94.200611000581702, 36.078272999951459 ] } },
{ "type": "Feature", "properties": { "node_id": "-10481515.862_4311252.760", "x": -10481515.862, "y": 4311252.76, "degree": 3 }, "geometry": { "type": "Point", "coordinates": [ -94.157058995758007, 36.077225999179561 ] } },
{ "type": "Feature", "properties": { "node_id": "-9841005.888_4633107.862", "x": -9841005.888, "y": 4633107.862, "degree": 3 }, "geometry": { "type": "Point", "coordinates": [ -88.403260003006025, 38.379020000489952 ] } },
{ "type": "Feature", "properties": { "node_id": "-10544590.043_4712388.623", "x": -10544590.043, "y": 4712388.623, "degree": 3 }, "geometry": { "type": "Point", "coordinates": [ -94.723664004014211, 38.935164003527319 ] } },
{ "type": "Feature", "properties": { "node_id": "-10771093.814_5513766.818", "x": -10771093.814, "y": 5513766.818, "degree": 3 }, "geometry": { "type": "Point", "coordinates": [ -96.758381998014286, 44.311448998718859 ] } },
{ "type": "Feature", "properties": { "node_id": "-10382676.400_5614914.070", "x": -10382676.4, "y": 5614914.07, "degree": 3 }, "geometry": { "type": "Point", "coordinates": [ -93.269169001870509, 44.958014000995881 ] } },
{ "type": "Feature", "properties": { "node_id": "-10419567.011_5116572.714", "x": -10419567.011, "y": 5116572.714, "degree": 3 }, "geometry": { "type": "Point", "coordinates": [ -93.600562998888577, 41.702860001921771 ] } },
{ "type": "Feature", "properties": { "node_id": "-9632878.626_4745276.610", "x": -9632878.626, "y": 4745276.61, "degree": 3 }, "geometry": { "type": "Point", "coordinates": [ -86.533620998040547, 39.164599998080909 ] } },
{ "type": "Feature", "properties": { "node_id": "-9674142.424_4927465.345", "x": -9674142.424000001, "y": 4927465.345, "degree": 3 }, "geometry": { "type": "Point", "coordinates": [ -86.904300002282753, 40.422057001847456 ] } },
{ "type": "Feature", "properties": { "node_id": "-9739716.506_4678064.648", "x": -9739716.506, "y": 4678064.648, "degree": 3 }, "geometry": { "type": "Point", "coordinates": [ -87.493362003309812, 38.694916001257496 ] } },
{ "type": "Feature", "properties": { "node_id": "-9406271.995_4585886.530", "x": -9406271.995, "y": 4585886.53, "degree": 3 }, "geometry": { "type": "Point", "coordinates": [ -84.497978996939224, 38.045719997775315 ] } },
{ "type": "Feature", "properties": { "node_id": "-9407134.944_4587072.281", "x": -9407134.944, "y": 4587072.281, "degree": 3 }, "geometry": { "type": "Point", "coordinates": [ -84.505730999700376, 38.05410800070436 ] } },
{ "type": "Feature", "properties": { "node_id": "-9477223.254_5029811.158", "x": -9477223.254000001, "y": 5029811.158, "degree": 3 }, "geometry": { "type": "Point", "coordinates": [ -85.135345000811455, 41.118330999891597 ] } },
{ "type": "Feature", "properties": { "node_id": "-9244744.631_5210681.683", "x": -9244744.631, "y": 5210681.683, "degree": 3 }, "geometry": { "type": "Point", "coordinates": [ -83.046953998091851, 42.330935998289988 ] } },
{ "type": "Feature", "properties": { "node_id": "-9321965.849_5201657.460", "x": -9321965.849, "y": 5201657.46, "degree": 3 }, "geometry": { "type": "Point", "coordinates": [ -83.740644001969102, 42.270978001371347 ] } },
{ "type": "Feature", "properties": { "node_id": "-9245715.560_5210110.246", "x": -9245715.56, "y": 5210110.246, "degree": 3 }, "geometry": { "type": "Point", "coordinates": [ -83.055676001696796, 42.327140997050378 ] } },
{ "type": "Feature", "properties": { "node_id": "-9249550.294_5207879.639", "x": -9249550.294, "y": 5207879.639, "degree": 3 }, "geometry": { "type": "Point", "coordinates": [ -83.090124003324135, 42.312325000813061 ] } },
{ "type": "Feature", "properties": { "node_id": "-9091656.732_5083270.396", "x": -9091656.732000001, "y": 5083270.396, "degree": 3 }, "geometry": { "type": "Point", "coordinates": [ -81.671742003237398, 41.479117996950158 ] } },
{ "type": "Feature", "properties": { "node_id": "-9094026.278_5082539.089", "x": -9094026.278000001, "y": 5082539.089, "degree": 3 }, "geometry": { "type": "Point", "coordinates": [ -81.693027997119643, 41.474196002295159 ] } },
{ "type": "Feature", "properties": { "node_id": "-9238476.231_4861211.150", "x": -9238476.231000001, "y": 4861211.15, "degree": 3 }, "geometry": { "type": "Point", "coordinates": [ -82.990644002822108, 39.967434998050187 ] } },
{ "type": "Feature", "properties": { "node_id": "-9373365.954_4830805.129", "x": -9373365.954, "y": 4830805.129, "degree": 4 }, "geometry": { "type": "Point", "coordinates": [ -84.202379001237588, 39.757775999597357 ] } },
{ "type": "Feature", "properties": { "node_id": "-8780607.588_5294673.173", "x": -8780607.588, "y": 5294673.173, "degree": 3 }, "geometry": { "type": "Point", "coordinates": [ -78.877540001562451, 42.886244998473259 ] } },
{ "type": "Feature", "properties": { "node_id": "-8777201.879_5280058.190", "x": -8777201.879000001, "y": 5280058.19, "degree": 3 }, "geometry": { "type": "Point", "coordinates": [ -78.846945997082827, 42.789973996855004 ] } },
{ "type": "Feature", "properties": { "node_id": "-8731059.283_4916037.621", "x": -8731059.283, "y": 4916037.621, "degree": 3 }, "geometry": { "type": "Point", "coordinates": [ -78.432440004725294, 40.343859999492487 ] } },
{ "type": "Feature", "properties": { "node_id": "-9836176.848_4633190.224", "x": -9836176.848, "y": 4633190.224, "degree": 3 }, "geometry": { "type": "Point", "coordinates": [ -88.35987999860977, 38.379599998025071 ] } },
{ "type": "Feature", "properties": { "node_id": "-10544583.475_4709191.039", "x": -10544583.475, "y": 4709191.039, "degree": 3 }, "geometry": { "type": "Point", "coordinates": [ -94.723605002666346, 38.912817002061217 ] } },
{ "type": "Feature", "properties": { "node_id": "-8766889.687_5297336.719", "x": -8766889.687000001, "y": 5297336.719, "degree": 3 }, "geometry": { "type": "Point", "coordinates": [ -78.754310000219078, 42.903774000724177 ] } },
{ "type": "Feature", "properties": { "node_id": "-8515263.110_5227024.312", "x": -8515263.11, "y": 5227024.312, "degree": 3 }, "geometry": { "type": "Point", "coordinates": [ -76.493910000121289, 42.439372999322259 ] } },
{ "type": "Feature", "properties": { "node_id": "-9104018.316_3016203.730", "x": -9104018.316, "y": 3016203.73, "degree": 3 }, "geometry": { "type": "Point", "coordinates": [ -81.782788001668663, 26.138168000150305 ] } },
{ "type": "Feature", "properties": { "node_id": "-8127474.094_5531302.691", "x": -8127474.094, "y": 5531302.691, "degree": 3 }, "geometry": { "type": "Point", "coordinates": [ -73.010341999256596, 44.42405999979789 ] } }
]
}
