{
"type": "FeatureCollection",
"name": "network_nodes_method2",
"crs": { "type": "name", "properties": { "name": "urn:ogc:def:crs:OGC:1.3:CRS84" } },
"features": [
{ "type": "Feature", "properties": { "node_id": "-13655253.581_5703286.443", "x": -13655253.581, "y": 5703286.443, "degree": 3 }, "geometry": { "type": "Point", "coordinates": [ -122.667230003401272, 45.517021002414758 ] } },
{ "type": "Feature", "properties": { "node_id": "-13697762.487_5475093.431", "x": -13697762.487, "y": 5475093.431, "degree": 3 }, "geometry": { "type": "Point", "coordinates": [ -123.049094003111279, 44.062332998923004 ] } },
{ "type": "Feature", "properties": { "node_id": "-13575764.562_4632281.719", "x": -13575764.562000001, "y": 4632281.719, "degree": 3 }, "geometry": { "type": "Point", "coordinates": [ -121.953167996527597, 38.37320200079472 ] } },
{ "type": "Feature", "properties": { "node_id": "-13616674.364_4568900.309", "x": -13616674.364, "y": 4568900.309, "degree": 3 }, "geometry": { "type": "Point", "coordinates": [ -122.320667000596643, 37.925454000039871 ] } },
{ "type": "Feature", "properties": { "node_id": "-13614842.490_4554768.122", "x": -13614842.49, "y": 4554768.122, "degree": 3 }, "geometry": { "type": "Point", "coordinates": [ -122.304210996468825, 37.825245002296029 ] } },
{ "type": "Feature", "properties": { "node_id": "-13627198.397_4548043.222", "x": -13627198.397, "y": 4548043.222, "degree": 3 }, "geometry": { "type": "Point", "coordinates": [ -122.41520599754142, 37.777511996167682 ] } },
{ "type": "Feature", "properties": { "node_id": "-13611021.004_4551870.274", "x": -13611021.004000001, "y": 4551870.274, "degree": 3 }, "geometry": { "type": "Point", "coordinates": [ -122.269882003650324, 37.804680003495719 ] } },
{ "type": "Feature", "properties": { "node_id": "-13609679.047_4551030.873", "x": -13609679.047, "y": 4551030.873, "degree": 3 }, "geometry": { "type": "Point", "coordinates": [ -122.25782699881303, 37.798722002537524 ] } },
{ "type": "Feature", "properties": { "node_id": "-13466248.336_4446996.526", "x": -13466248.336, "y": 4446996.526, "degree": 4 }, "geometry": { "type": "Point", "coordinates": [ -120.969366999778714, 37.056582002524664 ] } },
{ "type": "Feature", "properties": { "node_id": "-13242032.402_4166373.756", "x": -13242032.402000001, "y": 4166373.756, "degree": 3 }, "geometry": { "type": "Point", "coordinates": [ -118.955200995225383, 35.018339998552754 ] } },
{ "type": "Feature", "properties": { "node_id": "-13187795.209_4068027.141", "x": -13187795.209000001, "y": 4068027.141, "degree": 3 }, "geometry": { "type": "Point", "coordinates": [ -118.467980000828987, 34.291620999850352 ] } },
{ "type": "Feature", "properties": { "node_id": "-13163290.227_4036283.495", "x": -13163290.227, "y": 4036283.495, "degree": 3 }, "geometry": { "type": "Point", "coordinates": [ -118.247848002152253, 34.055698997975227 ] } },
{ "type": "Feature", "properties": { "node_id": "-13551485.447_4656043.181", "x": -13551485.447000001, "y": 4656043.181, "degree": 3 }, "geometry": { "type": "Point", "coordinates": [ -121.73506499563365, 38.540351997338391 ] } },
{ "type": "Feature", "properties": { "node_id": "-13534277.792_4660792.980", "x": -13534277.792, "y": 4660792.98, "degree": 3 }, "geometry": { "type": "Point", "coordinates": [ -121.58048600073009, 38.573717997241111 ] } },
{ "type": "Feature", "properties": { "node_id": "-13512171.522_4670964.079", "x": -13512171.522, "y": 4670964.079, "degree": 3 }, "geometry": { "type": "Point", "coordinates": [ -121.381901998571365, 38.645114999497729 ] } },
{ "type": "Feature", "properties": { "node_id": "-13509715.703_4673227.980", "x": -13509715.703, "y": 4673227.98, "degree": 3 }, "geometry": { "type": "Point", "coordinates": [ -121.359841001144048, 38.660997001010308 ] } },
{ "type": "Feature", "properties": { "node_id": "-12455340.233_4977101.732", "x": -12455340.233, "y": 4977101.732, "degree": 4 }, "geometry": { "type": "Point", "coordinates": [ -111.888225002127001, 40.76065199996134 ] } },
{ "type": "Feature", "properties": { "node_id": "-11694470.177_4828278.314", "x": -11694470.177, "y": 4828278.314, "degree": 3 }, "geometry": { "type": "Point", "coordinates": [ -105.053212996790236, 39.74032399876647 ] } },
{ "type": "Feature", "properties": { "node_id": "-11688334.804_4828249.071", "x": -11688334.804, "y": 4828249.071, "degree": 3 }, "geometry": { "type": "Point", "coordinates": [ -104.998098003393508, 39.74012199970916 ] } },
{ "type": "Feature", "properties": { "node_id": "-13162566.539_4035705.343", "x": -13162566.539000001, "y": 4035705.343, "degree": 3 }, "geometry": { "type": "Point", "coordinates": [ -118.241347002238911, 34.051396001533426 ] } },
{ "type": "Feature", "properties": { "node_id": "-13160815.260_4035878.664", "x": -13160815.26, "y": 4035878.664, "degree": 3 }, "geometry": { "type": "Point", "coordinates": [ -118.225614995314317, 34.052685996032906 ] } },
{ "type": "Feature", "properties": { "node_id": "-13061741.470_4025582.552", "x": -13061741.47, "y": 4025582.552, "degree": 3 }, "geometry": { "type": "Point", "coordinates": [ -117.335619997187862, 33.976019997505453 ] } },
{ "type": "Feature", "properties": { "node_id": "-13038370.054_4020477.963", "x": -13038370.054, "y": 4020477.963, "degree": 3 }, "geometry": { "type": "Point", "coordinates": [ -117.125670995144688, 33.937984997350469 ] } },
{ "type": "Feature", "properties": { "node_id": "-12464332.844_3954686.560", "x": -12464332.844000001, "y": 3954686.56, "degree": 3 }, "geometry": { "type": "Point", "coordinates": [ -111.969007001181424, 33.44624600372606 ] } },
{ "type": "Feature", "properties": { "node_id": "-12463429.486_3953541.807", "x": -12463429.486, "y": 3953541.807, "degree": 3 }, "geometry": { "type": "Point", "coordinates": [ -111.960891998197113, 33.437665000650412 ] } },
{ "type": "Feature", "properties": { "node_id": "-12330360.616_3947485.613", "x": -12330360.616, "y": 3947485.613, "degree": 3 }, "geometry": { "type": "Point", "coordinates": [ -110.765514000581973, 33.39225399733364 ] } },
{ "type": "Feature", "properties": { "node_id": "-11860480.155_3738443.878", "x": -11860480.155, "y": 3738443.878, "degree": 3 }, "geometry": { "type": "Point", "coordinates": [ -106.544506002327708, 31.810366001975858 ] } },
{ "type": "Feature", "properties": { "node_id": "-10964273.762_3429858.563", "x": -10964273.762, "y": 3429858.563, "degree": 3 }, "geometry": { "type": "Point", "coordinates": [ -98.493746996752435, 29.425058999956349 ] } },
{ "type": "Feature", "properties": { "node_id": "-10616445.215_3473227.602", "x": -10616445.215, "y": 3473227.602, "degree": 3 }, "geometry": { "type": "Point", "coordinates": [ -95.369149996520576, 29.76382399887828 ] } },
{ "type": "Feature", "properties": { "node_id": "-10623147.094_3474989.950", "x": -10623147.094000001, "y": 3474989.95, "degree": 3 }, "geometry": { "type": "Point", "coordinates": [ -95.429353999900783, 29.777565999129397 ] } },
{ "type": "Feature", "properties": { "node_id": "-10964041.216_3429718.871", "x": -10964041.216, "y": 3429718.871, "degree": 3 }, "geometry": { "type": "Point", "coordinates": [ -98.491658000491825, 29.423965999534435 ] } },
{ "type": "Feature", "properties": { "node_id": "-10964208.195_3429760.536", "x": -10964208.195, "y": 3429760.536, "degree": 3 }, "geometry": { "type": "Point", "coordinates": [ -98.493157998370108, 29.424292002702142 ] } },
{ "type": "Feature", "properties": { "node_id": "-10964225.227_3430311.646", "x": -10964225.227, "y": 3430311.646, "degree": 3 }, "geometry": { "type": "Point", "coordinates": [ -98.493310999429283, 29.428604003280299 ] } },
{ "type": "Feature", "properties": { "node_id": "-10885496.632_3525041.459", "x": -10885496.632, "y": 3525041.459, "degree": 3 }, "geometry": { "type": "Point", "coordinates": [ -97.786079997571733, 30.167055997298785 ] } },
{ "type": "Feature", "properties": { "node_id": "-10878097.003_3541513.606", "x": -10878097.003, "y": 3541513.606, "degree": 3 }, "geometry": { "type": "Point", "coordinates": [ -97.719607999296599, 30.294903998394044 ] } },
{ "type": "Feature", "properties": { "node_id": "-10877610.426_3542417.922", "x": -10877610.426000001, "y": 3542417.922, "degree": 3 }, "geometry": { "type": "Point", "coordinates": [ -97.71523700373659, 30.301917999782678 ] } },
{ "type": "Feature", "properties": { "node_id": "-10776326.053_3864655.821", "x": -10776326.053, "y": 3864655.821, "degree": 3 }, "geometry": { "type": "Point", "coordinates": [ -96.80538400065295, 32.768797999007411 ] } },
{ "type": "Feature", "properties": { "node_id": "-10775595.908_3865145.268", "x": -10775595.908, "y": 3865145.268, "degree": 3 }, "geometry": { "type": "Point", "coordinates": [ -96.798824996521731, 32.772495002822936 ] } },
{ "type": "Feature", "properties": { "node_id": "-10616034.558_3474095.665", "x": -10616034.558, "y": 3474095.665, "degree": 3 }, "geometry": { "type": "Point", "coordinates": [ -95.365461001924274, 29.770593000916119 ] } },
{ "type": "Feature", "properties": { "node_id": "-10626137.024_3530242.158", "x": -10626137.024, "y": 3530242.158, "degree": 3 }, "geometry": { "type": "Point", "coordinates": [ -95.456212998075259, 30.207438998177889 ] } },
{ "type": "Feature", "properties": { "node_id": "-10773705.703_3865065.832", "x": -10773705.703, "y": 3865065.832, "degree": 3 }, "geometry": { "type": "Point", "coordinates": [ -96.781844996105534, 32.771894998970041 ] } },
{ "type": "Feature", "properties": { "node_id": "-10774184.711_3865544.572", "x": -10774184.711, "y": 3865544.572, "degree": 3 }, "geometry": { "type": "Point", "coordinates": [ -96.78614799818169, 32.775511004022299 ] } },
{ "type": "Feature", "properties": { "node_id": "-10613380.033_3473892.141", "x": -10613380.033, "y": 3473892.141, "degree": 3 }, "geometry": { "type": "Point", "coordinates": [ -95.341614998128506, 29.769005997739352 ] } },
{ "type": "Feature", "properties": { "node_id": "-10038004.874_3800199.306", "x": -10038004.874, "y": 3800199.306, "degree": 3 }, "geometry": { "type": "Point", "coordinates": [ -90.172932003804505, 32.280591999145727 ] } },
{ "type": "Feature", "properties": { "node_id": "-10036309.923_3799887.779", "x": -10036309.923, "y": 3799887.779, "degree": 3 }, "geometry": { "type": "Point", "coordinates": [ -90.157705999913176, 32.278226001164754 ] } },
{ "type": "Feature", "properties": { "node_id": "-9922802.893_3808064.705", "x": -9922802.893, "y": 3808064.705, "degree": 4 }, "geometry": { "type": "Point", "coordinates": [ -89.138055000873038, 32.340307996097565 ] } },
{ "type": "Feature", "properties": { "node_id": "-9395153.961_3994612.400", "x": -9395153.961, "y": 3994612.4, "degree": 3 }, "geometry": { "type": "Point", "coordinates": [ -84.398103998223604, 33.744996003188092 ] } },
{ "type": "Feature", "properties": { "node_id": "-9394248.711_3994595.799", "x": -9394248.711, "y": 3994595.799, "degree": 4 }, "geometry": { "type": "Point", "coordinates": [ -84.389971999114124, 33.744871999364811 ] } },
{ "type": "Feature", "properties": { "node_id": "-9059079.417_3317947.131", "x": -9059079.417, "y": 3317947.131, "degree": 4 }, "geometry": { "type": "Point", "coordinates": [ -81.379095003436632, 28.545677998876965 ] } },
{ "type": "Feature", "properties": { "node_id": "-9067701.334_3318797.227", "x": -9067701.334000001, "y": 3318797.227, "degree": 3 }, "geometry": { "type": "Point", "coordinates": [ -81.456547001631733, 28.552386002175588 ] } },
{ "type": "Feature", "properties": { "node_id": "-9111863.112_3334402.587", "x": -9111863.112, "y": 3334402.587, "degree": 3 }, "geometry": { "type": "Point", "coordinates": [ -81.853259003144657, 28.675449996538632 ] } },
{ "type": "Feature", "properties": { "node_id": "-9389714.112_3994656.578", "x": -9389714.112, "y": 3994656.578, "degree": 3 }, "geometry": { "type": "Point", "coordinates": [ -84.349237003223607, 33.745325996947834 ] } },
{ "type": "Feature", "properties": { "node_id": "-10774929.995_3868171.232", "x": -10774929.995, "y": 3868171.232, "degree": 3 }, "geometry": { "type": "Point", "coordinates": [ -96.792842998263779, 32.795348001219573 ] } },
{ "type": "Feature", "properties": { "node_id": "-10772263.337_3883266.991", "x": -10772263.337, "y": 3883266.991, "degree": 3 }, "geometry": { "type": "Point", "coordinates": [ -96.768888001874586, 32.909267998894613 ] } },
{ "type": "Feature", "properties": { "node_id": "-10766386.558_3892040.109", "x": -10766386.558, "y": 3892040.109, "degree": 3 }, "geometry": { "type": "Point", "coordinates": [ -96.716095997903665, 32.975407001951595 ] } },
{ "type": "Feature", "properties": { "node_id": "-10758528.070_3916314.727", "x": -10758528.07, "y": 3916314.727, "degree": 3 }, "geometry": { "type": "Point", "coordinates": [ -96.645501999098968, 33.158150999619025 ] } },
{ "type": "Feature", "properties": { "node_id": "-10620174.864_4260989.768", "x": -10620174.864, "y": 4260989.768, "degree": 3 }, "geometry": { "type": "Point", "coordinates": [ -95.402654003531595, 35.71145099706105 ] } },
{ "type": "Feature", "properties": { "node_id": "-10567254.023_4400866.700", "x": -10567254.023, "y": 4400866.7, "degree": 3 }, "geometry": { "type": "Point", "coordinates": [ -94.927258000344011, 36.725161001330726 ] } },
{ "type": "Feature", "properties": { "node_id": "-10039956.416_4667424.550", "x": -10039956.416, "y": 4667424.55, "degree": 3 }, "geometry": { "type": "Point", "coordinates": [ -90.190463003866512, 38.620276997468423 ] } },
{ "type": "Feature", "properties": { "node_id": "-10035293.687_4669145.852", "x": -10035293.687000001, "y": 4669145.852, "degree": 3 }, "geometry": { "type": "Point", "coordinates": [ -90.148576996602458, 38.632356996577371 ] } },
{ "type": "Feature", "properties": { "node_id": "-9755015.811_5130253.540", "x": -9755015.811000001, "y": 5130253.54, "degree": 3 }, "geometry": { "type": "Point", "coordinates": [ -87.630797998488887, 41.794550002786657 ] } },
{ "type": "Feature", "properties": { "node_id": "-9755083.271_5137663.728", "x": -9755083.271, "y": 5137663.728, "degree": 3 }, "geometry": { "type": "Point", "coordinates": [ -87.631404001979547, 41.844158998181172 ] } },
{ "type": "Feature", "properties": { "node_id": "-9755012.694_5142745.840", "x": -9755012.694, "y": 5142745.84, "degree": 4 }, "geometry": { "type": "Point", "coordinates": [ -87.630769998001483, 41.878160001725341 ] } },
{ "type": "Feature", "properties": { "node_id": "-11687142.795_4828239.951", "x": -11687142.795, "y": 4828239.951, "degree": 3 }, "geometry": { "type": "Point", "coordinates": [ -104.987390004358417, 39.740059002241566 ] } },
{ "type": "Feature", "properties": { "node_id": "-11684069.931_4828233.147", "x": -11684069.931, "y": 4828233.147, "degree": 3 }, "geometry": { "type": "Point", "coordinates": [ -104.959785997386206, 39.740012002777583 ] } },
{ "type": "Feature", "properties": { "node_id": "-10784725.888_3876499.728", "x": -10784725.888, "y": 3876499.728, "degree": 3 }, "geometry": { "type": "Point", "coordinates": [ -96.88084100229878, 32.858217002999965 ] } },
{ "type": "Feature", "properties": { "node_id": "-10776291.433_3867008.448", "x": -10776291.433, "y": 3867008.448, "degree": 4 }, "geometry": { "type": "Point", "coordinates": [ -96.805073003901597, 32.786566998120684 ] } },
{ "type": "Feature", "properties": { "node_id": "-10776043.858_3866019.888", "x": -10776043.858, "y": 3866019.888, "degree": 3 }, "geometry": { "type": "Point", "coordinates": [ -96.802848999836925, 32.779101001662212 ] } },
{ "type": "Feature", "properties": { "node_id": "-10681522.590_5049812.028", "x": -10681522.59, "y": 5049812.028, "degree": 4 }, "geometry": { "type": "Point", "coordinates": [ -95.953750002649357, 41.253547003005487 ] } },
{ "type": "Feature", "properties": { "node_id": "-10678159.628_5050673.838", "x": -10678159.628, "y": 5050673.838, "degree": 3 }, "geometry": { "type": "Point", "coordinates": [ -95.923540001004227, 41.259366999285973 ] } },
{ "type": "Feature", "properties": { "node_id": "-10407801.209_5110434.404", "x": -10407801.209000001, "y": 5110434.404, "degree": 3 }, "geometry": { "type": "Point", "coordinates": [ -93.49486900122335, 41.661677997072246 ] } },
{ "type": "Feature", "properties": { "node_id": "-9978344.083_5124808.113", "x": -9978344.083000001, "y": 5124808.113, "degree": 3 }, "geometry": { "type": "Point", "coordinates": [ -89.636989999624916, 41.758070000151115 ] } },
{ "type": "Feature", "properties": { "node_id": "-9797324.899_5136061.229", "x": -9797324.899, "y": 5136061.229, "degree": 3 }, "geometry": { "type": "Point", "coordinates": [ -88.010867002564467, 41.833434002888524 ] } },
{ "type": "Feature", "properties": { "node_id": "-9756312.906_5142364.599", "x": -9756312.906, "y": 5142364.599, "degree": 3 }, "geometry": { "type": "Point", "coordinates": [ -87.642450001123436, 41.875610001100156 ] } },
{ "type": "Feature", "properties": { "node_id": "-9749927.063_5129012.820", "x": -9749927.063, "y": 5129012.82, "degree": 3 }, "geometry": { "type": "Point", "coordinates": [ -87.585084997434549, 41.78623999710252 ] } },
{ "type": "Feature", "properties": { "node_id": "-9738325.012_5107115.880", "x": -9738325.012, "y": 5107115.88, "degree": 3 }, "geometry": { "type": "Point", "coordinates": [ -87.480862000030214, 41.639402999224444 ] } },
{ "type": "Feature", "properties": { "node_id": "-9737208.811_5084986.409", "x": -9737208.811000001, "y": 5084986.409, "degree": 3 }, "geometry": { "type": "Point", "coordinates": [ -87.470834995845721, 41.490665997395254 ] } },
{ "type": "Feature", "properties": { "node_id": "-9738647.393_4680640.843", "x": -9738647.393, "y": 4680640.843, "degree": 3 }, "geometry": { "type": "Point", "coordinates": [ -87.483757997826316, 38.712976000830238 ] } },
{ "type": "Feature", "properties": { "node_id": "-9739716.506_4678064.648", "x": -9739716.506, "y": 4678064.648, "degree": 3 }, "geometry": { "type": "Point", "coordinates": [ -87.493362003309812, 38.694916001257496 ] } },
{ "type": "Feature", "properties": { "node_id": "-9739092.783_4675727.663", "x": -9739092.783, "y": 4675727.663, "degree": 3 }, "geometry": { "type": "Point", "coordinates": [ -87.487759004270245, 38.678528999411824 ] } },
{ "type": "Feature", "properties": { "node_id": "-9636920.748_4183329.388", "x": -9636920.748, "y": 4183329.388, "degree": 3 }, "geometry": { "type": "Point", "coordinates": [ -86.569931997769302, 35.142986002878075 ] } },
{ "type": "Feature", "properties": { "node_id": "-9638780.897_4128481.616", "x": -9638780.897, "y": 4128481.616, "degree": 3 }, "geometry": { "type": "Point", "coordinates": [ -86.586642000543691, 34.739096000481055 ] } },
{ "type": "Feature", "properties": { "node_id": "-9408295.561_4022195.299", "x": -9408295.561000001, "y": 4022195.299, "degree": 3 }, "geometry": { "type": "Point", "coordinates": [ -84.516156999601478, 33.950783003788459 ] } },
{ "type": "Feature", "properties": { "node_id": "-9394259.175_3998129.835", "x": -9394259.175000001, "y": 3998129.835, "degree": 4 }, "geometry": { "type": "Point", "coordinates": [ -84.390065998825463, 33.77126600221122 ] } },
{ "type": "Feature", "properties": { "node_id": "-9393011.952_3996550.672", "x": -9393011.952, "y": 3996550.672, "degree": 3 }, "geometry": { "type": "Point", "coordinates": [ -84.378862003989411, 33.759473003137998 ] } },
{ "type": "Feature", "properties": { "node_id": "-9716260.598_5100542.704", "x": -9716260.598, "y": 5100542.704, "degree": 3 }, "geometry": { "type": "Point", "coordinates": [ -87.282653996716803, 41.595258996939513 ] } },
{ "type": "Feature", "properties": { "node_id": "-9174085.252_4980286.152", "x": -9174085.252, "y": 4980286.152, "degree": 4 }, "geometry": { "type": "Point", "coordinates": [ -82.412209996870914, 40.78231600000921 ] } },
{ "type": "Feature", "properties": { "node_id": "-9018341.938_4906380.788", "x": -9018341.938, "y": 4906380.788, "degree": 3 }, "geometry": { "type": "Point", "coordinates": [ -81.013144003214649, 40.277710003507991 ] } },
{ "type": "Feature", "properties": { "node_id": "-9016899.348_4907413.902", "x": -9016899.348, "y": 4907413.902, "degree": 3 }, "geometry": { "type": "Point", "coordinates": [ -81.000184996757469, 40.284790003156857 ] } },
{ "type": "Feature", "properties": { "node_id": "-8895901.073_4815618.113", "x": -8895901.073000001, "y": 4815618.113, "degree": 3 }, "geometry": { "type": "Point", "coordinates": [ -79.91323899891151, 39.652816997703482 ] } },
{ "type": "Feature", "properties": { "node_id": "-8767529.106_4815107.453", "x": -8767529.106000001, "y": 4815107.453, "degree": 3 }, "geometry": { "type": "Point", "coordinates": [ -78.76005399882564, 39.649285000708453 ] } },
{ "type": "Feature", "properties": { "node_id": "-8579418.648_4708076.049", "x": -8579418.648, "y": 4708076.049, "degree": 3 }, "geometry": { "type": "Point", "coordinates": [ -77.070229003584402, 38.905023000267789 ] } },
{ "type": "Feature", "properties": { "node_id": "-8579286.400_4707949.737", "x": -8579286.4, "y": 4707949.737, "degree": 3 }, "geometry": { "type": "Point", "coordinates": [ -77.069040999587457, 38.904140000309646 ] } },
{ "type": "Feature", "properties": { "node_id": "-8577253.595_4707718.860", "x": -8577253.595000001, "y": 4707718.86, "degree": 3 }, "geometry": { "type": "Point", "coordinates": [ -77.050780001576115, 38.902525997155962 ] } },
{ "type": "Feature", "properties": { "node_id": "-8575991.900_4707718.431", "x": -8575991.9, "y": 4707718.431, "degree": 3 }, "geometry": { "type": "Point", "coordinates": [ -77.03944600255214, 38.90252299809049 ] } },
{ "type": "Feature", "properties": { "node_id": "-8575667.292_4708361.866", "x": -8575667.292, "y": 4708361.866, "degree": 3 }, "geometry": { "type": "Point", "coordinates": [ -77.036529999274663, 38.907020999493817 ] } },
{ "type": "Feature", "properties": { "node_id": "-9389685.725_3998473.736", "x": -9389685.725, "y": 3998473.736, "degree": 4 }, "geometry": { "type": "Point", "coordinates": [ -84.348981998463884, 33.773833998261502 ] } },
{ "type": "Feature", "properties": { "node_id": "-9264950.232_4081484.879", "x": -9264950.232000001, "y": 4081484.879, "degree": 3 }, "geometry": { "type": "Point", "coordinates": [ -83.228464000123054, 34.391441000511165 ] } },
{ "type": "Feature", "properties": { "node_id": "-9238915.720_4096158.491", "x": -9238915.72, "y": 4096158.491, "degree": 3 }, "geometry": { "type": "Point", "coordinates": [ -82.994591999681134, 34.500143997209818 ] } },
{ "type": "Feature", "properties": { "node_id": "-9136568.580_4155628.252", "x": -9136568.58, "y": 4155628.252, "degree": 4 }, "geometry": { "type": "Point", "coordinates": [ -82.075191998201916, 34.939248002431654 ] } },
{ "type": "Feature", "properties": { "node_id": "-9086403.899_4177850.519", "x": -9086403.899, "y": 4177850.519, "degree": 3 }, "geometry": { "type": "Point", "coordinates": [ -81.624555001549126, 35.102729999936365 ] } },
{ "type": "Feature", "properties": { "node_id": "-9083945.853_4178822.352", "x": -9083945.853, "y": 4178822.352, "degree": 3 }, "geometry": { "type": "Point", "coordinates": [ -81.602473998640434, 35.109871996623859 ] } },
{ "type": "Feature", "properties": { "node_id": "-8739324.866_4585047.766", "x": -8739324.866, "y": 4585047.766, "degree": 3 }, "geometry": { "type": "Point", "coordinates": [ -78.506691000135888, 38.039786000604551 ] } },
{ "type": "Feature", "properties": { "node_id": "-8607660.959_4700588.160", "x": -8607660.959000001, "y": 4700588.16, "degree": 3 }, "geometry": { "type": "Point", "coordinates": [ -77.32393399988598, 38.852658999404454 ] } },
{ "type": "Feature", "properties": { "node_id": "-8582602.719_4706785.680", "x": -8582602.719000001, "y": 4706785.68, "degree": 3 }, "geometry": { "type": "Point", "coordinates": [ -77.098832000034619, 38.896001996167406 ] } },
{ "type": "Feature", "properties": { "node_id": "-8579426.217_4707567.807", "x": -8579426.217, "y": 4707567.807, "degree": 3 }, "geometry": { "type": "Point", "coordinates": [ -77.070296997068255, 38.901470003694044 ] } },
{ "type": "Feature", "properties": { "node_id": "-8575704.918_4708409.360", "x": -8575704.918, "y": 4708409.36, "degree": 3 }, "geometry": { "type": "Point", "coordinates": [ -77.036867999383475, 38.907353000102653 ] } },
{ "type": "Feature", "properties": { "node_id": "-8528581.374_4762798.470", "x": -8528581.374, "y": 4762798.47, "degree": 3 }, "geometry": { "type": "Point", "coordinates": [ -76.613550001212673, 39.286533002199 ] } },
{ "type": "Feature", "properties": { "node_id": "-8438231.581_4813891.486", "x": -8438231.581, "y": 4813891.486, "degree": 4 }, "geometry": { "type": "Point", "coordinates": [ -75.801924001523332, 39.640873997831157 ] } },
{ "type": "Feature", "properties": { "node_id": "-8365913.987_4859704.171", "x": -8365913.987, "y": 4859704.171, "degree": 3 }, "geometry": { "type": "Point", "coordinates": [ -75.15228400151382, 39.957058999248261 ] } },
{ "type": "Feature", "properties": { "node_id": "-8292302.304_4931855.708", "x": -8292302.304, "y": 4931855.708, "degree": 3 }, "geometry": { "type": "Point", "coordinates": [ -74.491019002227219, 40.452074997634575 ] } },
{ "type": "Feature", "properties": { "node_id": "-8251593.434_4973248.714", "x": -8251593.434, "y": 4973248.714, "degree": 3 }, "geometry": { "type": "Point", "coordinates": [ -74.125325001024876, 40.734430002572367 ] } },
{ "type": "Feature", "properties": { "node_id": "-8238860.377_4971964.075", "x": -8238860.377, "y": 4971964.075, "degree": 3 }, "geometry": { "type": "Point", "coordinates": [ -74.010942003858233, 40.725684999095847 ] } },
{ "type": "Feature", "properties": { "node_id": "-8238091.827_4970122.100", "x": -8238091.827, "y": 4970122.1, "degree": 3 }, "geometry": { "type": "Point", "coordinates": [ -74.004038001742117, 40.713144002086054 ] } },
{ "type": "Feature", "properties": { "node_id": "-11872138.200_4175335.877", "x": -11872138.2, "y": 4175335.877, "degree": 3 }, "geometry": { "type": "Point", "coordinates": [ -106.649232002392239, 35.084247001837255 ] } },
{ "type": "Feature", "properties": { "node_id": "-9653703.497_5131163.652", "x": -9653703.497, "y": 5131163.652, "degree": 3 }, "geometry": { "type": "Point", "coordinates": [ -86.720693997131718, 41.800645000915161 ] } },
{ "type": "Feature", "properties": { "node_id": "-9246407.410_5210773.990", "x": -9246407.41, "y": 5210773.99, "degree": 3 }, "geometry": { "type": "Point", "coordinates": [ -83.061890995989984, 42.331549001832521 ] } },
{ "type": "Feature", "properties": { "node_id": "-9308254.961_5197150.672", "x": -9308254.961, "y": 5197150.672, "degree": 3 }, "geometry": { "type": "Point", "coordinates": [ -83.61747699947658, 42.241012997523242 ] } },
{ "type": "Feature", "properties": { "node_id": "-9598071.470_5132206.169", "x": -9598071.47, "y": 5132206.169, "degree": 3 }, "geometry": { "type": "Point", "coordinates": [ -86.220942995725224, 41.807625999835039 ] } },
{ "type": "Feature", "properties": { "node_id": "-9245715.560_5210110.246", "x": -9245715.56, "y": 5210110.246, "degree": 3 }, "geometry": { "type": "Point", "coordinates": [ -83.055676001696796, 42.327140997050378 ] } },
{ "type": "Feature", "properties": { "node_id": "-9322839.595_5203229.662", "x": -9322839.595000001, "y": 5203229.662, "degree": 3 }, "geometry": { "type": "Point", "coordinates": [ -83.748492995831484, 42.281428002945361 ] } },
{ "type": "Feature", "properties": { "node_id": "-10327461.042_5615502.130", "x": -10327461.042, "y": 5615502.13, "degree": 3 }, "geometry": { "type": "Point", "coordinates": [ -92.773161001775179, 44.961752001014496 ] } },
{ "type": "Feature", "properties": { "node_id": "-9938328.066_5319115.669", "x": -9938328.066, "y": 5319115.669, "degree": 3 }, "geometry": { "type": "Point", "coordinates": [ -89.277520002818036, 43.046915999224453 ] } },
{ "type": "Feature", "properties": { "node_id": "-9796156.378_5196941.215", "x": -9796156.378, "y": 5196941.215, "degree": 3 }, "geometry": { "type": "Point", "coordinates": [ -88.00036999982332, 42.239620000961189 ] } },
{ "type": "Feature", "properties": { "node_id": "-9761353.452_5150195.050", "x": -9761353.452, "y": 5150195.05, "degree": 3 }, "geometry": { "type": "Point", "coordinates": [ -87.687729996244514, 41.927964996361659 ] } },
{ "type": "Feature", "properties": { "node_id": "-10681342.809_5051943.298", "x": -10681342.809, "y": 5051943.298, "degree": 3 }, "geometry": { "type": "Point", "coordinates": [ -95.952135002448415, 41.267939002931833 ] } },
{ "type": "Feature", "properties": { "node_id": "-10419567.011_5116572.714", "x": -10419567.011, "y": 5116572.714, "degree": 3 }, "geometry": { "type": "Point", "coordinates": [ -93.600562998888577, 41.702860001921771 ] } },
{ "type": "Feature", "properties": { "node_id": "-9764020.667_5160585.491", "x": -9764020.667, "y": 5160585.491, "degree": 3 }, "geometry": { "type": "Point", "coordinates": [ -87.711689996249845, 41.997370000363482 ] } },
{ "type": "Feature", "properties": { "node_id": "-9952026.708_5323081.419", "x": -9952026.708000001, "y": 5323081.419, "degree": 3 }, "geometry": { "type": "Point", "coordinates": [ -89.40057699762086, 43.072945001518477 ] } },
{ "type": "Feature", "properties": { "node_id": "-10771093.814_5513766.818", "x": -10771093.814, "y": 5513766.818, "degree": 3 }, "geometry": { "type": "Point", "coordinates": [ -96.758381998014286, 44.311448998718859 ] } },
{ "type": "Feature", "properties": { "node_id": "-9591035.633_4833373.140", "x": -9591035.633, "y": 4833373.14, "degree": 3 }, "geometry": { "type": "Point", "coordinates": [ -86.157738996588492, 39.775507999710491 ] } },
{ "type": "Feature", "properties": { "node_id": "-9632878.626_4745276.610", "x": -9632878.626, "y": 4745276.61, "degree": 3 }, "geometry": { "type": "Point", "coordinates": [ -86.533620998040547, 39.164599998080909 ] } },
{ "type": "Feature", "properties": { "node_id": "-9373365.954_4830805.129", "x": -9373365.954, "y": 4830805.129, "degree": 4 }, "geometry": { "type": "Point", "coordinates": [ -84.202379001237588, 39.757775999597357 ] } },
{ "type": "Feature", "properties": { "node_id": "-9632883.858_4744814.019", "x": -9632883.858, "y": 4744814.019, "degree": 3 }, "geometry": { "type": "Point", "coordinates": [ -86.533667997896202, 39.16137800048071 ] } },
{ "type": "Feature", "properties": { "node_id": "-9238476.231_4861211.150", "x": -9238476.231000001, "y": 4861211.15, "degree": 3 }, "geometry": { "type": "Point", "coordinates": [ -82.990644002822108, 39.967434998050187 ] } },
{ "type": "Feature", "properties": { "node_id": "-9499076.495_3851967.753", "x": -9499076.495, "y": 3851967.753, "degree": 3 }, "geometry": { "type": "Point", "coordinates": [ -85.33165600478992, 32.672906000865062 ] } },
{ "type": "Feature", "properties": { "node_id": "-9515780.652_3843527.311", "x": -9515780.652000001, "y": 3843527.311, "degree": 3 }, "geometry": { "type": "Point", "coordinates": [ -85.481712000204254, 32.609059002033248 ] } },
{ "type": "Feature", "properties": { "node_id": "-9786298.703_3588122.614", "x": -9786298.703, "y": 3588122.614, "degree": 3 }, "geometry": { "type": "Point", "coordinates": [ -87.91181699863948, 30.655755003251318 ] } },
{ "type": "Feature", "properties": { "node_id": "-8795620.580_4002857.241", "x": -8795620.58, "y": 4002857.241, "degree": 3 }, "geometry": { "type": "Point", "coordinates": [ -79.012404003302095, 33.806559998186273 ] } },
{ "type": "Feature", "properties": { "node_id": "-8781245.671_3987696.090", "x": -8781245.671, "y": 3987696.09, "degree": 3 }, "geometry": { "type": "Point", "coordinates": [ -78.883271998676832, 33.69331800131804 ] } },
{ "type": "Feature", "properties": { "node_id": "-8999983.907_4195149.566", "x": -8999983.907, "y": 4195149.566, "degree": 3 }, "geometry": { "type": "Point", "coordinates": [ -80.848231004878244, 35.229766997418771 ] } },
{ "type": "Feature", "properties": { "node_id": "-9232715.002_4123168.566", "x": -9232715.002, "y": 4123168.566, "degree": 3 }, "geometry": { "type": "Point", "coordinates": [ -82.938890002161983, 34.699866000812555 ] } },
{ "type": "Feature", "properties": { "node_id": "-9747885.909_3922674.258", "x": -9747885.909, "y": 3922674.258, "degree": 3 }, "geometry": { "type": "Point", "coordinates": [ -87.566748999080133, 33.205963997062753 ] } },
{ "type": "Feature", "properties": { "node_id": "-9748989.308_3927064.631", "x": -9748989.308, "y": 3927064.631, "degree": 3 }, "geometry": { "type": "Point", "coordinates": [ -87.576661000941968, 33.238957003521371 ] } },
{ "type": "Feature", "properties": { "node_id": "-9406271.995_4585886.530", "x": -9406271.995, "y": 4585886.53, "degree": 3 }, "geometry": { "type": "Point", "coordinates": [ -84.497978996939224, 38.045719997775315 ] } },
{ "type": "Feature", "properties": { "node_id": "-9341837.380_4294850.513", "x": -9341837.38, "y": 4294850.513, "degree": 3 }, "geometry": { "type": "Point", "coordinates": [ -83.919153002130656, 35.958048996895627 ] } },
{ "type": "Feature", "properties": { "node_id": "-10484124.635_4308430.556", "x": -10484124.635, "y": 4308430.556, "degree": 3 }, "geometry": { "type": "Point", "coordinates": [ -94.180494002344986, 36.056733000335868 ] } },
{ "type": "Feature", "properties": { "node_id": "-10776626.170_3866077.351", "x": -10776626.17, "y": 3866077.351, "degree": 3 }, "geometry": { "type": "Point", "coordinates": [ -96.808079997534193, 32.779535002137351 ] } },
{ "type": "Feature", "properties": { "node_id": "-10781342.555_3864091.070", "x": -10781342.555, "y": 3864091.07, "degree": 4 }, "geometry": { "type": "Point", "coordinates": [ -96.850448004847109, 32.764532000862275 ] } },
{ "type": "Feature", "properties": { "node_id": "-10832335.564_3861887.131", "x": -10832335.564, "y": 3861887.131, "degree": 3 }, "geometry": { "type": "Point", "coordinates": [ -97.308525998526548, 32.747882001091682 ] } },
{ "type": "Feature", "properties": { "node_id": "-10810731.011_3860728.937", "x": -10810731.011, "y": 3860728.937, "degree": 3 }, "geometry": { "type": "Point", "coordinates": [ -97.114448996861867, 32.739130996817309 ] } },
{ "type": "Feature", "properties": { "node_id": "-10149948.867_3560703.144", "x": -10149948.867000001, "y": 3560703.144, "degree": 3 }, "geometry": { "type": "Point", "coordinates": [ -91.178542002577203, 30.443633002639164 ] } },
{ "type": "Feature", "properties": { "node_id": "-10150923.803_3560101.451", "x": -10150923.803, "y": 3560101.451, "degree": 3 }, "geometry": { "type": "Point", "coordinates": [ -91.187300001675567, 30.438973002768016 ] } },
{ "type": "Feature", "properties": { "node_id": "-10150963.433_3560102.613", "x": -10150963.433, "y": 3560102.613, "degree": 3 }, "geometry": { "type": "Point", "coordinates": [ -91.187656004022671, 30.438982002455582 ] } },
{ "type": "Feature", "properties": { "node_id": "-10150926.029_3560042.316", "x": -10150926.029, "y": 3560042.316, "degree": 3 }, "geometry": { "type": "Point", "coordinates": [ -91.187319998173791, 30.438515001220605 ] } },
{ "type": "Feature", "properties": { "node_id": "-10730762.763_3525049.185", "x": -10730762.763, "y": 3525049.185, "degree": 3 }, "geometry": { "type": "Point", "coordinates": [ -96.396082002635254, 30.167116001333156 ] } },
{ "type": "Feature", "properties": { "node_id": "-10927374.579_3036454.793", "x": -10927374.579, "y": 3036454.793, "degree": 3 }, "geometry": { "type": "Point", "coordinates": [ -98.162275996148196, 26.301367999167926 ] } },
{ "type": "Feature", "properties": { "node_id": "-10880423.024_3539765.110", "x": -10880423.024, "y": 3539765.11, "degree": 3 }, "geometry": { "type": "Point", "coordinates": [ -97.740503001451415, 30.281340996159827 ] } },
{ "type": "Feature", "properties": { "node_id": "-10880984.631_3538018.145", "x": -10880984.631, "y": 3538018.145, "degree": 3 }, "geometry": { "type": "Point", "coordinates": [ -97.745548002969102, 30.267787997291034 ] } },
{ "type": "Feature", "properties": { "node_id": "-12820776.184_4320482.494", "x": -12820776.184, "y": 4320482.494, "degree": 3 }, "geometry": { "type": "Point", "coordinates": [ -115.170992003627532, 36.144208999288267 ] } },
{ "type": "Feature", "properties": { "node_id": "-13152360.879_4033494.446", "x": -13152360.879000001, "y": 4033494.446, "degree": 3 }, "geometry": { "type": "Point", "coordinates": [ -118.149667998613651, 34.03493900306615 ] } },
{ "type": "Feature", "properties": { "node_id": "-13122050.697_3999355.768", "x": -13122050.697000001, "y": 3999355.768, "degree": 3 }, "geometry": { "type": "Point", "coordinates": [ -117.877387001063184, 33.780420003184538 ] } },
{ "type": "Feature", "properties": { "node_id": "-13327141.274_4086023.435", "x": -13327141.274, "y": 4086023.435, "degree": 3 }, "geometry": { "type": "Point", "coordinates": [ -119.719747000543109, 34.425078003468933 ] } },
{ "type": "Feature", "properties": { "node_id": "-13187799.216_4049528.178", "x": -13187799.216, "y": 4049528.178, "degree": 3 }, "geometry": { "type": "Point", "coordinates": [ -118.468015996322421, 34.154215003614553 ] } },
{ "type": "Feature", "properties": { "node_id": "-13139764.188_4032529.857", "x": -13139764.188, "y": 4032529.857, "degree": 3 }, "geometry": { "type": "Point", "coordinates": [ -118.036509998067316, 34.027758002892284 ] } },
{ "type": "Feature", "properties": { "node_id": "-13567193.964_4481139.608", "x": -13567193.964, "y": 4481139.608, "degree": 3 }, "geometry": { "type": "Point", "coordinates": [ -121.876177004753146, 37.300956003315179 ] } },
{ "type": "Feature", "properties": { "node_id": "-13534144.988_4419865.130", "x": -13534144.988, "y": 4419865.13, "degree": 3 }, "geometry": { "type": "Point", "coordinates": [ -121.579293002100158, 36.861829998133139 ] } },
{ "type": "Feature", "properties": { "node_id": "-8514392.703_5226709.814", "x": -8514392.703, "y": 5226709.814, "degree": 3 }, "geometry": { "type": "Point", "coordinates": [ -76.486091001006244, 42.437288002321274 ] } },
{ "type": "Feature", "properties": { "node_id": "-8457870.009_5211796.047", "x": -8457870.009, "y": 5211796.047, "degree": 3 }, "geometry": { "type": "Point", "coordinates": [ -75.978339001808138, 42.338336002861602 ] } },
{ "type": "Feature", "properties": { "node_id": "-8257363.791_4973612.027", "x": -8257363.791, "y": 4973612.027, "degree": 3 }, "geometry": { "type": "Point", "coordinates": [ -74.177160999904132, 40.736902997419179 ] } },
{ "type": "Feature", "properties": { "node_id": "-8256805.746_4973419.718", "x": -8256805.746, "y": 4973419.718, "degree": 3 }, "geometry": { "type": "Point", "coordinates": [ -74.172147996376879, 40.735594002129666 ] } },
{ "type": "Feature", "properties": { "node_id": "-8237625.955_4971390.339", "x": -8237625.955, "y": 4971390.339, "degree": 3 }, "geometry": { "type": "Point", "coordinates": [ -73.999853002361689, 40.721778998855299 ] } },
{ "type": "Feature", "properties": { "node_id": "-8230497.277_4983429.110", "x": -8230497.277, "y": 4983429.11, "degree": 4 }, "geometry": { "type": "Point", "coordinates": [ -73.93581499833202, 40.803691002491988 ] } },
{ "type": "Feature", "properties": { "node_id": "-8226804.030_4989437.732", "x": -8226804.03, "y": 4989437.732, "degree": 4 }, "geometry": { "type": "Point", "coordinates": [ -73.902637996050743, 40.844535998346657 ] } },
{ "type": "Feature", "properties": { "node_id": "-7913135.984_5212459.155", "x": -7913135.984, "y": 5212459.155, "degree": 4 }, "geometry": { "type": "Point", "coordinates": [ -71.084909997433698, 42.342739000223112 ] } },
{ "type": "Feature", "properties": { "node_id": "-7879465.178_5323279.225", "x": -7879465.178, "y": 5323279.225, "degree": 3 }, "geometry": { "type": "Point", "coordinates": [ -70.782440000849448, 43.074243002006199 ] } },
{ "type": "Feature", "properties": { "node_id": "-8287292.704_4938329.726", "x": -8287292.704, "y": 4938329.726, "degree": 3 }, "geometry": { "type": "Point", "coordinates": [ -74.446016999753965, 40.496315001994709 ] } },
{ "type": "Feature", "properties": { "node_id": "-7915720.934_5213789.428", "x": -7915720.934, "y": 5213789.428, "degree": 3 }, "geometry": { "type": "Point", "coordinates": [ -71.108130998370527, 42.351571003494996 ] } },
{ "type": "Feature", "properties": { "node_id": "-7949183.462_5135090.297", "x": -7949183.462, "y": 5135090.297, "degree": 3 }, "geometry": { "type": "Point", "coordinates": [ -71.408730001847303, 41.826935002023625 ] } },
{ "type": "Feature", "properties": { "node_id": "-8232768.974_4984860.869", "x": -8232768.974, "y": 4984860.869, "degree": 3 }, "geometry": { "type": "Point", "coordinates": [ -73.956221999691905, 40.81342599782247 ] } },
{ "type": "Feature", "properties": { "node_id": "-8089890.408_5126515.297", "x": -8089890.408, "y": 5126515.297, "degree": 3 }, "geometry": { "type": "Point", "coordinates": [ -72.672722003583104, 41.769508999471171 ] } },
{ "type": "Feature", "properties": { "node_id": "-8044637.031_5135200.099", "x": -8044637.031, "y": 5135200.099, "degree": 3 }, "geometry": { "type": "Point", "coordinates": [ -72.266204001411879, 41.827670002436122 ] } },
{ "type": "Feature", "properties": { "node_id": "-8616468.223_4471589.614", "x": -8616468.223, "y": 4471589.614, "degree": 3 }, "geometry": { "type": "Point", "coordinates": [ -77.403050998510722, 37.232682998454386 ] } },
{ "type": "Feature", "properties": { "node_id": "-8783447.459_4299265.837", "x": -8783447.459000001, "y": 4299265.837, "degree": 3 }, "geometry": { "type": "Point", "coordinates": [ -78.903050996804751, 35.990148002166521 ] } },
{ "type": "Feature", "properties": { "node_id": "-8723183.540_4351610.661", "x": -8723183.54, "y": 4351610.661, "degree": 3 }, "geometry": { "type": "Point", "coordinates": [ -78.361691001618325, 36.369693998785586 ] } },
{ "type": "Feature", "properties": { "node_id": "-8754466.654_4271137.582", "x": -8754466.654, "y": 4271137.582, "degree": 3 }, "geometry": { "type": "Point", "coordinates": [ -78.642711996028851, 35.785435002060801 ] } },
{ "type": "Feature", "properties": { "node_id": "-8754710.778_4268932.994", "x": -8754710.778000001, "y": 4268932.994, "degree": 3 }, "geometry": { "type": "Point", "coordinates": [ -78.644904999233063, 35.769368003938588 ] } },
{ "type": "Feature", "properties": { "node_id": "-8698367.754_4949297.585", "x": -8698367.754000001, "y": 4949297.585, "degree": 3 }, "geometry": { "type": "Point", "coordinates": [ -78.13876700310594, 40.571197000416092 ] } },
{ "type": "Feature", "properties": { "node_id": "-8698877.152_4950762.613", "x": -8698877.152000001, "y": 4950762.613, "degree": 3 }, "geometry": { "type": "Point", "coordinates": [ -78.143343003196946, 40.581193001411776 ] } },
{ "type": "Feature", "properties": { "node_id": "-8780607.588_5294673.173", "x": -8780607.588, "y": 5294673.173, "degree": 3 }, "geometry": { "type": "Point", "coordinates": [ -78.877540001562451, 42.886244998473259 ] } },
{ "type": "Feature", "properties": { "node_id": "-8527503.356_4778446.202", "x": -8527503.356000001, "y": 4778446.202, "degree": 3 }, "geometry": { "type": "Point", "coordinates": [ -76.603866000753129, 39.395244997243665 ] } },
{ "type": "Feature", "properties": { "node_id": "-9091656.732_5083270.396", "x": -9091656.732000001, "y": 5083270.396, "degree": 3 }, "geometry": { "type": "Point", "coordinates": [ -81.671742003237398, 41.479117996950158 ] } },
{ "type": "Feature", "properties": { "node_id": "-8900524.840_4930735.481", "x": -8900524.84, "y": 4930735.481, "degree": 3 }, "geometry": { "type": "Point", "coordinates": [ -79.954775004574586, 40.444417002621002 ] } },
{ "type": "Feature", "properties": { "node_id": "-8900203.126_4931041.197", "x": -8900203.126, "y": 4931041.197, "degree": 3 }, "geometry": { "type": "Point", "coordinates": [ -79.951884998541416, 40.44650699740351 ] } },
{ "type": "Feature", "properties": { "node_id": "-8667917.309_4981666.870", "x": -8667917.309, "y": 4981666.87, "degree": 3 }, "geometry": { "type": "Point", "coordinates": [ -77.865226001588525, 40.791706998667969 ] } },
{ "type": "Feature", "properties": { "node_id": "-9059717.389_3316611.394", "x": -9059717.389, "y": 3316611.394, "degree": 3 }, "geometry": { "type": "Point", "coordinates": [ -81.38482600342104, 28.535136998936494 ] } },
{ "type": "Feature", "properties": { "node_id": "-8926784.328_2972555.301", "x": -8926784.328, "y": 2972555.301, "degree": 3 }, "geometry": { "type": "Point", "coordinates": [ -80.190667998810113, 25.785637003485746 ] } },
{ "type": "Feature", "properties": { "node_id": "-9061091.516_3316606.706", "x": -9061091.516000001, "y": 3316606.706, "degree": 3 }, "geometry": { "type": "Point", "coordinates": [ -81.397169996285257, 28.535100001616996 ] } },
{ "type": "Feature", "properties": { "node_id": "-9061066.692_3313436.245", "x": -9061066.692, "y": 3313436.245, "degree": 3 }, "geometry": { "type": "Point", "coordinates": [ -81.396946998499118, 28.510076003516591 ] } },
{ "type": "Feature", "properties": { "node_id": "-9099682.533_3271931.181", "x": -9099682.533, "y": 3271931.181, "degree": 3 }, "geometry": { "type": "Point", "coordinates": [ -81.743839000293406, 28.181935997939661 ] } },
{ "type": "Feature", "properties": { "node_id": "-8920841.648_3014254.326", "x": -8920841.648, "y": 3014254.326, "degree": 3 }, "geometry": { "type": "Point", "coordinates": [ -80.137283996083795, 26.122446003587388 ] } },
{ "type": "Feature", "properties": { "node_id": "-8922842.394_3022441.059", "x": -8922842.394, "y": 3022441.059, "degree": 3 }, "geometry": { "type": "Point", "coordinates": [ -80.155257003198201, 26.18845800318276 ] } },
{ "type": "Feature", "properties": { "node_id": "-9178191.272_3243069.872", "x": -9178191.272, "y": 3243069.872, "degree": 3 }, "geometry": { "type": "Point", "coordinates": [ -82.449095002099909, 27.953162001655915 ] } },
{ "type": "Feature", "properties": { "node_id": "-8913960.545_3086793.715", "x": -8913960.545, "y": 3086793.715, "degree": 3 }, "geometry": { "type": "Point", "coordinates": [ -80.075469996118784, 26.706045000302776 ] } },
{ "type": "Feature", "properties": { "node_id": "-9107120.901_3052584.554", "x": -9107120.901000001, "y": 3052584.554, "degree": 3 }, "geometry": { "type": "Point", "coordinates": [ -81.810658996926477, 26.431191000358442 ] } },
{ "type": "Feature", "properties": { "node_id": "-9165970.395_3458903.860", "x": -9165970.395, "y": 3458903.86, "degree": 3 }, "geometry": { "type": "Point", "coordinates": [ -82.339312996155456, 29.652063998231956 ] } },
{ "type": "Feature", "properties": { "node_id": "-9133660.804_3115367.187", "x": -9133660.804, "y": 3115367.187, "degree": 3 }, "geometry": { "type": "Point", "coordinates": [ -82.049071001965956, 26.935111997101874 ] } },
{ "type": "Feature", "properties": { "node_id": "-9111790.977_3152708.954", "x": -9111790.977, "y": 3152708.954, "degree": 3 }, "geometry": { "type": "Point", "coordinates": [ -81.852611003414466, 27.233772002098771 ] } },
{ "type": "Feature", "properties": { "node_id": "-12934612.497_5399882.480", "x": -12934612.497, "y": 5399882.48, "degree": 3 }, "geometry": { "type": "Point", "coordinates": [ -116.193601002184678, 43.574844999120614 ] } },
{ "type": "Feature", "properties": { "node_id": "-12934971.391_5398567.744", "x": -12934971.391000001, "y": 5398567.744, "degree": 3 }, "geometry": { "type": "Point", "coordinates": [ -116.196825001840466, 43.566288002973231 ] } },
{ "type": "Feature", "properties": { "node_id": "-12483505.177_5113179.330", "x": -12483505.177, "y": 5113179.33, "degree": 3 }, "geometry": { "type": "Point", "coordinates": [ -112.141234998842705, 41.680097000503409 ] } },
{ "type": "Feature", "properties": { "node_id": "-12456716.810_5010366.253", "x": -12456716.81, "y": 5010366.253, "degree": 3 }, "geometry": { "type": "Point", "coordinates": [ -111.900591003715689, 40.986606002748651 ] } },
{ "type": "Feature", "properties": { "node_id": "-12629201.017_4462408.671", "x": -12629201.017000001, "y": 4462408.671, "degree": 3 }, "geometry": { "type": "Point", "coordinates": [ -113.450042997889042, 37.166990003448532 ] } },
{ "type": "Feature", "properties": { "node_id": "-12432820.968_4182900.845", "x": -12432820.968, "y": 4182900.845, "degree": 3 }, "geometry": { "type": "Point", "coordinates": [ -111.68593100276064, 35.139837999435095 ] } },
{ "type": "Feature", "properties": { "node_id": "-12463431.601_3951444.166", "x": -12463431.601, "y": 3951444.166, "degree": 3 }, "geometry": { "type": "Point", "coordinates": [ -111.960910997565364, 33.421939001256753 ] } },
{ "type": "Feature", "properties": { "node_id": "-9989841.049_3542926.193", "x": -9989841.049000001, "y": 3542926.193, "degree": 3 }, "geometry": { "type": "Point", "coordinates": [ -89.74026900241293, 30.305860000502886 ] } },
{ "type": "Feature", "properties": { "node_id": "-9244744.631_5210681.683", "x": -9244744.631, "y": 5210681.683, "degree": 3 }, "geometry": { "type": "Point", "coordinates": [ -83.046953998091851, 42.330935998289988 ] } },
{ "type": "Feature", "properties": { "node_id": "-9094026.278_5082539.089", "x": -9094026.278000001, "y": 5082539.089, "degree": 3 }, "geometry": { "type": "Point", "coordinates": [ -81.693027997119643, 41.474196002295159 ] } },
{ "type": "Feature", "properties": { "node_id": "-8800186.126_4007550.947", "x": -8800186.126, "y": 4007550.947, "degree": 3 }, "geometry": { "type": "Point", "coordinates": [ -79.0534170008236, 33.841587999120847 ] } },
{ "type": "Feature", "properties": { "node_id": "-9407134.944_4587072.281", "x": -9407134.944, "y": 4587072.281, "degree": 3 }, "geometry": { "type": "Point", "coordinates": [ -84.505730999700376, 38.05410800070436 ] } },
{ "type": "Feature", "properties": { "node_id": "-8812852.614_4266058.930", "x": -8812852.614, "y": 4266058.93, "degree": 3 }, "geometry": { "type": "Point", "coordinates": [ -79.167201998488764, 35.7484170017323 ] } },
{ "type": "Feature", "properties": { "node_id": "-10544590.043_4712388.623", "x": -10544590.043, "y": 4712388.623, "degree": 3 }, "geometry": { "type": "Point", "coordinates": [ -94.723664004014211, 38.935164003527319 ] } },
{ "type": "Feature", "properties": { "node_id": "-9625575.066_4658292.961", "x": -9625575.066, "y": 4658292.961, "degree": 3 }, "geometry": { "type": "Point", "coordinates": [ -86.4680120022757, 38.556157998594863 ] } },
{ "type": "Feature", "properties": { "node_id": "-9913601.113_3911710.146", "x": -9913601.113, "y": 3911710.146, "degree": 3 }, "geometry": { "type": "Point", "coordinates": [ -89.055394004721975, 33.123516000047601 ] } },
{ "type": "Feature", "properties": { "node_id": "-8766889.687_5297336.719", "x": -8766889.687000001, "y": 5297336.719, "degree": 3 }, "geometry": { "type": "Point", "coordinates": [ -78.754310000219078, 42.903774000724177 ] } }
]
}
