{
"type": "FeatureCollection",
"name": "network_nodes_method4",
"crs": { "type": "name", "properties": { "name": "urn:ogc:def:crs:OGC:1.3:CRS84" } },
"features": [
{ "type": "Feature", "properties": { "node_id": "-13619978.438_6043632.105", "x": -13619978.438, "y": 6043632.105, "degree": 3 }, "geometry": { "type": "Point", "coordinates": [ -122.350348002337256, 47.618574000634212 ] } },
{ "type": "Feature", "properties": { "node_id": "-13618262.003_6041105.560", "x": -13618262.003, "y": 6041105.56, "degree": 3 }, "geometry": { "type": "Point", "coordinates": [ -122.334929004390276, 47.603273000242282 ] } },
{ "type": "Feature", "properties": { "node_id": "-13629595.440_5983222.656", "x": -13629595.44, "y": 5983222.656, "degree": 3 }, "geometry": { "type": "Point", "coordinates": [ -122.436739001177344, 47.251502000204262 ] } },
{ "type": "Feature", "properties": { "node_id": "-13632516.463_5982992.404", "x": -13632516.463, "y": 5982992.404, "degree": 3 }, "geometry": { "type": "Point", "coordinates": [ -122.462978997238991, 47.250097997479045 ] } },
{ "type": "Feature", "properties": { "node_id": "-13654608.150_5710551.959", "x": -13654608.15, "y": 5710551.959, "degree": 3 }, "geometry": { "type": "Point", "coordinates": [ -122.661431998079834, 45.562735001039385 ] } },
{ "type": "Feature", "properties": { "node_id": "-13655253.581_5703286.443", "x": -13655253.581, "y": 5703286.443, "degree": 3 }, "geometry": { "type": "Point", "coordinates": [ -122.667230003401272, 45.517021002414758 ] } },
{ "type": "Feature", "properties": { "node_id": "-13701930.511_5473699.920", "x": -13701930.511, "y": 5473699.92, "degree": 3 }, "geometry": { "type": "Point", "coordinates": [ -123.086535999749032, 44.053336997596517 ] } },
{ "type": "Feature", "properties": { "node_id": "-13701755.294_5473180.893", "x": -13701755.294, "y": 5473180.893, "degree": 3 }, "geometry": { "type": "Point", "coordinates": [ -123.084961998657661, 44.049985998301288 ] } },
{ "type": "Feature", "properties": { "node_id": "-13700731.823_5472851.773", "x": -13700731.823000001, "y": 5472851.773, "degree": 3 }, "geometry": { "type": "Point", "coordinates": [ -123.075768002236146, 44.047860999266298 ] } },
{ "type": "Feature", "properties": { "node_id": "-13521482.396_4661233.964", "x": -13521482.396, "y": 4661233.964, "degree": 3 }, "geometry": { "type": "Point", "coordinates": [ -121.465543002798469, 38.576814999875829 ] } },
{ "type": "Feature", "properties": { "node_id": "-13550144.159_4468368.743", "x": -13550144.159, "y": 4468368.743, "degree": 3 }, "geometry": { "type": "Point", "coordinates": [ -121.72301600052559, 37.209643002427555 ] } },
{ "type": "Feature", "properties": { "node_id": "-13532705.738_4442206.792", "x": -13532705.738, "y": 4442206.792, "degree": 3 }, "geometry": { "type": "Point", "coordinates": [ -121.566363999373479, 37.022237002191211 ] } },
{ "type": "Feature", "properties": { "node_id": "-13527058.723_4440530.862", "x": -13527058.723, "y": 4440530.862, "degree": 3 }, "geometry": { "type": "Point", "coordinates": [ -121.515636000531941, 37.010216002989033 ] } },
{ "type": "Feature", "properties": { "node_id": "-13364581.024_4432619.745", "x": -13364581.024, "y": 4432619.745, "degree": 3 }, "geometry": { "type": "Point", "coordinates": [ -120.056073997129246, 36.953445999727698 ] } },
{ "type": "Feature", "properties": { "node_id": "-13341135.470_4408359.629", "x": -13341135.47, "y": 4408359.629, "degree": 3 }, "geometry": { "type": "Point", "coordinates": [ -119.845459002100753, 36.779091997800577 ] } },
{ "type": "Feature", "properties": { "node_id": "-13317828.174_4345324.913", "x": -13317828.174000001, "y": 4345324.913, "degree": 3 }, "geometry": { "type": "Point", "coordinates": [ -119.63608599981778, 36.324213997872356 ] } },
{ "type": "Feature", "properties": { "node_id": "-13248998.220_4215647.203", "x": -13248998.22, "y": 4215647.203, "degree": 3 }, "geometry": { "type": "Point", "coordinates": [ -119.017776002983339, 35.380036002393055 ] } },
{ "type": "Feature", "properties": { "node_id": "-13249006.346_4211877.895", "x": -13249006.346000001, "y": 4211877.895, "degree": 3 }, "geometry": { "type": "Point", "coordinates": [ -119.017849000083331, 35.352423999773229 ] } },
{ "type": "Feature", "properties": { "node_id": "-13248142.729_4192245.826", "x": -13248142.729, "y": 4192245.826, "degree": 3 }, "geometry": { "type": "Point", "coordinates": [ -119.010090996576068, 35.208457001992855 ] } },
{ "type": "Feature", "properties": { "node_id": "-13203068.020_4088470.967", "x": -13203068.02, "y": 4088470.967, "degree": 3 }, "geometry": { "type": "Point", "coordinates": [ -118.605177996356659, 34.443212000011791 ] } },
{ "type": "Feature", "properties": { "node_id": "-13200618.435_4085778.899", "x": -13200618.435000001, "y": 4085778.899, "degree": 3 }, "geometry": { "type": "Point", "coordinates": [ -118.583172999904178, 34.423265996873006 ] } },
{ "type": "Feature", "properties": { "node_id": "-13190152.622_4071149.495", "x": -13190152.622, "y": 4071149.495, "degree": 4 }, "geometry": { "type": "Point", "coordinates": [ -118.489157002117807, 34.314791001823991 ] } },
{ "type": "Feature", "properties": { "node_id": "-13177456.077_4033683.451", "x": -13177456.077, "y": 4033683.451, "degree": 3 }, "geometry": { "type": "Point", "coordinates": [ -118.375101997827699, 34.03634600257066 ] } },
{ "type": "Feature", "properties": { "node_id": "-13180929.802_4031338.908", "x": -13180929.802, "y": 4031338.908, "degree": 4 }, "geometry": { "type": "Point", "coordinates": [ -118.406307000430971, 34.018890999747626 ] } },
{ "type": "Feature", "properties": { "node_id": "-13166720.425_4033894.355", "x": -13166720.425000001, "y": 4033894.355, "degree": 3 }, "geometry": { "type": "Point", "coordinates": [ -118.278661995061825, 34.037915996044688 ] } },
{ "type": "Feature", "properties": { "node_id": "-13165449.157_4033191.668", "x": -13165449.157, "y": 4033191.668, "degree": 4 }, "geometry": { "type": "Point", "coordinates": [ -118.267242000315676, 34.032685000853157 ] } },
{ "type": "Feature", "properties": { "node_id": "-13153382.236_4028842.577", "x": -13153382.236, "y": 4028842.577, "degree": 4 }, "geometry": { "type": "Point", "coordinates": [ -118.158843004650052, 34.000301996812738 ] } },
{ "type": "Feature", "properties": { "node_id": "-13122050.697_3999355.768", "x": -13122050.697000001, "y": 3999355.768, "degree": 4 }, "geometry": { "type": "Point", "coordinates": [ -117.877387001063184, 33.780420003184538 ] } },
{ "type": "Feature", "properties": { "node_id": "-13118107.093_3994664.075", "x": -13118107.093, "y": 3994664.075, "degree": 3 }, "geometry": { "type": "Point", "coordinates": [ -117.84196100358605, 33.745381996713547 ] } },
{ "type": "Feature", "properties": { "node_id": "-13117188.595_3994041.303", "x": -13117188.595000001, "y": 3994041.303, "degree": 3 }, "geometry": { "type": "Point", "coordinates": [ -117.833709995667718, 33.740729999847915 ] } },
{ "type": "Feature", "properties": { "node_id": "-13065717.691_3921889.055", "x": -13065717.691, "y": 3921889.055, "degree": 3 }, "geometry": { "type": "Point", "coordinates": [ -117.371338998161207, 33.200062000624321 ] } },
{ "type": "Feature", "properties": { "node_id": "-13046543.354_3878727.480", "x": -13046543.354, "y": 3878727.48, "degree": 3 }, "geometry": { "type": "Point", "coordinates": [ -117.199092998261648, 32.875026004068694 ] } },
{ "type": "Feature", "properties": { "node_id": "-13041380.690_3869941.516", "x": -13041380.69, "y": 3869941.516, "degree": 3 }, "geometry": { "type": "Point", "coordinates": [ -117.152715998481895, 32.808715000920316 ] } },
{ "type": "Feature", "properties": { "node_id": "-13509715.703_4673227.980", "x": -13509715.703, "y": 4673227.98, "degree": 3 }, "geometry": { "type": "Point", "coordinates": [ -121.359841001144048, 38.660997001010308 ] } },
{ "type": "Feature", "properties": { "node_id": "-13501983.006_4682296.171", "x": -13501983.006, "y": 4682296.171, "degree": 3 }, "geometry": { "type": "Point", "coordinates": [ -121.290377002118376, 38.72457800365094 ] } },
{ "type": "Feature", "properties": { "node_id": "-13499784.668_4685075.248", "x": -13499784.668, "y": 4685075.248, "degree": 3 }, "geometry": { "type": "Point", "coordinates": [ -121.270628995867781, 38.744051997853006 ] } },
{ "type": "Feature", "properties": { "node_id": "-13343027.567_4797006.843", "x": -13343027.567, "y": 4797006.843, "degree": 3 }, "geometry": { "type": "Point", "coordinates": [ -119.862455998642119, 39.523975003431033 ] } },
{ "type": "Feature", "properties": { "node_id": "-13337658.851_4797864.117", "x": -13337658.851, "y": 4797864.117, "degree": 4 }, "geometry": { "type": "Point", "coordinates": [ -119.814228002253131, 39.52991499807672 ] } },
{ "type": "Feature", "properties": { "node_id": "-12461022.202_4978703.808", "x": -12461022.202, "y": 4978703.808, "degree": 3 }, "geometry": { "type": "Point", "coordinates": [ -111.939266998092933, 40.771552002492619 ] } },
{ "type": "Feature", "properties": { "node_id": "-12940158.768_5406663.169", "x": -12940158.768, "y": 5406663.169, "degree": 3 }, "geometry": { "type": "Point", "coordinates": [ -116.243424002276356, 43.61895799919219 ] } },
{ "type": "Feature", "properties": { "node_id": "-12940160.660_5406468.347", "x": -12940160.66, "y": 5406468.347, "degree": 3 }, "geometry": { "type": "Point", "coordinates": [ -116.243440998401539, 43.617691000637102 ] } },
{ "type": "Feature", "properties": { "node_id": "-12464490.472_5045253.853", "x": -12464490.472, "y": 5045253.853, "degree": 3 }, "geometry": { "type": "Point", "coordinates": [ -111.970422997597467, 41.222756000301985 ] } },
{ "type": "Feature", "properties": { "node_id": "-12461072.741_5035230.637", "x": -12461072.741, "y": 5035230.637, "degree": 3 }, "geometry": { "type": "Point", "coordinates": [ -111.939720997654391, 41.154996997770716 ] } },
{ "type": "Feature", "properties": { "node_id": "-13166190.767_4033913.163", "x": -13166190.767000001, "y": 4033913.163, "degree": 3 }, "geometry": { "type": "Point", "coordinates": [ -118.273903996294266, 34.038056003534471 ] } },
{ "type": "Feature", "properties": { "node_id": "-13162955.823_4036687.266", "x": -13162955.823000001, "y": 4036687.266, "degree": 3 }, "geometry": { "type": "Point", "coordinates": [ -118.244843999909534, 34.058704004071771 ] } },
{ "type": "Feature", "properties": { "node_id": "-13058048.558_4043351.609", "x": -13058048.558, "y": 4043351.609, "degree": 3 }, "geometry": { "type": "Point", "coordinates": [ -117.302446004262762, 34.108286999503662 ] } },
{ "type": "Feature", "properties": { "node_id": "-12821843.292_4309406.600", "x": -12821843.292, "y": 4309406.6, "degree": 3 }, "geometry": { "type": "Point", "coordinates": [ -115.1805779978896, 36.063820997095767 ] } },
{ "type": "Feature", "properties": { "node_id": "-12820975.223_4322504.268", "x": -12820975.223, "y": 4322504.268, "degree": 3 }, "geometry": { "type": "Point", "coordinates": [ -115.172780001385888, 36.158874002440186 ] } },
{ "type": "Feature", "properties": { "node_id": "-12821125.615_4324790.506", "x": -12821125.615, "y": 4324790.506, "degree": 3 }, "geometry": { "type": "Point", "coordinates": [ -115.174130995707998, 36.175453999640737 ] } },
{ "type": "Feature", "properties": { "node_id": "-12829202.624_4330689.249", "x": -12829202.624, "y": 4330689.249, "degree": 3 }, "geometry": { "type": "Point", "coordinates": [ -115.246688002054711, 36.21821599637947 ] } },
{ "type": "Feature", "properties": { "node_id": "-12810620.618_4336183.268", "x": -12810620.618000001, "y": 4336183.268, "degree": 3 }, "geometry": { "type": "Point", "coordinates": [ -115.079763002060687, 36.258022999539243 ] } },
{ "type": "Feature", "properties": { "node_id": "-12808018.079_4337985.543", "x": -12808018.079, "y": 4337985.543, "degree": 3 }, "geometry": { "type": "Point", "coordinates": [ -115.056383996448517, 36.271076996239842 ] } },
{ "type": "Feature", "properties": { "node_id": "-12432669.573_4905754.259", "x": -12432669.573000001, "y": 4905754.259, "degree": 3 }, "geometry": { "type": "Point", "coordinates": [ -111.684570998336241, 40.273415997014155 ] } },
{ "type": "Feature", "properties": { "node_id": "-12437262.949_4911367.438", "x": -12437262.949, "y": 4911367.438, "degree": 3 }, "geometry": { "type": "Point", "coordinates": [ -111.725833997001303, 40.311877002764291 ] } },
{ "type": "Feature", "properties": { "node_id": "-12461006.172_4977903.031", "x": -12461006.172, "y": 4977903.031, "degree": 3 }, "geometry": { "type": "Point", "coordinates": [ -111.939122998152897, 40.766104000456671 ] } },
{ "type": "Feature", "properties": { "node_id": "-12549049.314_4024623.867", "x": -12549049.314, "y": 4024623.867, "degree": 3 }, "geometry": { "type": "Point", "coordinates": [ -112.730027999357944, 33.968877999562828 ] } },
{ "type": "Feature", "properties": { "node_id": "-12490432.700_3968971.142", "x": -12490432.7, "y": 3968971.142, "degree": 3 }, "geometry": { "type": "Point", "coordinates": [ -112.203465996762603, 33.55325100059104 ] } },
{ "type": "Feature", "properties": { "node_id": "-12488518.450_3970876.777", "x": -12488518.45, "y": 3970876.777, "degree": 3 }, "geometry": { "type": "Point", "coordinates": [ -112.186269996436337, 33.567516001579172 ] } },
{ "type": "Feature", "properties": { "node_id": "-12478871.392_3970890.270", "x": -12478871.392000001, "y": 3970890.27, "degree": 3 }, "geometry": { "type": "Point", "coordinates": [ -112.099608999954484, 33.56761699765115 ] } },
{ "type": "Feature", "properties": { "node_id": "-12458208.713_4977099.234", "x": -12458208.713, "y": 4977099.234, "degree": 3 }, "geometry": { "type": "Point", "coordinates": [ -111.913992996388913, 40.760635002988231 ] } },
{ "type": "Feature", "properties": { "node_id": "-11691350.671_4834645.660", "x": -11691350.671, "y": 4834645.66, "degree": 4 }, "geometry": { "type": "Point", "coordinates": [ -105.025189997603221, 39.784293000674857 ] } },
{ "type": "Feature", "properties": { "node_id": "-11677803.980_4833785.949", "x": -11677803.98, "y": 4833785.949, "degree": 4 }, "geometry": { "type": "Point", "coordinates": [ -104.903498001857784, 39.778358001161273 ] } },
{ "type": "Feature", "properties": { "node_id": "-11677721.047_4831300.519", "x": -11677721.047, "y": 4831300.519, "degree": 3 }, "geometry": { "type": "Point", "coordinates": [ -104.902753002043198, 39.761197000708883 ] } },
{ "type": "Feature", "properties": { "node_id": "-13165358.432_4033381.340", "x": -13165358.432, "y": 4033381.34, "degree": 4 }, "geometry": { "type": "Point", "coordinates": [ -118.266427003774169, 34.03409700314306 ] } },
{ "type": "Feature", "properties": { "node_id": "-13159435.789_4032701.384", "x": -13159435.789000001, "y": 4032701.384, "degree": 3 }, "geometry": { "type": "Point", "coordinates": [ -118.213222996481335, 34.029035000942891 ] } },
{ "type": "Feature", "properties": { "node_id": "-13152594.093_4033275.220", "x": -13152594.093, "y": 4033275.22, "degree": 4 }, "geometry": { "type": "Point", "coordinates": [ -118.151762995620359, 34.033307001805412 ] } },
{ "type": "Feature", "properties": { "node_id": "-13151986.178_4033285.966", "x": -13151986.178, "y": 4033285.966, "degree": 3 }, "geometry": { "type": "Point", "coordinates": [ -118.146302002260882, 34.033386999825559 ] } },
{ "type": "Feature", "properties": { "node_id": "-13139859.032_4033785.141", "x": -13139859.032, "y": 4033785.141, "degree": 3 }, "geometry": { "type": "Point", "coordinates": [ -118.037361996215381, 34.03710299817746 ] } },
{ "type": "Feature", "properties": { "node_id": "-13068951.634_4021570.356", "x": -13068951.634, "y": 4021570.356, "degree": 3 }, "geometry": { "type": "Point", "coordinates": [ -117.400390002409935, 33.946125998936189 ] } },
{ "type": "Feature", "properties": { "node_id": "-13067664.558_4021581.896", "x": -13067664.558, "y": 4021581.896, "degree": 3 }, "geometry": { "type": "Point", "coordinates": [ -117.388828001983697, 33.94621199602576 ] } },
{ "type": "Feature", "properties": { "node_id": "-13063756.464_4021408.524", "x": -13063756.464, "y": 4021408.524, "degree": 3 }, "geometry": { "type": "Point", "coordinates": [ -117.353720996263945, 33.944920003561691 ] } },
{ "type": "Feature", "properties": { "node_id": "-13041723.777_4020632.537", "x": -13041723.777000001, "y": 4020632.537, "degree": 3 }, "geometry": { "type": "Point", "coordinates": [ -117.155798001440729, 33.939136999271227 ] } },
{ "type": "Feature", "properties": { "node_id": "-13038370.054_4020477.963", "x": -13038370.054, "y": 4020477.963, "degree": 3 }, "geometry": { "type": "Point", "coordinates": [ -117.125670995144688, 33.937984997350469 ] } },
{ "type": "Feature", "properties": { "node_id": "-12476971.391_3970882.388", "x": -12476971.391000001, "y": 3970882.388, "degree": 3 }, "geometry": { "type": "Point", "coordinates": [ -112.082541000573059, 33.567558000330635 ] } },
{ "type": "Feature", "properties": { "node_id": "-12475993.449_3966977.142", "x": -12475993.449, "y": 3966977.142, "degree": 3 }, "geometry": { "type": "Point", "coordinates": [ -112.073755998117221, 33.538322003965476 ] } },
{ "type": "Feature", "properties": { "node_id": "-12472143.465_3959562.064", "x": -12472143.465, "y": 3959562.064, "degree": 3 }, "geometry": { "type": "Point", "coordinates": [ -112.039171003409066, 33.482782995997916 ] } },
{ "type": "Feature", "properties": { "node_id": "-12354262.135_3792338.294", "x": -12354262.135, "y": 3792338.294, "degree": 3 }, "geometry": { "type": "Point", "coordinates": [ -110.980224998895707, 32.220870000342813 ] } },
{ "type": "Feature", "properties": { "node_id": "-12352937.322_3787880.024", "x": -12352937.322000001, "y": 3787880.024, "degree": 3 }, "geometry": { "type": "Point", "coordinates": [ -110.968324001230698, 32.186982002067829 ] } },
{ "type": "Feature", "properties": { "node_id": "-12350266.879_3786566.461", "x": -12350266.879000001, "y": 3786566.461, "degree": 3 }, "geometry": { "type": "Point", "coordinates": [ -110.944335003608003, 32.17699499970221 ] } },
{ "type": "Feature", "properties": { "node_id": "-12346357.227_3783972.904", "x": -12346357.227, "y": 3783972.904, "degree": 3 }, "geometry": { "type": "Point", "coordinates": [ -110.90921400213611, 32.157273003296282 ] } },
{ "type": "Feature", "properties": { "node_id": "-12343969.201_3780950.162", "x": -12343969.201, "y": 3780950.162, "degree": 3 }, "geometry": { "type": "Point", "coordinates": [ -110.887761999589358, 32.134281999855681 ] } },
{ "type": "Feature", "properties": { "node_id": "-11883042.946_3804577.084", "x": -11883042.946, "y": 3804577.084, "degree": 3 }, "geometry": { "type": "Point", "coordinates": [ -106.747191002404648, 32.313833997662641 ] } },
{ "type": "Feature", "properties": { "node_id": "-11678795.948_4831391.751", "x": -11678795.948000001, "y": 4831391.751, "degree": 3 }, "geometry": { "type": "Point", "coordinates": [ -104.912409002015366, 39.761827000494563 ] } },
{ "type": "Feature", "properties": { "node_id": "-11667113.747_4714857.434", "x": -11667113.747, "y": 4714857.434, "degree": 3 }, "geometry": { "type": "Point", "coordinates": [ -104.807466004910793, 38.952413002917943 ] } },
{ "type": "Feature", "properties": { "node_id": "-11634230.525_4462196.616", "x": -11634230.525, "y": 4462196.616, "degree": 3 }, "geometry": { "type": "Point", "coordinates": [ -104.51207099577384, 37.165471997171039 ] } },
{ "type": "Feature", "properties": { "node_id": "-11793493.651_4257564.760", "x": -11793493.651000001, "y": 4257564.76, "degree": 3 }, "geometry": { "type": "Point", "coordinates": [ -105.942755998598372, 35.686464996324645 ] } },
{ "type": "Feature", "properties": { "node_id": "-11871997.714_4176230.079", "x": -11871997.714, "y": 4176230.079, "degree": 3 }, "geometry": { "type": "Point", "coordinates": [ -106.64796999518218, 35.090820001446993 ] } },
{ "type": "Feature", "properties": { "node_id": "-11488780.701_4082448.783", "x": -11488780.701, "y": 4082448.783, "degree": 3 }, "geometry": { "type": "Point", "coordinates": [ -103.205472996056898, 34.398585998988047 ] } },
{ "type": "Feature", "properties": { "node_id": "-11338475.900_3972252.396", "x": -11338475.9, "y": 3972252.396, "degree": 3 }, "geometry": { "type": "Point", "coordinates": [ -101.855261995908464, 33.577812000423279 ] } },
{ "type": "Feature", "properties": { "node_id": "-10835138.589_3863057.219", "x": -10835138.589, "y": 3863057.219, "degree": 3 }, "geometry": { "type": "Point", "coordinates": [ -97.333706000519243, 32.756722000404928 ] } },
{ "type": "Feature", "properties": { "node_id": "-10834814.093_3862896.391", "x": -10834814.093, "y": 3862896.391, "degree": 3 }, "geometry": { "type": "Point", "coordinates": [ -97.330791003354904, 32.755506999008958 ] } },
{ "type": "Feature", "properties": { "node_id": "-10832335.564_3861887.131", "x": -10832335.564, "y": 3861887.131, "degree": 3 }, "geometry": { "type": "Point", "coordinates": [ -97.308525998526548, 32.747882001091682 ] } },
{ "type": "Feature", "properties": { "node_id": "-10797430.893_3863310.577", "x": -10797430.893, "y": 3863310.577, "degree": 4 }, "geometry": { "type": "Point", "coordinates": [ -96.994972004061921, 32.758636001173883 ] } },
{ "type": "Feature", "properties": { "node_id": "-10777032.598_3865777.858", "x": -10777032.598, "y": 3865777.858, "degree": 3 }, "geometry": { "type": "Point", "coordinates": [ -96.81173100237713, 32.777272999814492 ] } },
{ "type": "Feature", "properties": { "node_id": "-10776850.813_3865918.600", "x": -10776850.813, "y": 3865918.6, "degree": 3 }, "geometry": { "type": "Point", "coordinates": [ -96.810097999937895, 32.778335999203094 ] } },
{ "type": "Feature", "properties": { "node_id": "-10772282.150_3866631.472", "x": -10772282.15, "y": 3866631.472, "degree": 3 }, "geometry": { "type": "Point", "coordinates": [ -96.769057001928985, 32.783720000045058 ] } },
{ "type": "Feature", "properties": { "node_id": "-10771929.712_3867106.567", "x": -10771929.712, "y": 3867106.567, "degree": 3 }, "geometry": { "type": "Point", "coordinates": [ -96.765890997507938, 32.787307997469433 ] } },
{ "type": "Feature", "properties": { "node_id": "-10623123.160_3474986.616", "x": -10623123.16, "y": 3474986.616, "degree": 3 }, "geometry": { "type": "Point", "coordinates": [ -95.429138997120674, 29.777540003870936 ] } },
{ "type": "Feature", "properties": { "node_id": "-10964273.762_3429858.563", "x": -10964273.762, "y": 3429858.563, "degree": 3 }, "geometry": { "type": "Point", "coordinates": [ -98.493746996752435, 29.425058999956349 ] } },
{ "type": "Feature", "properties": { "node_id": "-10965059.789_3430332.095", "x": -10965059.789000001, "y": 3430332.095, "degree": 3 }, "geometry": { "type": "Point", "coordinates": [ -98.500807997430755, 29.428763997036036 ] } },
{ "type": "Feature", "properties": { "node_id": "-10881408.535_3536981.398", "x": -10881408.535, "y": 3536981.398, "degree": 3 }, "geometry": { "type": "Point", "coordinates": [ -97.749355997391106, 30.259744002932834 ] } },
{ "type": "Feature", "properties": { "node_id": "-10880984.631_3538018.145", "x": -10880984.631, "y": 3538018.145, "degree": 3 }, "geometry": { "type": "Point", "coordinates": [ -97.745548002969102, 30.267787997291034 ] } },
{ "type": "Feature", "properties": { "node_id": "-10878097.003_3541513.606", "x": -10878097.003, "y": 3541513.606, "degree": 3 }, "geometry": { "type": "Point", "coordinates": [ -97.719607999296599, 30.294903998394044 ] } },
{ "type": "Feature", "properties": { "node_id": "-10877610.426_3542417.922", "x": -10877610.426000001, "y": 3542417.922, "degree": 3 }, "geometry": { "type": "Point", "coordinates": [ -97.71523700373659, 30.301917999782678 ] } },
{ "type": "Feature", "properties": { "node_id": "-10810815.391_3708565.182", "x": -10810815.391000001, "y": 3708565.182, "degree": 3 }, "geometry": { "type": "Point", "coordinates": [ -97.115206995298607, 31.581995002206479 ] } },
{ "type": "Feature", "properties": { "node_id": "-10776299.002_3864444.135", "x": -10776299.002, "y": 3864444.135, "degree": 3 }, "geometry": { "type": "Point", "coordinates": [ -96.80514099738545, 32.767198995985126 ] } },
{ "type": "Feature", "properties": { "node_id": "-10776326.053_3864655.821", "x": -10776326.053, "y": 3864655.821, "degree": 3 }, "geometry": { "type": "Point", "coordinates": [ -96.80538400065295, 32.768797999007411 ] } },
{ "type": "Feature", "properties": { "node_id": "-10774184.711_3865544.572", "x": -10774184.711, "y": 3865544.572, "degree": 3 }, "geometry": { "type": "Point", "coordinates": [ -96.78614799818169, 32.775511004022299 ] } },
{ "type": "Feature", "properties": { "node_id": "-10659266.929_3530801.209", "x": -10659266.929, "y": 3530801.209, "degree": 3 }, "geometry": { "type": "Point", "coordinates": [ -95.753823998304526, 30.211778997578602 ] } },
{ "type": "Feature", "properties": { "node_id": "-10723945.891_3584504.995", "x": -10723945.891000001, "y": 3584504.995, "degree": 3 }, "geometry": { "type": "Point", "coordinates": [ -96.334844999560389, 30.62779500148406 ] } },
{ "type": "Feature", "properties": { "node_id": "-10616034.558_3474095.665", "x": -10616034.558, "y": 3474095.665, "degree": 4 }, "geometry": { "type": "Point", "coordinates": [ -95.365461001924274, 29.770593000916119 ] } },
{ "type": "Feature", "properties": { "node_id": "-10149948.867_3560703.144", "x": -10149948.867000001, "y": 3560703.144, "degree": 3 }, "geometry": { "type": "Point", "coordinates": [ -91.178542002577203, 30.443633002639164 ] } },
{ "type": "Feature", "properties": { "node_id": "-10142226.856_3559041.327", "x": -10142226.856000001, "y": 3559041.327, "degree": 3 }, "geometry": { "type": "Point", "coordinates": [ -91.109173997522802, 30.430761998561653 ] } },
{ "type": "Feature", "properties": { "node_id": "-10036069.918_3503207.801", "x": -10036069.918, "y": 3503207.801, "degree": 3 }, "geometry": { "type": "Point", "coordinates": [ -90.155549998315522, 29.99733899726705 ] } },
{ "type": "Feature", "properties": { "node_id": "-10032717.086_3503044.946", "x": -10032717.086, "y": 3503044.946, "degree": 3 }, "geometry": { "type": "Point", "coordinates": [ -90.12543099600866, 29.996072002170671 ] } },
{ "type": "Feature", "properties": { "node_id": "-10026834.965_3497859.074", "x": -10026834.965, "y": 3497859.074, "degree": 3 }, "geometry": { "type": "Point", "coordinates": [ -90.07259100403526, 29.955717997791552 ] } },
{ "type": "Feature", "properties": { "node_id": "-10024229.198_3502532.099", "x": -10024229.198000001, "y": 3502532.099, "degree": 3 }, "geometry": { "type": "Point", "coordinates": [ -90.049183000805741, 29.992081999768043 ] } },
{ "type": "Feature", "properties": { "node_id": "-10020187.521_3504927.103", "x": -10020187.521, "y": 3504927.103, "degree": 3 }, "geometry": { "type": "Point", "coordinates": [ -90.012875998579986, 30.010714002634902 ] } },
{ "type": "Feature", "properties": { "node_id": "-10011990.956_3511249.827", "x": -10011990.956, "y": 3511249.827, "degree": 3 }, "geometry": { "type": "Point", "coordinates": [ -89.939245002412193, 30.059885001848293 ] } },
{ "type": "Feature", "properties": { "node_id": "-9800404.441_3592454.652", "x": -9800404.441, "y": 3592454.652, "degree": 3 }, "geometry": { "type": "Point", "coordinates": [ -88.038530999031337, 30.689225998052557 ] } },
{ "type": "Feature", "properties": { "node_id": "-9662279.551_3964293.418", "x": -9662279.551000001, "y": 3964293.418, "degree": 3 }, "geometry": { "type": "Point", "coordinates": [ -86.797734000988072, 33.518225000829332 ] } },
{ "type": "Feature", "properties": { "node_id": "-9164378.527_3458891.563", "x": -9164378.527000001, "y": 3458891.563, "degree": 3 }, "geometry": { "type": "Point", "coordinates": [ -82.325013002608472, 29.651967998327716 ] } },
{ "type": "Feature", "properties": { "node_id": "-9311418.327_3874207.078", "x": -9311418.327, "y": 3874207.078, "degree": 3 }, "geometry": { "type": "Point", "coordinates": [ -83.64589399974723, 32.840915002431728 ] } },
{ "type": "Feature", "properties": { "node_id": "-9396270.162_3988116.747", "x": -9396270.162, "y": 3988116.747, "degree": 3 }, "geometry": { "type": "Point", "coordinates": [ -84.408131002408112, 33.696461998269541 ] } },
{ "type": "Feature", "properties": { "node_id": "-9396275.282_3994083.739", "x": -9396275.282, "y": 3994083.739, "degree": 3 }, "geometry": { "type": "Point", "coordinates": [ -84.408176996150658, 33.741046997284649 ] } },
{ "type": "Feature", "properties": { "node_id": "-9395886.443_3998014.534", "x": -9395886.443, "y": 3998014.534, "degree": 3 }, "geometry": { "type": "Point", "coordinates": [ -84.404683995983035, 33.770405003151268 ] } },
{ "type": "Feature", "properties": { "node_id": "-9394259.175_3998129.835", "x": -9394259.175000001, "y": 3998129.835, "degree": 4 }, "geometry": { "type": "Point", "coordinates": [ -84.390065998825463, 33.77126600221122 ] } },
{ "type": "Feature", "properties": { "node_id": "-9264950.232_4081484.879", "x": -9264950.232000001, "y": 4081484.879, "degree": 3 }, "geometry": { "type": "Point", "coordinates": [ -83.228464000123054, 34.391441000511165 ] } },
{ "type": "Feature", "properties": { "node_id": "-9238915.720_4096158.491", "x": -9238915.72, "y": 4096158.491, "degree": 3 }, "geometry": { "type": "Point", "coordinates": [ -82.994591999681134, 34.500143997209818 ] } },
{ "type": "Feature", "properties": { "node_id": "-9086403.899_4177850.519", "x": -9086403.899, "y": 4177850.519, "degree": 3 }, "geometry": { "type": "Point", "coordinates": [ -81.624555001549126, 35.102729999936365 ] } },
{ "type": "Feature", "properties": { "node_id": "-8998547.328_4193405.323", "x": -8998547.328, "y": 4193405.323, "degree": 3 }, "geometry": { "type": "Point", "coordinates": [ -80.835325996152804, 35.216967000891266 ] } },
{ "type": "Feature", "properties": { "node_id": "-8998001.195_4192912.760", "x": -8998001.195, "y": 4192912.76, "degree": 3 }, "geometry": { "type": "Point", "coordinates": [ -80.83041999994218, 35.213351998679428 ] } },
{ "type": "Feature", "properties": { "node_id": "-8938108.192_4273315.851", "x": -8938108.192, "y": 4273315.851, "degree": 3 }, "geometry": { "type": "Point", "coordinates": [ -80.292391999875022, 35.801306998596665 ] } },
{ "type": "Feature", "properties": { "node_id": "-8882866.674_4310644.271", "x": -8882866.674000001, "y": 4310644.271, "degree": 3 }, "geometry": { "type": "Point", "coordinates": [ -79.796149000501387, 36.072808001637263 ] } },
{ "type": "Feature", "properties": { "node_id": "-8836946.382_4309329.896", "x": -8836946.382, "y": 4309329.896, "degree": 3 }, "geometry": { "type": "Point", "coordinates": [ -79.383639998953072, 36.063263998496673 ] } },
{ "type": "Feature", "properties": { "node_id": "-8785713.702_4301359.338", "x": -8785713.702, "y": 4301359.338, "degree": 3 }, "geometry": { "type": "Point", "coordinates": [ -78.92340900404902, 36.005363002412508 ] } },
{ "type": "Feature", "properties": { "node_id": "-8783249.422_4299184.389", "x": -8783249.422, "y": 4299184.389, "degree": 3 }, "geometry": { "type": "Point", "coordinates": [ -78.90127200016552, 35.989556000766832 ] } },
{ "type": "Feature", "properties": { "node_id": "-8754001.784_4277871.971", "x": -8754001.784, "y": 4277871.971, "degree": 3 }, "geometry": { "type": "Point", "coordinates": [ -78.638535997767576, 35.834494997413202 ] } },
{ "type": "Feature", "properties": { "node_id": "-8620421.290_4514095.187", "x": -8620421.29, "y": 4514095.187, "degree": 3 }, "geometry": { "type": "Point", "coordinates": [ -77.438562003563206, 37.53607999694033 ] } },
{ "type": "Feature", "properties": { "node_id": "-8620440.103_4514109.506", "x": -8620440.103, "y": 4514109.506, "degree": 3 }, "geometry": { "type": "Point", "coordinates": [ -77.438731003617619, 37.536181996394788 ] } },
{ "type": "Feature", "properties": { "node_id": "-8575158.005_4706713.736", "x": -8575158.005000001, "y": 4706713.736, "degree": 3 }, "geometry": { "type": "Point", "coordinates": [ -77.03195499631363, 38.895499000013807 ] } },
{ "type": "Feature", "properties": { "node_id": "-8574271.234_4707656.350", "x": -8574271.234, "y": 4707656.35, "degree": 3 }, "geometry": { "type": "Point", "coordinates": [ -77.023988996885492, 38.902088999125013 ] } },
{ "type": "Feature", "properties": { "node_id": "-8574040.358_4707658.067", "x": -8574040.358, "y": 4707658.067, "degree": 3 }, "geometry": { "type": "Point", "coordinates": [ -77.021915002490132, 38.902101002450323 ] } },
{ "type": "Feature", "properties": { "node_id": "-10784725.888_3876499.728", "x": -10784725.888, "y": 3876499.728, "degree": 4 }, "geometry": { "type": "Point", "coordinates": [ -96.88084100229878, 32.858217002999965 ] } },
{ "type": "Feature", "properties": { "node_id": "-10845768.598_4245742.703", "x": -10845768.598, "y": 4245742.703, "degree": 3 }, "geometry": { "type": "Point", "coordinates": [ -97.429196996069521, 35.600161003278629 ] } },
{ "type": "Feature", "properties": { "node_id": "-10687661.414_4318545.034", "x": -10687661.414000001, "y": 4318545.034, "degree": 3 }, "geometry": { "type": "Point", "coordinates": [ -96.00889599690656, 36.130152997519978 ] } },
{ "type": "Feature", "properties": { "node_id": "-10544052.815_4717536.177", "x": -10544052.815, "y": 4717536.177, "degree": 3 }, "geometry": { "type": "Point", "coordinates": [ -94.718838002779634, 38.971124000178527 ] } },
{ "type": "Feature", "properties": { "node_id": "-10527459.754_4737010.158", "x": -10527459.754000001, "y": 4737010.158, "degree": 3 }, "geometry": { "type": "Point", "coordinates": [ -94.569779999713376, 39.10700100177494 ] } },
{ "type": "Feature", "properties": { "node_id": "-10526887.238_4738683.741", "x": -10526887.238, "y": 4738683.741, "degree": 3 }, "geometry": { "type": "Point", "coordinates": [ -94.564637000981335, 39.118665999625229 ] } },
{ "type": "Feature", "properties": { "node_id": "-11677498.297_4834467.628", "x": -11677498.297, "y": 4834467.628, "degree": 3 }, "geometry": { "type": "Point", "coordinates": [ -104.900752004747829, 39.783064001971816 ] } },
{ "type": "Feature", "properties": { "node_id": "-10762622.735_4984871.606", "x": -10762622.735, "y": 4984871.606, "degree": 3 }, "geometry": { "type": "Point", "coordinates": [ -96.682285000627459, 40.813498996784006 ] } },
{ "type": "Feature", "properties": { "node_id": "-10692510.714_5051245.607", "x": -10692510.714, "y": 5051245.607, "degree": 3 }, "geometry": { "type": "Point", "coordinates": [ -96.052457999979367, 41.263227997465421 ] } },
{ "type": "Feature", "properties": { "node_id": "-10682007.386_5050724.483", "x": -10682007.386, "y": 5050724.483, "degree": 3 }, "geometry": { "type": "Point", "coordinates": [ -95.958104999214157, 41.259709000200694 ] } },
{ "type": "Feature", "properties": { "node_id": "-10419850.431_5098812.752", "x": -10419850.431, "y": 5098812.752, "degree": 3 }, "geometry": { "type": "Point", "coordinates": [ -93.603109004066837, 41.583635998104789 ] } },
{ "type": "Feature", "properties": { "node_id": "-10419154.127_5098969.020", "x": -10419154.127, "y": 5098969.02, "degree": 3 }, "geometry": { "type": "Point", "coordinates": [ -93.596853998810886, 41.584685999211978 ] } },
{ "type": "Feature", "properties": { "node_id": "-10419553.096_5101337.459", "x": -10419553.096000001, "y": 5101337.459, "degree": 3 }, "geometry": { "type": "Point", "coordinates": [ -93.600437998316792, 41.600598002206908 ] } },
{ "type": "Feature", "properties": { "node_id": "-9759986.449_5136601.491", "x": -9759986.449, "y": 5136601.491, "degree": 3 }, "geometry": { "type": "Point", "coordinates": [ -87.675449999361135, 41.837049998438481 ] } },
{ "type": "Feature", "properties": { "node_id": "-10559051.112_4829493.138", "x": -10559051.112, "y": 4829493.138, "degree": 3 }, "geometry": { "type": "Point", "coordinates": [ -94.853569997088272, 39.748714998406676 ] } },
{ "type": "Feature", "properties": { "node_id": "-9761166.436_5141022.154", "x": -9761166.436000001, "y": 5141022.154, "degree": 3 }, "geometry": { "type": "Point", "coordinates": [ -87.686050002932774, 41.866630000625143 ] } },
{ "type": "Feature", "properties": { "node_id": "-9761353.452_5150195.050", "x": -9761353.452, "y": 5150195.05, "degree": 4 }, "geometry": { "type": "Point", "coordinates": [ -87.687729996244514, 41.927964996361659 ] } },
{ "type": "Feature", "properties": { "node_id": "-9952026.708_5323081.419", "x": -9952026.708000001, "y": 5323081.419, "degree": 3 }, "geometry": { "type": "Point", "coordinates": [ -89.40057699762086, 43.072945001518477 ] } },
{ "type": "Feature", "properties": { "node_id": "-10158090.218_5435889.955", "x": -10158090.218, "y": 5435889.955, "degree": 3 }, "geometry": { "type": "Point", "coordinates": [ -91.251677002944007, 43.808727997331289 ] } },
{ "type": "Feature", "properties": { "node_id": "-10380802.002_5616164.648", "x": -10380802.002, "y": 5616164.648, "degree": 3 }, "geometry": { "type": "Point", "coordinates": [ -93.252330998151265, 44.965963001151948 ] } },
{ "type": "Feature", "properties": { "node_id": "-10382729.388_5616148.757", "x": -10382729.388, "y": 5616148.757, "degree": 3 }, "geometry": { "type": "Point", "coordinates": [ -93.269645001173245, 44.965862000717046 ] } },
{ "type": "Feature", "properties": { "node_id": "-10017037.068_4179440.168", "x": -10017037.068, "y": 4179440.168, "degree": 3 }, "geometry": { "type": "Point", "coordinates": [ -89.984574997761968, 35.114411998445078 ] } },
{ "type": "Feature", "properties": { "node_id": "-10017026.159_4179659.678", "x": -10017026.159, "y": 4179659.678, "degree": 3 }, "geometry": { "type": "Point", "coordinates": [ -89.984477000547628, 35.116025000007902 ] } },
{ "type": "Feature", "properties": { "node_id": "-9660535.286_4322508.680", "x": -9660535.286, "y": 4322508.68, "degree": 4 }, "geometry": { "type": "Point", "coordinates": [ -86.782065001897521, 36.158906002026193 ] } },
{ "type": "Feature", "properties": { "node_id": "-9758906.093_5136781.386", "x": -9758906.093, "y": 5136781.386, "degree": 3 }, "geometry": { "type": "Point", "coordinates": [ -87.665744996290243, 41.838253997655102 ] } },
{ "type": "Feature", "properties": { "node_id": "-9755063.790_5132430.786", "x": -9755063.79, "y": 5132430.786, "degree": 3 }, "geometry": { "type": "Point", "coordinates": [ -87.631229001179051, 41.809130001405791 ] } },
{ "type": "Feature", "properties": { "node_id": "-9755015.811_5130253.540", "x": -9755015.811000001, "y": 5130253.54, "degree": 3 }, "geometry": { "type": "Point", "coordinates": [ -87.630797998488887, 41.794550002786657 ] } },
{ "type": "Feature", "properties": { "node_id": "-9738325.012_5107115.880", "x": -9738325.012, "y": 5107115.88, "degree": 3 }, "geometry": { "type": "Point", "coordinates": [ -87.480862000030214, 41.639402999224444 ] } },
{ "type": "Feature", "properties": { "node_id": "-9667806.786_4932420.405", "x": -9667806.786, "y": 4932420.405, "degree": 4 }, "geometry": { "type": "Point", "coordinates": [ -86.847385997782268, 40.455934997646736 ] } },
{ "type": "Feature", "properties": { "node_id": "-9628765.928_4876050.322", "x": -9628765.928, "y": 4876050.322, "degree": 3 }, "geometry": { "type": "Point", "coordinates": [ -86.496676003316864, 40.069523002813646 ] } },
{ "type": "Feature", "properties": { "node_id": "-9601521.818_4842946.157", "x": -9601521.818, "y": 4842946.157, "degree": 3 }, "geometry": { "type": "Point", "coordinates": [ -86.251937999164539, 39.841569000643105 ] } },
{ "type": "Feature", "properties": { "node_id": "-9591005.911_4834437.208", "x": -9591005.911, "y": 4834437.208, "degree": 4 }, "geometry": { "type": "Point", "coordinates": [ -86.157471999319739, 39.782854003030749 ] } },
{ "type": "Feature", "properties": { "node_id": "-9591074.261_4832147.271", "x": -9591074.261, "y": 4832147.271, "degree": 3 }, "geometry": { "type": "Point", "coordinates": [ -86.158085997816428, 39.767043999243512 ] } },
{ "type": "Feature", "properties": { "node_id": "-9591081.720_4831941.478", "x": -9591081.72, "y": 4831941.478, "degree": 3 }, "geometry": { "type": "Point", "coordinates": [ -86.158153003153487, 39.765623001481224 ] } },
{ "type": "Feature", "properties": { "node_id": "-9545125.583_4615166.189", "x": -9545125.583000001, "y": 4615166.189, "degree": 3 }, "geometry": { "type": "Point", "coordinates": [ -85.745322000491583, 38.252562996697407 ] } },
{ "type": "Feature", "properties": { "node_id": "-9536855.658_4609296.468", "x": -9536855.658, "y": 4609296.468, "degree": 3 }, "geometry": { "type": "Point", "coordinates": [ -85.671032000231349, 38.211143998913897 ] } },
{ "type": "Feature", "properties": { "node_id": "-9538817.664_4607985.205", "x": -9538817.664000001, "y": 4607985.205, "degree": 3 }, "geometry": { "type": "Point", "coordinates": [ -85.688657000004696, 38.201888002222667 ] } },
{ "type": "Feature", "properties": { "node_id": "-9639107.508_4131596.265", "x": -9639107.508, "y": 4131596.265, "degree": 3 }, "geometry": { "type": "Point", "coordinates": [ -86.589575997076324, 34.762084997867092 ] } },
{ "type": "Feature", "properties": { "node_id": "-9638780.897_4128481.616", "x": -9638780.897, "y": 4128481.616, "degree": 3 }, "geometry": { "type": "Point", "coordinates": [ -86.586642000543691, 34.739096000481055 ] } },
{ "type": "Feature", "properties": { "node_id": "-9639954.538_4127695.402", "x": -9639954.538000001, "y": 4127695.402, "degree": 3 }, "geometry": { "type": "Point", "coordinates": [ -86.597184997027398, 34.733292000790527 ] } },
{ "type": "Feature", "properties": { "node_id": "-9711560.912_5100537.644", "x": -9711560.912, "y": 5100537.644, "degree": 3 }, "geometry": { "type": "Point", "coordinates": [ -87.240435999073185, 41.595225003455745 ] } },
{ "type": "Feature", "properties": { "node_id": "-9477466.598_5023775.491", "x": -9477466.598, "y": 5023775.491, "degree": 3 }, "geometry": { "type": "Point", "coordinates": [ -85.137530997156432, 41.077472002598448 ] } },
{ "type": "Feature", "properties": { "node_id": "-9239648.425_4860848.908", "x": -9239648.425000001, "y": 4860848.908, "degree": 3 }, "geometry": { "type": "Point", "coordinates": [ -83.001174000683648, 39.964940997856615 ] } },
{ "type": "Feature", "properties": { "node_id": "-9239590.650_4860454.001", "x": -9239590.65, "y": 4860454.001, "degree": 3 }, "geometry": { "type": "Point", "coordinates": [ -83.000654999028242, 39.962221998722882 ] } },
{ "type": "Feature", "properties": { "node_id": "-9237587.456_4859851.431", "x": -9237587.456, "y": 4859851.431, "degree": 3 }, "geometry": { "type": "Point", "coordinates": [ -82.982660001155679, 39.95807299757935 ] } },
{ "type": "Feature", "properties": { "node_id": "-9232839.680_4859726.391", "x": -9232839.68, "y": 4859726.391, "degree": 3 }, "geometry": { "type": "Point", "coordinates": [ -82.94001000369191, 39.957212001996822 ] } },
{ "type": "Feature", "properties": { "node_id": "-8905373.360_4929662.329", "x": -8905373.36, "y": 4929662.329, "degree": 3 }, "geometry": { "type": "Point", "coordinates": [ -79.998330000788158, 40.437079999142625 ] } },
{ "type": "Feature", "properties": { "node_id": "-8905205.379_4930002.092", "x": -8905205.379000001, "y": 4930002.092, "degree": 3 }, "geometry": { "type": "Point", "coordinates": [ -79.996821001790764, 40.439403002108122 ] } },
{ "type": "Feature", "properties": { "node_id": "-8893389.372_4906192.562", "x": -8893389.372, "y": 4906192.562, "degree": 3 }, "geometry": { "type": "Point", "coordinates": [ -79.89067600493712, 40.276419998235674 ] } },
{ "type": "Feature", "properties": { "node_id": "-8895901.073_4815618.113", "x": -8895901.073000001, "y": 4815618.113, "degree": 3 }, "geometry": { "type": "Point", "coordinates": [ -79.91323899891151, 39.652816997703482 ] } },
{ "type": "Feature", "properties": { "node_id": "-8900554.116_4812224.128", "x": -8900554.116, "y": 4812224.128, "degree": 3 }, "geometry": { "type": "Point", "coordinates": [ -79.955037995357159, 39.629339001107851 ] } },
{ "type": "Feature", "properties": { "node_id": "-8865255.931_4815878.803", "x": -8865255.931, "y": 4815878.803, "degree": 3 }, "geometry": { "type": "Point", "coordinates": [ -79.637949004485378, 39.654619999247707 ] } },
{ "type": "Feature", "properties": { "node_id": "-8767529.106_4815107.453", "x": -8767529.106000001, "y": 4815107.453, "degree": 3 }, "geometry": { "type": "Point", "coordinates": [ -78.76005399882564, 39.649285000708453 ] } },
{ "type": "Feature", "properties": { "node_id": "-8579418.648_4708076.049", "x": -8579418.648, "y": 4708076.049, "degree": 3 }, "geometry": { "type": "Point", "coordinates": [ -77.070229003584402, 38.905023000267789 ] } },
{ "type": "Feature", "properties": { "node_id": "-8577253.595_4707718.860", "x": -8577253.595000001, "y": 4707718.86, "degree": 3 }, "geometry": { "type": "Point", "coordinates": [ -77.050780001576115, 38.902525997155962 ] } },
{ "type": "Feature", "properties": { "node_id": "-9084379.443_4632307.419", "x": -9084379.443, "y": 4632307.419, "degree": 3 }, "geometry": { "type": "Point", "coordinates": [ -81.606369003880843, 38.373382996599211 ] } },
{ "type": "Feature", "properties": { "node_id": "-9238438.159_4861842.854", "x": -9238438.159, "y": 4861842.854, "degree": 3 }, "geometry": { "type": "Point", "coordinates": [ -82.990301996227132, 39.97178399967256 ] } },
{ "type": "Feature", "properties": { "node_id": "-9322819.781_5203751.931", "x": -9322819.781, "y": 5203751.931, "degree": 3 }, "geometry": { "type": "Point", "coordinates": [ -83.748315003641082, 42.284899000341767 ] } },
{ "type": "Feature", "properties": { "node_id": "-9322839.595_5203229.662", "x": -9322839.595000001, "y": 5203229.662, "degree": 4 }, "geometry": { "type": "Point", "coordinates": [ -83.748492995831484, 42.281428002945361 ] } },
{ "type": "Feature", "properties": { "node_id": "-9248381.439_5212768.210", "x": -9248381.439, "y": 5212768.21, "degree": 3 }, "geometry": { "type": "Point", "coordinates": [ -83.079624000209932, 42.344791001556636 ] } },
{ "type": "Feature", "properties": { "node_id": "-9248030.783_5210743.572", "x": -9248030.783, "y": 5210743.572, "degree": 4 }, "geometry": { "type": "Point", "coordinates": [ -83.076474003767245, 42.331346998941775 ] } },
{ "type": "Feature", "properties": { "node_id": "-9301288.810_5109139.485", "x": -9301288.81, "y": 5109139.485, "degree": 3 }, "geometry": { "type": "Point", "coordinates": [ -83.55489900032876, 41.652987001632354 ] } },
{ "type": "Feature", "properties": { "node_id": "-9292604.220_5102782.892", "x": -9292604.22, "y": 5102782.892, "degree": 4 }, "geometry": { "type": "Point", "coordinates": [ -83.476884000995639, 41.610307000120528 ] } },
{ "type": "Feature", "properties": { "node_id": "-9238476.231_4861211.150", "x": -9238476.231000001, "y": 4861211.15, "degree": 4 }, "geometry": { "type": "Point", "coordinates": [ -82.990644002822108, 39.967434998050187 ] } },
{ "type": "Feature", "properties": { "node_id": "-8528309.977_4764557.323", "x": -8528309.977, "y": 4764557.323, "degree": 4 }, "geometry": { "type": "Point", "coordinates": [ -76.611112000481043, 39.298760996727729 ] } },
{ "type": "Feature", "properties": { "node_id": "-8527807.258_4764584.943", "x": -8527807.258, "y": 4764584.943, "degree": 3 }, "geometry": { "type": "Point", "coordinates": [ -76.606595998867874, 39.298953000979857 ] } },
{ "type": "Feature", "properties": { "node_id": "-8411200.537_4828318.126", "x": -8411200.537, "y": 4828318.126, "degree": 3 }, "geometry": { "type": "Point", "coordinates": [ -75.559100001814258, 39.740599003336378 ] } },
{ "type": "Feature", "properties": { "node_id": "-8367139.392_4859166.849", "x": -8367139.392, "y": 4859166.849, "degree": 3 }, "geometry": { "type": "Point", "coordinates": [ -75.163292001921192, 39.95335899660364 ] } },
{ "type": "Feature", "properties": { "node_id": "-8229973.853_4963620.017", "x": -8229973.853, "y": 4963620.017, "degree": 3 }, "geometry": { "type": "Point", "coordinates": [ -73.93111300053927, 40.668855998285167 ] } },
{ "type": "Feature", "properties": { "node_id": "-8219761.848_4977369.804", "x": -8219761.848, "y": 4977369.804, "degree": 4 }, "geometry": { "type": "Point", "coordinates": [ -73.839376998809229, 40.762475998951679 ] } },
{ "type": "Feature", "properties": { "node_id": "-8152536.342_5036737.621", "x": -8152536.342, "y": 5036737.621, "degree": 3 }, "geometry": { "type": "Point", "coordinates": [ -73.235480003584541, 41.1651889984755 ] } },
{ "type": "Feature", "properties": { "node_id": "-8139505.282_5041740.945", "x": -8139505.282, "y": 5041740.945, "degree": 3 }, "geometry": { "type": "Point", "coordinates": [ -73.118419999921755, 41.199016001112525 ] } },
{ "type": "Feature", "properties": { "node_id": "-8118205.856_5058095.102", "x": -8118205.856, "y": 5058095.102, "degree": 3 }, "geometry": { "type": "Point", "coordinates": [ -72.927084000734027, 41.309462998526882 ] } },
{ "type": "Feature", "properties": { "node_id": "-8115534.967_5068428.381", "x": -8115534.967, "y": 5068428.381, "degree": 3 }, "geometry": { "type": "Point", "coordinates": [ -72.903090996625153, 41.379152002022771 ] } },
{ "type": "Feature", "properties": { "node_id": "-8089936.383_5126517.685", "x": -8089936.383, "y": 5126517.685, "degree": 3 }, "geometry": { "type": "Point", "coordinates": [ -72.673135004034989, 41.769524998854941 ] } },
{ "type": "Feature", "properties": { "node_id": "-8080356.004_5176110.279", "x": -8080356.004, "y": 5176110.279, "degree": 3 }, "geometry": { "type": "Point", "coordinates": [ -72.587072995201396, 42.100929998655978 ] } },
{ "type": "Feature", "properties": { "node_id": "-8023842.995_5178074.569", "x": -8023842.995, "y": 5178074.569, "degree": 3 }, "geometry": { "type": "Point", "coordinates": [ -72.079407997838572, 42.114021002515415 ] } },
{ "type": "Feature", "properties": { "node_id": "-7993048.239_5197743.133", "x": -7993048.239, "y": 5197743.133, "degree": 3 }, "geometry": { "type": "Point", "coordinates": [ -71.802773997983252, 42.244953000763957 ] } },
{ "type": "Feature", "properties": { "node_id": "-7992316.759_5200277.898", "x": -7992316.759, "y": 5200277.898, "degree": 3 }, "geometry": { "type": "Point", "coordinates": [ -71.796203001342974, 42.261806998456208 ] } },
{ "type": "Feature", "properties": { "node_id": "-7992098.795_5200284.968", "x": -7992098.795, "y": 5200284.968, "degree": 3 }, "geometry": { "type": "Point", "coordinates": [ -71.794244997417096, 42.261854001550425 ] } },
{ "type": "Feature", "properties": { "node_id": "-7913135.984_5212459.155", "x": -7913135.984, "y": 5212459.155, "degree": 3 }, "geometry": { "type": "Point", "coordinates": [ -71.084909997433698, 42.342739000223112 ] } },
{ "type": "Feature", "properties": { "node_id": "-7910910.040_5213717.125", "x": -7910910.04, "y": 5213717.125, "degree": 3 }, "geometry": { "type": "Point", "coordinates": [ -71.064914002265752, 42.351090998329354 ] } },
{ "type": "Feature", "properties": { "node_id": "-7909566.859_5213768.339", "x": -7909566.859, "y": 5213768.339, "degree": 3 }, "geometry": { "type": "Point", "coordinates": [ -71.052848002049359, 42.351430998217765 ] } },
{ "type": "Feature", "properties": { "node_id": "-7907636.579_5211766.981", "x": -7907636.579, "y": 5211766.981, "degree": 3 }, "geometry": { "type": "Point", "coordinates": [ -71.035508001783057, 42.33814299931089 ] } },
{ "type": "Feature", "properties": { "node_id": "-13703394.474_6322735.800", "x": -13703394.474, "y": 6322735.8, "degree": 3 }, "geometry": { "type": "Point", "coordinates": [ -123.099687003131891, 49.281347997056479 ] } },
{ "type": "Feature", "properties": { "node_id": "-12639201.181_6627948.487", "x": -12639201.181, "y": 6627948.487, "degree": 3 }, "geometry": { "type": "Point", "coordinates": [ -113.539875999538054, 51.037606002864727 ] } },
{ "type": "Feature", "properties": { "node_id": "-12323429.196_6451299.126", "x": -12323429.196, "y": 6451299.126, "degree": 3 }, "geometry": { "type": "Point", "coordinates": [ -110.703247995315451, 50.028997000883273 ] } },
{ "type": "Feature", "properties": { "node_id": "-10813797.641_6427952.011", "x": -10813797.641000001, "y": 6427952.011, "degree": 3 }, "geometry": { "type": "Point", "coordinates": [ -97.14199700285927, 49.894076999784289 ] } },
{ "type": "Feature", "properties": { "node_id": "-8837295.369_5414548.535", "x": -8837295.369000001, "y": 5414548.535, "degree": 3 }, "geometry": { "type": "Point", "coordinates": [ -79.386775002513659, 43.670217002443877 ] } },
{ "type": "Feature", "properties": { "node_id": "-8836073.303_5410538.632", "x": -8836073.303, "y": 5410538.632, "degree": 3 }, "geometry": { "type": "Point", "coordinates": [ -79.375796996853623, 43.644156001363108 ] } },
{ "type": "Feature", "properties": { "node_id": "-8425656.263_5686313.361", "x": -8425656.263, "y": 5686313.361, "degree": 3 }, "geometry": { "type": "Point", "coordinates": [ -75.688957997902705, 45.410083001294055 ] } },
{ "type": "Feature", "properties": { "node_id": "-8190162.775_5701372.587", "x": -8190162.775, "y": 5701372.587, "degree": 3 }, "geometry": { "type": "Point", "coordinates": [ -73.573484002092528, 45.50497300113426 ] } },
{ "type": "Feature", "properties": { "node_id": "-8074078.142_5838719.535", "x": -8074078.142, "y": 5838719.535, "degree": 3 }, "geometry": { "type": "Point", "coordinates": [ -72.530678001339467, 46.363045002254701 ] } },
{ "type": "Feature", "properties": { "node_id": "-13619228.701_6044488.765", "x": -13619228.701, "y": 6044488.765, "degree": 3 }, "geometry": { "type": "Point", "coordinates": [ -122.343613000275553, 47.623761000034484 ] } },
{ "type": "Feature", "properties": { "node_id": "-12561977.069_6394881.797", "x": -12561977.069, "y": 6394881.797, "degree": 3 }, "geometry": { "type": "Point", "coordinates": [ -112.846159998416482, 49.702321002600073 ] } },
{ "type": "Feature", "properties": { "node_id": "-12392298.892_6025360.251", "x": -12392298.892000001, "y": 6025360.251, "degree": 3 }, "geometry": { "type": "Point", "coordinates": [ -111.321915000610105, 47.507816998772405 ] } },
{ "type": "Feature", "properties": { "node_id": "-12361609.556_5729108.903", "x": -12361609.556, "y": 5729108.903, "degree": 3 }, "geometry": { "type": "Point", "coordinates": [ -111.046228004727311, 45.679324999208681 ] } },
{ "type": "Feature", "properties": { "node_id": "-11667864.374_5031999.810", "x": -11667864.374, "y": 5031999.81, "degree": 3 }, "geometry": { "type": "Point", "coordinates": [ -104.814209001978512, 41.133140999238698 ] } },
{ "type": "Feature", "properties": { "node_id": "-11688267.567_4968770.618", "x": -11688267.567, "y": 4968770.618, "degree": 3 }, "geometry": { "type": "Point", "coordinates": [ -104.997494003145917, 40.703941000074252 ] } },
{ "type": "Feature", "properties": { "node_id": "-10384728.575_5617584.560", "x": -10384728.575, "y": 5617584.56, "degree": 3 }, "geometry": { "type": "Point", "coordinates": [ -93.28760400355236, 44.974986997265752 ] } },
{ "type": "Feature", "properties": { "node_id": "-9246920.593_5211967.730", "x": -9246920.593, "y": 5211967.73, "degree": 3 }, "geometry": { "type": "Point", "coordinates": [ -83.066500997314478, 42.339475997266973 ] } },
{ "type": "Feature", "properties": { "node_id": "-8838390.196_5409563.538", "x": -8838390.196, "y": 5409563.538, "degree": 3 }, "geometry": { "type": "Point", "coordinates": [ -79.396610000789323, 43.637816999827379 ] } },
{ "type": "Feature", "properties": { "node_id": "-8878969.601_5349871.826", "x": -8878969.601, "y": 5349871.826, "degree": 3 }, "geometry": { "type": "Point", "coordinates": [ -79.761140998109084, 43.248492998608313 ] } },
{ "type": "Feature", "properties": { "node_id": "-8782862.141_5296528.413", "x": -8782862.141000001, "y": 5296528.413, "degree": 3 }, "geometry": { "type": "Point", "coordinates": [ -78.897792995750038, 42.898455003013204 ] } },
{ "type": "Feature", "properties": { "node_id": "-8780766.775_5294300.802", "x": -8780766.775, "y": 5294300.802, "degree": 3 }, "geometry": { "type": "Point", "coordinates": [ -78.878970002713785, 42.883793999144487 ] } },
{ "type": "Feature", "properties": { "node_id": "-8780607.588_5294673.173", "x": -8780607.588, "y": 5294673.173, "degree": 3 }, "geometry": { "type": "Point", "coordinates": [ -78.877540001562451, 42.886244998473259 ] } },
{ "type": "Feature", "properties": { "node_id": "-8779986.091_5294619.238", "x": -8779986.091, "y": 5294619.238, "degree": 3 }, "geometry": { "type": "Point", "coordinates": [ -78.871956999021108, 42.885889996598628 ] } },
{ "type": "Feature", "properties": { "node_id": "-8640622.994_5335439.687", "x": -8640622.994000001, "y": 5335439.687, "degree": 3 }, "geometry": { "type": "Point", "coordinates": [ -77.620036998247812, 43.153987001756462 ] } },
{ "type": "Feature", "properties": { "node_id": "-8639728.987_5335514.153", "x": -8639728.987, "y": 5335514.153, "degree": 3 }, "geometry": { "type": "Point", "coordinates": [ -77.612005996725699, 43.154475003276417 ] } },
{ "type": "Feature", "properties": { "node_id": "-8639285.157_5335553.675", "x": -8639285.157, "y": 5335553.675, "degree": 3 }, "geometry": { "type": "Point", "coordinates": [ -77.608019004000184, 43.154734003064164 ] } },
{ "type": "Feature", "properties": { "node_id": "-8625640.504_5323975.846", "x": -8625640.504000001, "y": 5323975.846, "degree": 3 }, "geometry": { "type": "Point", "coordinates": [ -77.485447000636128, 43.078814001364378 ] } },
{ "type": "Feature", "properties": { "node_id": "-8476687.010_5319712.047", "x": -8476687.01, "y": 5319712.047, "degree": 3 }, "geometry": { "type": "Point", "coordinates": [ -76.147374997804064, 43.050831002381415 ] } },
{ "type": "Feature", "properties": { "node_id": "-8476678.995_5319748.303", "x": -8476678.995, "y": 5319748.303, "degree": 3 }, "geometry": { "type": "Point", "coordinates": [ -76.147302997834032, 43.051069001685789 ] } },
{ "type": "Feature", "properties": { "node_id": "-8476316.316_5319700.012", "x": -8476316.316, "y": 5319700.012, "degree": 3 }, "geometry": { "type": "Point", "coordinates": [ -76.144044996944743, 43.050751999484497 ] } },
{ "type": "Feature", "properties": { "node_id": "-8226172.738_4997633.344", "x": -8226172.738, "y": 4997633.344, "degree": 3 }, "geometry": { "type": "Point", "coordinates": [ -73.896967003527308, 40.900207003659162 ] } },
{ "type": "Feature", "properties": { "node_id": "-8229792.291_4989602.840", "x": -8229792.291, "y": 4989602.84, "degree": 3 }, "geometry": { "type": "Point", "coordinates": [ -73.929482001343118, 40.845658002990618 ] } },
{ "type": "Feature", "properties": { "node_id": "-8230497.277_4983429.110", "x": -8230497.277, "y": 4983429.11, "degree": 4 }, "geometry": { "type": "Point", "coordinates": [ -73.93581499833202, 40.803691002491988 ] } },
{ "type": "Feature", "properties": { "node_id": "-8236813.211_4971721.563", "x": -8236813.211, "y": 4971721.563, "degree": 3 }, "geometry": { "type": "Point", "coordinates": [ -73.992551998788926, 40.724034003021643 ] } },
{ "type": "Feature", "properties": { "node_id": "-8237208.395_4970583.846", "x": -8237208.395, "y": 4970583.846, "degree": 3 }, "geometry": { "type": "Point", "coordinates": [ -73.996101997061317, 40.716287999123267 ] } },
{ "type": "Feature", "properties": { "node_id": "-8080124.794_5505769.914", "x": -8080124.794, "y": 5505769.914, "degree": 3 }, "geometry": { "type": "Point", "coordinates": [ -72.58499600043298, 44.26002300174784 ] } },
{ "type": "Feature", "properties": { "node_id": "-7949955.351_5310367.385", "x": -7949955.351, "y": 5310367.385, "degree": 3 }, "geometry": { "type": "Point", "coordinates": [ -71.415663998710741, 42.989458002088213 ] } },
{ "type": "Feature", "properties": { "node_id": "-7910009.576_5214889.694", "x": -7910009.576, "y": 5214889.694, "degree": 3 }, "geometry": { "type": "Point", "coordinates": [ -71.056824996525748, 42.358874997226003 ] } },
{ "type": "Feature", "properties": { "node_id": "-10835188.237_3863326.991", "x": -10835188.237, "y": 3863326.991, "degree": 3 }, "geometry": { "type": "Point", "coordinates": [ -97.334151996091506, 32.758759999820548 ] } },
{ "type": "Feature", "properties": { "node_id": "-10881721.677_3540068.176", "x": -10881721.677, "y": 3540068.176, "degree": 3 }, "geometry": { "type": "Point", "coordinates": [ -97.752168999838091, 30.283691999385407 ] } },
{ "type": "Feature", "properties": { "node_id": "-13334354.666_4408460.949", "x": -13334354.666, "y": 4408460.949, "degree": 3 }, "geometry": { "type": "Point", "coordinates": [ -119.784546003382545, 36.779820997352388 ] } },
{ "type": "Feature", "properties": { "node_id": "-12455691.223_3949514.661", "x": -12455691.223, "y": 3949514.661, "degree": 3 }, "geometry": { "type": "Point", "coordinates": [ -111.89137799894273, 33.40747100063097 ] } },
{ "type": "Feature", "properties": { "node_id": "-9636331.646_4131093.560", "x": -9636331.646, "y": 4131093.56, "degree": 3 }, "geometry": { "type": "Point", "coordinates": [ -86.564640004464252, 34.758375001950647 ] } },
{ "type": "Feature", "properties": { "node_id": "-10279493.028_4125576.258", "x": -10279493.028000001, "y": 4125576.258, "degree": 3 }, "geometry": { "type": "Point", "coordinates": [ -92.342257000524597, 34.717645997052003 ] } },
{ "type": "Feature", "properties": { "node_id": "-10419154.572_5098809.181", "x": -10419154.572000001, "y": 5098809.181, "degree": 3 }, "geometry": { "type": "Point", "coordinates": [ -93.596857996313915, 41.583612003524081 ] } },
{ "type": "Feature", "properties": { "node_id": "-10841852.713_4283855.700", "x": -10841852.713, "y": 4283855.7, "degree": 3 }, "geometry": { "type": "Point", "coordinates": [ -97.394020002605984, 35.878061002153082 ] } },
{ "type": "Feature", "properties": { "node_id": "-8256173.674_4973224.914", "x": -8256173.674, "y": 4973224.914, "degree": 3 }, "geometry": { "type": "Point", "coordinates": [ -74.166469996994223, 40.734267997791562 ] } },
{ "type": "Feature", "properties": { "node_id": "-8148271.247_5040693.238", "x": -8148271.247, "y": 5040693.238, "degree": 3 }, "geometry": { "type": "Point", "coordinates": [ -73.197166003317321, 41.19193399902899 ] } },
{ "type": "Feature", "properties": { "node_id": "-7949183.462_5135090.297", "x": -7949183.462, "y": 5135090.297, "degree": 3 }, "geometry": { "type": "Point", "coordinates": [ -71.408730001847303, 41.826935002023625 ] } },
{ "type": "Feature", "properties": { "node_id": "-7909352.569_5209264.975", "x": -7909352.569, "y": 5209264.975, "degree": 3 }, "geometry": { "type": "Point", "coordinates": [ -71.050923002227023, 42.321527002173724 ] } },
{ "type": "Feature", "properties": { "node_id": "-8232768.974_4984860.869", "x": -8232768.974, "y": 4984860.869, "degree": 3 }, "geometry": { "type": "Point", "coordinates": [ -73.956221999691905, 40.81342599782247 ] } },
{ "type": "Feature", "properties": { "node_id": "-13152360.879_4033494.446", "x": -13152360.879000001, "y": 4033494.446, "degree": 3 }, "geometry": { "type": "Point", "coordinates": [ -118.149667998613651, 34.03493900306615 ] } },
{ "type": "Feature", "properties": { "node_id": "-13122792.196_3996624.717", "x": -13122792.196, "y": 3996624.717, "degree": 3 }, "geometry": { "type": "Point", "coordinates": [ -117.884047999911786, 33.760025998540428 ] } },
{ "type": "Feature", "properties": { "node_id": "-13327141.274_4086023.435", "x": -13327141.274, "y": 4086023.435, "degree": 3 }, "geometry": { "type": "Point", "coordinates": [ -119.719747000543109, 34.425078003468933 ] } },
{ "type": "Feature", "properties": { "node_id": "-13192038.263_4078050.568", "x": -13192038.263, "y": 4078050.568, "degree": 3 }, "geometry": { "type": "Point", "coordinates": [ -118.506096003424432, 34.365978998574413 ] } },
{ "type": "Feature", "properties": { "node_id": "-9756210.492_5138107.694", "x": -9756210.492000001, "y": 5138107.694, "degree": 3 }, "geometry": { "type": "Point", "coordinates": [ -87.641530000508368, 41.847129997673711 ] } },
{ "type": "Feature", "properties": { "node_id": "-9764020.667_5160585.491", "x": -9764020.667, "y": 5160585.491, "degree": 3 }, "geometry": { "type": "Point", "coordinates": [ -87.711689996249845, 41.997370000363482 ] } },
{ "type": "Feature", "properties": { "node_id": "-10616445.215_3473227.602", "x": -10616445.215, "y": 3473227.602, "degree": 3 }, "geometry": { "type": "Point", "coordinates": [ -95.369149996520576, 29.76382399887828 ] } },
{ "type": "Feature", "properties": { "node_id": "-10758528.070_3916314.727", "x": -10758528.07, "y": 3916314.727, "degree": 3 }, "geometry": { "type": "Point", "coordinates": [ -96.645501999098968, 33.158150999619025 ] } },
{ "type": "Feature", "properties": { "node_id": "-10772441.782_3902782.288", "x": -10772441.782, "y": 3902782.288, "degree": 3 }, "geometry": { "type": "Point", "coordinates": [ -96.770491000583334, 33.056322999314375 ] } },
{ "type": "Feature", "properties": { "node_id": "-9165970.395_3458903.860", "x": -9165970.395, "y": 3458903.86, "degree": 3 }, "geometry": { "type": "Point", "coordinates": [ -82.339312996155456, 29.652063998231956 ] } },
{ "type": "Feature", "properties": { "node_id": "-8934043.695_2972591.153", "x": -8934043.695, "y": 2972591.153, "degree": 3 }, "geometry": { "type": "Point", "coordinates": [ -80.255880002101449, 25.785926998521582 ] } },
{ "type": "Feature", "properties": { "node_id": "-8937927.854_2982574.698", "x": -8937927.854, "y": 2982574.698, "degree": 3 }, "geometry": { "type": "Point", "coordinates": [ -80.290771996057956, 25.8666529981477 ] } },
{ "type": "Feature", "properties": { "node_id": "-9051449.245_3317152.085", "x": -9051449.245, "y": 3317152.085, "degree": 3 }, "geometry": { "type": "Point", "coordinates": [ -81.310552002156015, 28.539404001733264 ] } },
{ "type": "Feature", "properties": { "node_id": "-9061091.516_3316606.706", "x": -9061091.516000001, "y": 3316606.706, "degree": 3 }, "geometry": { "type": "Point", "coordinates": [ -81.397169996285257, 28.535100001616996 ] } },
{ "type": "Feature", "properties": { "node_id": "-8920841.648_3014254.326", "x": -8920841.648, "y": 3014254.326, "degree": 3 }, "geometry": { "type": "Point", "coordinates": [ -80.137283996083795, 26.122446003587388 ] } },
{ "type": "Feature", "properties": { "node_id": "-8922842.394_3022441.059", "x": -8922842.394, "y": 3022441.059, "degree": 3 }, "geometry": { "type": "Point", "coordinates": [ -80.155257003198201, 26.18845800318276 ] } },
{ "type": "Feature", "properties": { "node_id": "-9178420.256_3246638.033", "x": -9178420.256, "y": 3246638.033, "degree": 3 }, "geometry": { "type": "Point", "coordinates": [ -82.451152000370101, 27.981471995977888 ] } },
{ "type": "Feature", "properties": { "node_id": "-9201433.223_3219624.547", "x": -9201433.223, "y": 3219624.547, "degree": 3 }, "geometry": { "type": "Point", "coordinates": [ -82.657881000260474, 27.766961002311998 ] } },
{ "type": "Feature", "properties": { "node_id": "-8913960.545_3086793.715", "x": -8913960.545, "y": 3086793.715, "degree": 3 }, "geometry": { "type": "Point", "coordinates": [ -80.075469996118784, 26.706045000302776 ] } },
{ "type": "Feature", "properties": { "node_id": "-8945431.679_3157635.368", "x": -8945431.679, "y": 3157635.368, "degree": 3 }, "geometry": { "type": "Point", "coordinates": [ -80.358180002926517, 27.273113996693478 ] } },
{ "type": "Feature", "properties": { "node_id": "-10880582.767_3539817.963", "x": -10880582.767000001, "y": 3539817.963, "degree": 3 }, "geometry": { "type": "Point", "coordinates": [ -97.741937997235752, 30.281751001909459 ] } },
{ "type": "Feature", "properties": { "node_id": "-10880423.024_3539765.110", "x": -10880423.024, "y": 3539765.11, "degree": 3 }, "geometry": { "type": "Point", "coordinates": [ -97.740503001451415, 30.281340996159827 ] } },
{ "type": "Feature", "properties": { "node_id": "-13567193.964_4481139.608", "x": -13567193.964, "y": 4481139.608, "degree": 3 }, "geometry": { "type": "Point", "coordinates": [ -121.876177004753146, 37.300956003315179 ] } },
{ "type": "Feature", "properties": { "node_id": "-13611021.004_4551870.274", "x": -13611021.004000001, "y": 4551870.274, "degree": 3 }, "geometry": { "type": "Point", "coordinates": [ -122.269882003650324, 37.804680003495719 ] } },
{ "type": "Feature", "properties": { "node_id": "-13573715.727_4506338.671", "x": -13573715.727, "y": 4506338.671, "degree": 3 }, "geometry": { "type": "Point", "coordinates": [ -121.934762998576204, 37.480807003861543 ] } },
{ "type": "Feature", "properties": { "node_id": "-13605965.986_4548087.869", "x": -13605965.986, "y": 4548087.869, "degree": 3 }, "geometry": { "type": "Point", "coordinates": [ -122.224472004341337, 37.777829000067669 ] } },
{ "type": "Feature", "properties": { "node_id": "-13609723.798_4559164.557", "x": -13609723.798, "y": 4559164.557, "degree": 3 }, "geometry": { "type": "Point", "coordinates": [ -122.258229003885816, 37.85643400144378 ] } },
{ "type": "Feature", "properties": { "node_id": "-13604962.663_4547476.074", "x": -13604962.663000001, "y": 4547476.074, "degree": 3 }, "geometry": { "type": "Point", "coordinates": [ -122.21545900048325, 37.773484997487721 ] } },
{ "type": "Feature", "properties": { "node_id": "-13552057.296_4537517.636", "x": -13552057.296, "y": 4537517.636, "degree": 3 }, "geometry": { "type": "Point", "coordinates": [ -121.740202002602729, 37.702740003085154 ] } },
{ "type": "Feature", "properties": { "node_id": "-13532159.493_4543144.965", "x": -13532159.493000001, "y": 4543144.965, "degree": 3 }, "geometry": { "type": "Point", "coordinates": [ -121.561456997049746, 37.742724997685471 ] } },
{ "type": "Feature", "properties": { "node_id": "-13470409.904_4528593.740", "x": -13470409.904, "y": 4528593.74, "degree": 3 }, "geometry": { "type": "Point", "coordinates": [ -121.006751001181755, 37.639287002819948 ] } },
{ "type": "Feature", "properties": { "node_id": "-9373365.954_4830805.129", "x": -9373365.954, "y": 4830805.129, "degree": 3 }, "geometry": { "type": "Point", "coordinates": [ -84.202379001237588, 39.757775999597357 ] } },
{ "type": "Feature", "properties": { "node_id": "-9632878.626_4745276.610", "x": -9632878.626, "y": 4745276.61, "degree": 3 }, "geometry": { "type": "Point", "coordinates": [ -86.533620998040547, 39.164599998080909 ] } },
{ "type": "Feature", "properties": { "node_id": "-10035293.687_4669145.852", "x": -10035293.687000001, "y": 4669145.852, "degree": 3 }, "geometry": { "type": "Point", "coordinates": [ -90.148576996602458, 38.632356996577371 ] } },
{ "type": "Feature", "properties": { "node_id": "-9674781.843_4928279.560", "x": -9674781.843, "y": 4928279.56, "degree": 3 }, "geometry": { "type": "Point", "coordinates": [ -86.910044000889314, 40.427625003081836 ] } },
{ "type": "Feature", "properties": { "node_id": "-13619820.253_6043631.114", "x": -13619820.253, "y": 6043631.114, "degree": 3 }, "geometry": { "type": "Point", "coordinates": [ -122.348927002305061, 47.618567999920145 ] } },
{ "type": "Feature", "properties": { "node_id": "-13618034.132_6041571.151", "x": -13618034.132, "y": 6041571.151, "degree": 3 }, "geometry": { "type": "Point", "coordinates": [ -122.332882004369182, 47.606093000747023 ] } },
{ "type": "Feature", "properties": { "node_id": "-11684069.931_4828233.147", "x": -11684069.931, "y": 4828233.147, "degree": 3 }, "geometry": { "type": "Point", "coordinates": [ -104.959785997386206, 39.740012002777583 ] } },
{ "type": "Feature", "properties": { "node_id": "-8607660.959_4700588.160", "x": -8607660.959000001, "y": 4700588.16, "degree": 3 }, "geometry": { "type": "Point", "coordinates": [ -77.32393399988598, 38.852658999404454 ] } },
{ "type": "Feature", "properties": { "node_id": "-8724026.228_4612422.300", "x": -8724026.228, "y": 4612422.3, "degree": 3 }, "geometry": { "type": "Point", "coordinates": [ -78.369260996719774, 38.233204001918814 ] } },
{ "type": "Feature", "properties": { "node_id": "-9246407.410_5210773.990", "x": -9246407.41, "y": 5210773.99, "degree": 3 }, "geometry": { "type": "Point", "coordinates": [ -83.061890995989984, 42.331549001832521 ] } },
{ "type": "Feature", "properties": { "node_id": "-9245715.560_5210110.246", "x": -9245715.56, "y": 5210110.246, "degree": 3 }, "geometry": { "type": "Point", "coordinates": [ -83.055676001696796, 42.327140997050378 ] } },
{ "type": "Feature", "properties": { "node_id": "-9092545.172_5082888.838", "x": -9092545.172, "y": 5082888.838, "degree": 3 }, "geometry": { "type": "Point", "coordinates": [ -81.679722995547621, 41.476550002478497 ] } },
{ "type": "Feature", "properties": { "node_id": "-9321965.849_5201657.460", "x": -9321965.849, "y": 5201657.46, "degree": 3 }, "geometry": { "type": "Point", "coordinates": [ -83.740644001969102, 42.270978001371347 ] } },
{ "type": "Feature", "properties": { "node_id": "-9407134.944_4587072.281", "x": -9407134.944, "y": 4587072.281, "degree": 3 }, "geometry": { "type": "Point", "coordinates": [ -84.505730999700376, 38.05410800070436 ] } },
{ "type": "Feature", "properties": { "node_id": "-9406271.995_4585886.530", "x": -9406271.995, "y": 4585886.53, "degree": 3 }, "geometry": { "type": "Point", "coordinates": [ -84.497978996939224, 38.045719997775315 ] } },
{ "type": "Feature", "properties": { "node_id": "-9739716.506_4678064.648", "x": -9739716.506, "y": 4678064.648, "degree": 3 }, "geometry": { "type": "Point", "coordinates": [ -87.493362003309812, 38.694916001257496 ] } },
{ "type": "Feature", "properties": { "node_id": "-8667917.309_4981666.870", "x": -8667917.309, "y": 4981666.87, "degree": 4 }, "geometry": { "type": "Point", "coordinates": [ -77.865226001588525, 40.791706998667969 ] } },
{ "type": "Feature", "properties": { "node_id": "-13521756.242_4659741.503", "x": -13521756.242000001, "y": 4659741.503, "degree": 3 }, "geometry": { "type": "Point", "coordinates": [ -121.468003003271434, 38.566333002318764 ] } },
{ "type": "Feature", "properties": { "node_id": "-13551485.447_4656043.181", "x": -13551485.447000001, "y": 4656043.181, "degree": 3 }, "geometry": { "type": "Point", "coordinates": [ -121.73506499563365, 38.540351997338391 ] } },
{ "type": "Feature", "properties": { "node_id": "-9232715.002_4123168.566", "x": -9232715.002, "y": 4123168.566, "degree": 3 }, "geometry": { "type": "Point", "coordinates": [ -82.938890002161983, 34.699866000812555 ] } },
{ "type": "Feature", "properties": { "node_id": "-9341837.380_4294850.513", "x": -9341837.38, "y": 4294850.513, "degree": 3 }, "geometry": { "type": "Point", "coordinates": [ -83.919153002130656, 35.958048996895627 ] } },
{ "type": "Feature", "properties": { "node_id": "-8754358.229_4270348.423", "x": -8754358.229, "y": 4270348.423, "degree": 3 }, "geometry": { "type": "Point", "coordinates": [ -78.641737997682057, 35.779683998410015 ] } },
{ "type": "Feature", "properties": { "node_id": "-8754681.501_4268923.390", "x": -8754681.501, "y": 4268923.39, "degree": 3 }, "geometry": { "type": "Point", "coordinates": [ -78.644641999467339, 35.769298003054743 ] } },
{ "type": "Feature", "properties": { "node_id": "-8789760.388_4174351.698", "x": -8789760.388, "y": 4174351.698, "degree": 3 }, "geometry": { "type": "Point", "coordinates": [ -78.959761002887348, 35.077011997081378 ] } },
{ "type": "Feature", "properties": { "node_id": "-10484124.635_4308430.556", "x": -10484124.635, "y": 4308430.556, "degree": 3 }, "geometry": { "type": "Point", "coordinates": [ -94.180494002344986, 36.056733000335868 ] } },
{ "type": "Feature", "properties": { "node_id": "-10482349.979_4308400.125", "x": -10482349.979, "y": 4308400.125, "degree": 3 }, "geometry": { "type": "Point", "coordinates": [ -94.164551996256435, 36.056512001234481 ] } },
{ "type": "Feature", "properties": { "node_id": "-10419567.011_5116572.714", "x": -10419567.011, "y": 5116572.714, "degree": 3 }, "geometry": { "type": "Point", "coordinates": [ -93.600562998888577, 41.702860001921771 ] } },
{ "type": "Feature", "properties": { "node_id": "-12939007.502_5406538.003", "x": -12939007.502, "y": 5406538.003, "degree": 3 }, "geometry": { "type": "Point", "coordinates": [ -116.233082003837495, 43.618144002088357 ] } },
{ "type": "Feature", "properties": { "node_id": "-10145409.147_3558421.511", "x": -10145409.147, "y": 3558421.511, "degree": 3 }, "geometry": { "type": "Point", "coordinates": [ -91.137761003960961, 30.425961002377889 ] } },
{ "type": "Feature", "properties": { "node_id": "-8257363.791_4973612.027", "x": -8257363.791, "y": 4973612.027, "degree": 3 }, "geometry": { "type": "Point", "coordinates": [ -74.177160999904132, 40.736902997419179 ] } },
{ "type": "Feature", "properties": { "node_id": "-8258089.372_4970633.635", "x": -8258089.372, "y": 4970633.635, "degree": 3 }, "geometry": { "type": "Point", "coordinates": [ -74.183679004925807, 40.716627000162561 ] } },
{ "type": "Feature", "properties": { "node_id": "-8514392.703_5226709.814", "x": -8514392.703, "y": 5226709.814, "degree": 3 }, "geometry": { "type": "Point", "coordinates": [ -76.486091001006244, 42.437288002321274 ] } },
{ "type": "Feature", "properties": { "node_id": "-8482077.657_4412308.072", "x": -8482077.657, "y": 4412308.072, "degree": 3 }, "geometry": { "type": "Point", "coordinates": [ -76.195800003717991, 36.807495998683414 ] } },
{ "type": "Feature", "properties": { "node_id": "-8484080.294_4422605.741", "x": -8484080.294, "y": 4422605.741, "degree": 3 }, "geometry": { "type": "Point", "coordinates": [ -76.213789997974416, 36.881525001041155 ] } },
{ "type": "Feature", "properties": { "node_id": "-8148074.768_5041029.936", "x": -8148074.768, "y": 5041029.936, "degree": 3 }, "geometry": { "type": "Point", "coordinates": [ -73.195401002430231, 41.194210001264238 ] } },
{ "type": "Feature", "properties": { "node_id": "-10038291.744_3806919.530", "x": -10038291.744000001, "y": 3806919.53, "degree": 3 }, "geometry": { "type": "Point", "coordinates": [ -90.17550900086006, 32.331616001178539 ] } },
{ "type": "Feature", "properties": { "node_id": "-7911898.112_5315975.680", "x": -7911898.112, "y": 5315975.68, "degree": 3 }, "geometry": { "type": "Point", "coordinates": [ -71.073790004059845, 43.026299000081565 ] } },
{ "type": "Feature", "properties": { "node_id": "-7992419.841_5199088.336", "x": -7992419.841, "y": 5199088.336, "degree": 3 }, "geometry": { "type": "Point", "coordinates": [ -71.797129002704153, 42.25389799956843 ] } },
{ "type": "Feature", "properties": { "node_id": "-8900931.601_4812263.297", "x": -8900931.601, "y": 4812263.297, "degree": 3 }, "geometry": { "type": "Point", "coordinates": [ -79.958429000807413, 39.62960999934154 ] } },
{ "type": "Feature", "properties": { "node_id": "-8989294.452_4667151.278", "x": -8989294.452, "y": 4667151.278, "degree": 3 }, "geometry": { "type": "Point", "coordinates": [ -80.752205996824173, 38.618359002996996 ] } },
{ "type": "Feature", "properties": { "node_id": "-8640143.652_5336152.629", "x": -8640143.652000001, "y": 5336152.629, "degree": 3 }, "geometry": { "type": "Point", "coordinates": [ -77.6157309957986, 43.158658997957446 ] } },
{ "type": "Feature", "properties": { "node_id": "-8569541.046_5305089.608", "x": -8569541.046, "y": 5305089.608, "degree": 3 }, "geometry": { "type": "Point", "coordinates": [ -76.981496995113901, 42.95476800291577 ] } },
{ "type": "Feature", "properties": { "node_id": "-13503096.869_4572110.086", "x": -13503096.869000001, "y": 4572110.086, "degree": 3 }, "geometry": { "type": "Point", "coordinates": [ -121.30038300369155, 37.948194996499453 ] } },
{ "type": "Feature", "properties": { "node_id": "-13501220.022_4564859.894", "x": -13501220.022, "y": 4564859.894, "degree": 3 }, "geometry": { "type": "Point", "coordinates": [ -121.283523000231014, 37.896818002682956 ] } },
{ "type": "Feature", "properties": { "node_id": "-13493989.932_4559719.794", "x": -13493989.932, "y": 4559719.794, "degree": 3 }, "geometry": { "type": "Point", "coordinates": [ -121.218573996705402, 37.860372001720314 ] } },
{ "type": "Feature", "properties": { "node_id": "-10485676.317_4308053.546", "x": -10485676.317, "y": 4308053.546, "degree": 3 }, "geometry": { "type": "Point", "coordinates": [ -94.194432998911907, 36.053994996208978 ] } },
{ "type": "Feature", "properties": { "node_id": "-8902503.543_4929747.598", "x": -8902503.543, "y": 4929747.598, "degree": 3 }, "geometry": { "type": "Point", "coordinates": [ -79.972549996050901, 40.437663001715329 ] } },
{ "type": "Feature", "properties": { "node_id": "-8838598.029_4779645.918", "x": -8838598.029, "y": 4779645.918, "degree": 3 }, "geometry": { "type": "Point", "coordinates": [ -79.398476996393768, 39.403572996932517 ] } },
{ "type": "Feature", "properties": { "node_id": "-9104018.316_3016203.730", "x": -9104018.316, "y": 3016203.73, "degree": 3 }, "geometry": { "type": "Point", "coordinates": [ -81.782788001668663, 26.138168000150305 ] } },
{ "type": "Feature", "properties": { "node_id": "-11340179.534_3972256.672", "x": -11340179.534, "y": 3972256.672, "degree": 3 }, "geometry": { "type": "Point", "coordinates": [ -101.870566000515922, 33.577844002785412 ] } }
]
}
