{
"type": "FeatureCollection",
"name": "network_edges_method1_simplified.geojson",
"crs": { "type": "name", "properties": { "name": "urn:ogc:def:crs:OGC:1.3:CRS84" } },
"features": [
{ "type": "Feature", "properties": { "edge_type": "augment", "region": "ContigUS" }, "geometry": { "type": "LineString", "coordinates": [ [ -115.180380997347797, 36.129917998449677 ], [ -114.571893000166867, 36.662262996486319 ], [ -113.450042997889042, 37.166990003448532 ], [ -112.835367396047928, 36.865351210397606 ], [ -112.385589682880166, 36.904286100777476 ], [ -112.215350995432416, 36.713713002357068 ], [ -111.630006797972783, 36.816483949673888 ], [ -111.39185299569543, 36.07596500282294 ], [ -111.628355999907768, 35.195138999984792 ] ] } },
{ "type": "Feature", "properties": { "edge_type": "augment", "region": "ContigUS" }, "geometry": { "type": "LineString", "coordinates": [ [ -106.375901000038795, 31.77366699844573 ], [ -107.318562004434455, 32.90628500211654 ], [ -106.620606000087591, 35.080957002669734 ] ] } },
{ "type": "Feature", "properties": { "edge_type": "augment", "region": "ContigUS" }, "geometry": { "type": "LineString", "coordinates": [ [ -94.723664004014211, 38.935164003527319 ], [ -94.805689001927277, 39.852910998490223 ], [ -95.458919002188779, 40.266119997166669 ], [ -95.95596600272485, 41.304623001495536 ] ] } },
{ "type": "Feature", "properties": { "edge_type": "augment", "region": "ContigUS" }, "geometry": { "type": "LineString", "coordinates": [ [ -93.618275997627151, 41.702997002939988 ], [ -93.592624667571187, 41.200045135925201 ], [ -94.293250653588657, 39.50385261946164 ], [ -94.723664004014211, 38.935164003527319 ] ] } },
{ "type": "Feature", "properties": { "edge_type": "augment", "region": "ContigUS" }, "geometry": { "type": "LineString", "coordinates": [ [ -94.723561003183718, 38.927452997170484 ], [ -94.723664004014211, 38.935164003527319 ] ] } },
{ "type": "Feature", "properties": { "edge_type": "augment", "region": "ContigUS" }, "geometry": { "type": "LineString", "coordinates": [ [ -90.071759002385392, 29.983184999219159 ], [ -89.74026900241293, 30.305860000502886 ], [ -87.898179000574814, 30.60388399993775 ] ] } },
{ "type": "Feature", "properties": { "edge_type": "augment", "region": "ContigUS" }, "geometry": { "type": "LineString", "coordinates": [ [ -88.359879998609756, 38.379599998025057 ], [ -88.382380002716459, 38.379639996712363 ] ] } },
{ "type": "Feature", "properties": { "edge_type": "augment", "region": "ContigUS" }, "geometry": { "type": "LineString", "coordinates": [ [ -86.775164997284435, 36.161842996358104 ], [ -87.454873002242081, 36.702606001749047 ], [ -87.819332996721812, 37.478004003408749 ], [ -88.285689998806973, 37.741469996942513 ], [ -88.359879998609756, 38.379599998025057 ] ] } },
{ "type": "Feature", "properties": { "edge_type": "augment", "region": "ContigUS" }, "geometry": { "type": "LineString", "coordinates": [ [ -86.533667997896188, 39.16137800048071 ], [ -87.687140000732214, 38.729509998623563 ], [ -87.761420002743307, 38.416920003037177 ], [ -88.002090004097838, 38.379789998634728 ], [ -88.277520000960976, 38.371820001911402 ], [ -88.359879998609756, 38.379599998025057 ] ] } },
{ "type": "Feature", "properties": { "edge_type": "augment", "region": "ContigUS" }, "geometry": { "type": "LineString", "coordinates": [ [ -86.52691299933629, 39.164307002862159 ], [ -86.533667997896188, 39.16137800048071 ] ] } },
{ "type": "Feature", "properties": { "edge_type": "augment", "region": "ContigUS" }, "geometry": { "type": "LineString", "coordinates": [ [ -86.533667997896188, 39.16137800048071 ], [ -86.468012002275685, 38.556157998594863 ], [ -85.765642997146159, 38.258893999715291 ], [ -84.505730999700361, 38.05410800070436 ] ] } },
{ "type": "Feature", "properties": { "edge_type": "augment", "region": "ContigUS" }, "geometry": { "type": "LineString", "coordinates": [ [ -84.500729997665303, 38.048345000873098 ], [ -84.506322001325785, 38.039632996950658 ] ] } },
{ "type": "Feature", "properties": { "edge_type": "augment", "region": "ContigUS" }, "geometry": { "type": "LineString", "coordinates": [ [ -84.201690999527784, 39.757879000184239 ], [ -84.647118001094682, 39.001459000236146 ], [ -84.505730999700361, 38.05410800070436 ] ] } },
{ "type": "Feature", "properties": { "edge_type": "augment", "region": "ContigUS" }, "geometry": { "type": "LineString", "coordinates": [ [ -84.505730999700361, 38.05410800070436 ], [ -84.500729997665303, 38.048345000873098 ] ] } },
{ "type": "Feature", "properties": { "edge_type": "augment", "region": "ContigUS" }, "geometry": { "type": "LineString", "coordinates": [ [ -82.990644002822108, 39.96743499805018 ], [ -83.473566001628498, 39.516124996434456 ], [ -83.856860810973615, 38.490599639467852 ], [ -84.500729997665303, 38.048345000873098 ] ] } },
{ "type": "Feature", "properties": { "edge_type": "augment", "region": "ContigUS" }, "geometry": { "type": "LineString", "coordinates": [ [ -84.476337000709862, 42.733056000517649 ], [ -83.772323000632028, 42.539279001052158 ], [ -83.729852998601757, 42.260788997243154 ], [ -83.055676001696781, 42.327140997050378 ] ] } },
{ "type": "Feature", "properties": { "edge_type": "augment", "region": "ContigUS" }, "geometry": { "type": "LineString", "coordinates": [ [ -83.046953998091851, 42.330935998289988 ], [ -83.055676001696781, 42.327140997050378 ] ] } },
{ "type": "Feature", "properties": { "edge_type": "augment", "region": "ContigUS" }, "geometry": { "type": "LineString", "coordinates": [ [ -83.055676001696781, 42.327140997050378 ], [ -83.51532699933766, 41.687557001796236 ], [ -83.299673003537549, 41.465308002455579 ], [ -82.614906998440048, 41.322798996907707 ], [ -81.693027997119643, 41.474196002295166 ] ] } },
{ "type": "Feature", "properties": { "edge_type": "augment", "region": "ContigUS" }, "geometry": { "type": "LineString", "coordinates": [ [ -83.047015999812757, 42.331643003548294 ], [ -83.046953998091851, 42.330935998289988 ] ] } },
{ "type": "Feature", "properties": { "edge_type": "augment", "region": "ContigUS" }, "geometry": { "type": "LineString", "coordinates": [ [ -83.041700199971231, 42.328714885010477 ], [ -83.043033004590271, 42.331396002201153 ], [ -83.046953998091851, 42.330935998289988 ] ] } },
{ "type": "Feature", "properties": { "edge_type": "augment", "region": "ContigUS" }, "geometry": { "type": "LineString", "coordinates": [ [ -83.041700199971231, 42.328714885010477 ], [ -83.04196700079207, 42.32889399800505 ], [ -83.042515997194783, 42.328159998390397 ], [ -83.041700199971231, 42.328714885010477 ] ] } },
{ "type": "Feature", "properties": { "edge_type": "augment", "region": "ContigUS" }, "geometry": { "type": "LineString", "coordinates": [ [ -78.754310000219078, 42.903774000724177 ], [ -81.228679996319016, 42.808816999532709 ], [ -82.374792003217522, 42.279188998546921 ], [ -83.041700199971231, 42.328714885010477 ] ] } },
{ "type": "Feature", "properties": { "edge_type": "augment", "region": "ContigUS" }, "geometry": { "type": "LineString", "coordinates": [ [ -82.98705800007312, 39.968164002344075 ], [ -82.990644002822108, 39.96743499805018 ] ] } },
{ "type": "Feature", "properties": { "edge_type": "augment", "region": "ContigUS" }, "geometry": { "type": "LineString", "coordinates": [ [ -81.693027997119643, 41.474196002295166 ], [ -81.996371003446427, 40.997426997679625 ], [ -82.804332999670677, 40.440136000729403 ], [ -82.990644002822108, 39.96743499805018 ] ] } },
{ "type": "Feature", "properties": { "edge_type": "augment", "region": "ContigUS" }, "geometry": { "type": "LineString", "coordinates": [ [ -81.693027997119643, 41.474196002295166 ], [ -81.672861995784174, 41.482376002156926 ] ] } },
{ "type": "Feature", "properties": { "edge_type": "augment", "region": "ContigUS" }, "geometry": { "type": "LineString", "coordinates": [ [ -80.844206004433076, 35.22641400200304 ], [ -79.747208002288247, 35.724356003019984 ], [ -79.167201998488764, 35.7484170017323 ] ] } },
{ "type": "Feature", "properties": { "edge_type": "augment", "region": "ContigUS" }, "geometry": { "type": "LineString", "coordinates": [ [ -80.372391997508302, 25.761229001136751 ], [ -80.140521003344901, 26.122354999724383 ] ] } },
{ "type": "Feature", "properties": { "edge_type": "augment", "region": "ContigUS" }, "geometry": { "type": "LineString", "coordinates": [ [ -79.954775004574586, 40.444417002621002 ], [ -79.95658100457122, 39.633102003288549 ] ] } },
{ "type": "Feature", "properties": { "edge_type": "augment", "region": "ContigUS" }, "geometry": { "type": "LineString", "coordinates": [ [ -79.05404600118554, 35.910276000586414 ], [ -79.167201998488764, 35.7484170017323 ] ] } },
{ "type": "Feature", "properties": { "edge_type": "augment", "region": "ContigUS" }, "geometry": { "type": "LineString", "coordinates": [ [ -79.167201998488764, 35.7484170017323 ], [ -79.467779002224233, 34.764426998004943 ], [ -79.30318900213139, 34.0757060010015 ], [ -79.0534170008236, 33.841587999120854 ] ] } },
{ "type": "Feature", "properties": { "edge_type": "augment", "region": "ContigUS" }, "geometry": { "type": "LineString", "coordinates": [ [ -79.0534170008236, 33.841587999120854 ], [ -78.883271998676832, 33.693318001318026 ] ] } },
{ "type": "Feature", "properties": { "edge_type": "augment", "region": "ContigUS" }, "geometry": { "type": "LineString", "coordinates": [ [ -78.67552400382705, 35.78070900250372 ], [ -78.456451999219269, 35.145620997573353 ], [ -79.0534170008236, 33.841587999120854 ] ] } },
{ "type": "Feature", "properties": { "edge_type": "augment", "region": "ContigUS" }, "geometry": { "type": "LineString", "coordinates": [ [ -78.88674299910312, 33.689786003136504 ], [ -78.883271998676832, 33.693318001318026 ] ] } },
{ "type": "Feature", "properties": { "edge_type": "augment", "region": "ContigUS" }, "geometry": { "type": "LineString", "coordinates": [ [ -78.883271998676832, 33.693318001318026 ], [ -77.944862001868671, 34.225555996116107 ] ] } },
{ "type": "Feature", "properties": { "edge_type": "augment", "region": "ContigUS" }, "geometry": { "type": "LineString", "coordinates": [ [ -78.754310000219078, 42.903774000724177 ], [ -76.142021999908067, 43.038475997540715 ] ] } },
{ "type": "Feature", "properties": { "edge_type": "augment", "region": "ContigUS" }, "geometry": { "type": "LineString", "coordinates": [ [ -78.754310000219078, 42.903774000724177 ], [ -76.944399996461001, 42.877206002109638 ], [ -76.710555996506471, 42.456460997934968 ], [ -76.474933997042697, 42.443502003257997 ] ] } },
{ "type": "Feature", "properties": { "edge_type": "hub_backbone", "region": "ContigUS" }, "geometry": { "type": "LineString", "coordinates": [ [ -122.304210996468825, 37.825245002296029 ], [ -122.419016004189658, 37.77455700029661 ] ] } },
{ "type": "Feature", "properties": { "edge_type": "hub_backbone", "region": "ContigUS" }, "geometry": { "type": "LineString", "coordinates": [ [ -122.331785996840495, 47.606546000309216 ], [ -122.443410995404989, 47.067598998097338 ], [ -122.953680002164006, 46.749015997947225 ], [ -122.666646996781864, 45.510118999764387 ], [ -123.000580001102136, 44.997949997322934 ], [ -123.020152997569113, 43.852327001477676 ], [ -123.373949998609447, 43.183346998920626 ], [ -123.326801004640828, 42.948022001091473 ], [ -122.869605003856819, 42.861104211166904 ], [ -122.642560001944815, 41.702920001522436 ], [ -122.258230001015789, 41.249455001719845 ], [ -122.440833998349447, 40.963466001762384 ], [ -121.953167996527597, 38.37320200079472 ] ] } },
{ "type": "Feature", "properties": { "edge_type": "hub_backbone", "region": "ContigUS" }, "geometry": { "type": "LineString", "coordinates": [ [ -121.953167996527597, 38.37320200079472 ], [ -122.304210996468825, 37.825245002296029 ] ] } },
{ "type": "Feature", "properties": { "edge_type": "hub_backbone", "region": "ContigUS" }, "geometry": { "type": "LineString", "coordinates": [ [ -122.304210996468825, 37.825245002296029 ], [ -122.100310998020646, 37.685457002619245 ], [ -121.561456997049746, 37.742724997685471 ], [ -121.205915997733641, 37.489356997330518 ], [ -118.241347002238911, 34.051396001533419 ], [ -116.637012004590929, 33.923061998892294 ], [ -115.888452004844339, 33.665269001334828 ], [ -114.076742621673304, 33.678851324547992 ], [ -111.550175998023278, 33.414627001234962 ], [ -111.336101995077527, 33.255353996825633 ], [ -110.809694996784458, 33.419787000294598 ], [ -109.771921996056903, 32.84950999752472 ], [ -109.104655002014141, 32.721668997065798 ], [ -108.385918000705132, 32.179850998725975 ], [ -106.800075002843826, 32.294290002820716 ], [ -106.507679001316589, 31.762271001704907 ], [ -105.656852418073512, 31.171426841408632 ], [ -99.777388001411367, 30.509783997743195 ], [ -98.899770997382618, 29.978437000591057 ], [ -98.493157998370108, 29.424292002702138 ] ] } },
{ "type": "Feature", "properties": { "edge_type": "hub_backbone", "region": "ContigUS" }, "geometry": { "type": "LineString", "coordinates": [ [ -121.953167996527597, 38.37320200079472 ], [ -121.374961003831856, 38.647262000011594 ], [ -120.670494001322538, 39.299463999448314 ], [ -119.213141000119251, 39.614521997058006 ], [ -117.582314999152942, 41.023265000650312 ], [ -116.835061940346947, 40.611225385166463 ], [ -115.961227418586091, 40.726028860685922 ], [ -115.044958998086258, 41.110765002392455 ], [ -114.564622997454549, 41.076055998522421 ], [ -114.052701000741251, 40.738311001866144 ], [ -111.576870999759493, 40.755482998358914 ], [ -111.067136903819588, 40.187350778012004 ], [ -110.150852466358216, 40.166238695941416 ], [ -109.538032002359799, 40.455598999429881 ], [ -108.916337432012554, 40.238557463812185 ], [ -108.094507999016912, 40.516849000880939 ], [ -106.88853200107323, 40.506797998843922 ], [ -106.388752999179317, 40.058829998787431 ], [ -105.981419003336612, 40.108750003189378 ], [ -105.801234573304967, 39.776533259639422 ], [ -104.987390004358403, 39.740059002241566 ] ] } },
{ "type": "Feature", "properties": { "edge_type": "hub_backbone", "region": "ContigUS" }, "geometry": { "type": "LineString", "coordinates": [ [ -104.987390004358403, 39.740059002241566 ], [ -104.146948835131909, 39.694045837588355 ], [ -103.822499003906259, 39.308863000317366 ], [ -102.778743995937631, 38.76280399992617 ], [ -102.514152999427424, 36.743083998539198 ], [ -102.073070996176241, 36.33167399857097 ], [ -101.833510998102568, 35.265651002293843 ], [ -100.661104000280687, 34.866106999428979 ], [ -100.277907996633701, 34.453355001279064 ], [ -98.229390002390602, 33.822585995965973 ], [ -97.478549000474601, 33.051676997349553 ], [ -96.798824996521731, 32.772495002822929 ] ] } },
{ "type": "Feature", "properties": { "edge_type": "hub_backbone", "region": "ContigUS" }, "geometry": { "type": "LineString", "coordinates": [ [ -104.987390004358403, 39.740059002241566 ], [ -104.598337003025293, 40.103845001833108 ], [ -103.578223003304558, 40.273499997885438 ], [ -102.944336003847823, 40.768138002403013 ], [ -101.730199000194133, 41.114771997851378 ], [ -100.758753997801662, 41.110408997430582 ], [ -99.063587000043498, 40.700102999681988 ], [ -97.876971996159725, 41.191145000069767 ], [ -96.023858003902177, 41.234341997435209 ], [ -95.584995998229502, 41.498856001980194 ], [ -94.238759998297539, 41.493552997216028 ], [ -93.239894002705682, 41.693533997788784 ], [ -90.32227000276167, 41.53500000156005 ], [ -89.857050654101755, 41.755131042708292 ], [ -87.630769998001483, 41.878160001725341 ] ] } },
{ "type": "Feature", "properties": { "edge_type": "hub_backbone", "region": "ContigUS" }, "geometry": { "type": "LineString", "coordinates": [ [ -98.493157998370108, 29.424292002702138 ], [ -97.884695001303498, 29.938561996116512 ], [ -97.117396998129735, 31.560380999001104 ], [ -96.798824996521731, 32.772495002822929 ] ] } },
{ "type": "Feature", "properties": { "edge_type": "hub_backbone", "region": "ContigUS" }, "geometry": { "type": "LineString", "coordinates": [ [ -95.369149996520562, 29.76382399887828 ], [ -97.6661120036038, 29.651653002146119 ], [ -98.438535003271326, 29.419879999223792 ], [ -98.493157998370108, 29.424292002702138 ] ] } },
{ "type": "Feature", "properties": { "edge_type": "hub_backbone", "region": "ContigUS" }, "geometry": { "type": "LineString", "coordinates": [ [ -96.786147998181704, 32.775511004022299 ], [ -96.798824996521731, 32.772495002822929 ] ] } },
{ "type": "Feature", "properties": { "edge_type": "hub_backbone", "region": "ContigUS" }, "geometry": { "type": "LineString", "coordinates": [ [ -96.786147998181704, 32.775511004022299 ], [ -96.615870997587066, 33.640241997361613 ], [ -95.729397000115583, 34.94276399967633 ], [ -95.190639002099104, 36.600437000125673 ], [ -94.496716999316575, 37.045482996329248 ], [ -92.984585001582232, 37.303250003142686 ], [ -92.583964996206745, 37.746478997207632 ], [ -89.917473001994935, 38.718661997496781 ], [ -89.642429999356153, 39.321980000406612 ], [ -88.028170001224225, 40.714780002664895 ], [ -87.630769998001483, 41.878160001725341 ] ] } },
{ "type": "Feature", "properties": { "edge_type": "hub_backbone", "region": "ContigUS" }, "geometry": { "type": "LineString", "coordinates": [ [ -95.36546100192426, 29.770593000916119 ], [ -95.514467001518753, 30.666788001955922 ], [ -95.926470000033817, 31.019052996894406 ], [ -96.786147998181704, 32.775511004022299 ] ] } },
{ "type": "Feature", "properties": { "edge_type": "hub_backbone", "region": "ContigUS" }, "geometry": { "type": "LineString", "coordinates": [ [ -95.370153998597885, 29.763387000932447 ], [ -95.369149996520562, 29.76382399887828 ] ] } },
{ "type": "Feature", "properties": { "edge_type": "hub_backbone", "region": "ContigUS" }, "geometry": { "type": "LineString", "coordinates": [ [ -95.369149996520562, 29.76382399887828 ], [ -95.36546100192426, 29.770593000916119 ] ] } },
{ "type": "Feature", "properties": { "edge_type": "hub_backbone", "region": "ContigUS" }, "geometry": { "type": "LineString", "coordinates": [ [ -95.36546100192426, 29.770593000916119 ], [ -95.340632995792504, 29.770377000473218 ], [ -95.215551000709922, 30.155037997080516 ], [ -94.949988997242826, 30.57079599634131 ], [ -94.932976998836196, 30.710985001429432 ], [ -92.449070999719751, 31.301392001036742 ], [ -91.822689002253668, 31.628905996818922 ], [ -91.299441001522425, 31.578967999854488 ], [ -90.957772999549334, 31.965636000492971 ], [ -90.266669002829929, 32.293014998950731 ], [ -88.453551995541261, 32.423657001176046 ], [ -87.631138001840753, 33.138075000906483 ], [ -86.869852000655428, 33.502115999459853 ], [ -84.389971999114124, 33.744871999364811 ] ] } },
{ "type": "Feature", "properties": { "edge_type": "hub_backbone", "region": "ContigUS" }, "geometry": { "type": "LineString", "coordinates": [ [ -87.630769998001483, 41.878160001725341 ], [ -87.480862000030214, 41.639402999224437 ] ] } },
{ "type": "Feature", "properties": { "edge_type": "hub_backbone", "region": "ContigUS" }, "geometry": { "type": "LineString", "coordinates": [ [ -87.480862000030214, 41.639402999224437 ], [ -87.470617998805665, 36.767403998363875 ], [ -86.784184001888605, 36.24675199751811 ], [ -86.836849999174646, 35.574310999162684 ], [ -86.570128998311105, 35.155325997036684 ], [ -86.586642000543691, 34.739096000481048 ] ] } },
{ "type": "Feature", "properties": { "edge_type": "hub_backbone", "region": "ContigUS" }, "geometry": { "type": "LineString", "coordinates": [ [ -87.480862000030214, 41.639402999224437 ], [ -84.293126999885544, 40.837653997822002 ], [ -81.945491000675688, 40.792980000540432 ], [ -81.000184996757469, 40.28479000315685 ], [ -80.74262000256212, 39.925292998016026 ], [ -80.163866995870379, 39.896301997155796 ], [ -79.955880004239262, 39.628370998290109 ], [ -78.76005399882564, 39.649285000708446 ] ] } },
{ "type": "Feature", "properties": { "edge_type": "hub_backbone", "region": "ContigUS" }, "geometry": { "type": "LineString", "coordinates": [ [ -86.586642000543691, 34.739096000481048 ], [ -86.589600000060713, 34.737950003176266 ] ] } },
{ "type": "Feature", "properties": { "edge_type": "hub_backbone", "region": "ContigUS" }, "geometry": { "type": "LineString", "coordinates": [ [ -86.586642000543691, 34.739096000481048 ], [ -86.492962996752993, 34.76852900035221 ], [ -86.270542000900818, 34.608864997820618 ], [ -85.775598001360621, 34.637178999191228 ], [ -84.932355004729246, 34.376931998396088 ], [ -84.378862003989411, 33.759473003137998 ] ] } },
{ "type": "Feature", "properties": { "edge_type": "hub_backbone", "region": "ContigUS" }, "geometry": { "type": "LineString", "coordinates": [ [ -84.378862003989411, 33.759473003137998 ], [ -84.389971999114124, 33.744871999364811 ] ] } },
{ "type": "Feature", "properties": { "edge_type": "hub_backbone", "region": "ContigUS" }, "geometry": { "type": "LineString", "coordinates": [ [ -81.378523001179474, 28.536137997207373 ], [ -82.092237997842034, 28.873529998344857 ], [ -82.701416997105824, 30.205205999656389 ], [ -83.29319599762546, 30.773405000287163 ], [ -83.746271003993073, 31.928399003347625 ], [ -83.732525001481775, 32.831650002630205 ], [ -84.389971999114124, 33.744871999364811 ] ] } },
{ "type": "Feature", "properties": { "edge_type": "hub_backbone", "region": "ContigUS" }, "geometry": { "type": "LineString", "coordinates": [ [ -84.378862003989411, 33.759473003137998 ], [ -81.602473998640434, 35.109871996623852 ], [ -80.859797002807497, 35.59390899743493 ], [ -80.861040998796085, 35.809750999376959 ], [ -79.749677012863515, 36.287639536021167 ], [ -79.410732999275893, 36.588804996963347 ], [ -79.357617197560813, 37.032668624674308 ], [ -78.821821996064941, 37.84481600227052 ], [ -78.241778999642051, 38.39132499706038 ], [ -77.069040999587443, 38.904140000309646 ] ] } },
{ "type": "Feature", "properties": { "edge_type": "hub_backbone", "region": "ContigUS" }, "geometry": { "type": "LineString", "coordinates": [ [ -78.76005399882564, 39.649285000708446 ], [ -78.762110997095817, 39.652818000575202 ] ] } },
{ "type": "Feature", "properties": { "edge_type": "hub_backbone", "region": "ContigUS" }, "geometry": { "type": "LineString", "coordinates": [ [ -78.76005399882564, 39.649285000708446 ], [ -78.189652000509653, 39.712872999597437 ], [ -77.831448996562671, 39.261782998492265 ], [ -77.069040999587443, 38.904140000309646 ] ] } },
{ "type": "Feature", "properties": { "edge_type": "hub_backbone", "region": "ContigUS" }, "geometry": { "type": "LineString", "coordinates": [ [ -77.069040999587443, 38.904140000309646 ], [ -74.006072003141043, 40.711922998023944 ] ] } },
{ "type": "Feature", "properties": { "edge_type": "spoke", "region": "ContigUS" }, "geometry": { "type": "LineString", "coordinates": [ [ -123.076363001364584, 44.047728997844359 ], [ -123.000580001102136, 44.997949997322934 ], [ -122.667230003401272, 45.517021002414758 ] ] } },
{ "type": "Feature", "properties": { "edge_type": "spoke", "region": "ContigUS" }, "geometry": { "type": "LineString", "coordinates": [ [ -122.667230003401272, 45.517021002414758 ], [ -122.970892998615398, 46.67319699795118 ], [ -122.443410995404989, 47.067598998097338 ], [ -122.30307999955977, 47.65272900030125 ] ] } },
{ "type": "Feature", "properties": { "edge_type": "spoke", "region": "ContigUS" }, "geometry": { "type": "LineString", "coordinates": [ [ -122.666436000487948, 45.516663003217531 ], [ -122.667230003401272, 45.517021002414758 ] ] } },
{ "type": "Feature", "properties": { "edge_type": "spoke", "region": "ContigUS" }, "geometry": { "type": "LineString", "coordinates": [ [ -122.416472999384439, 37.776528002348257 ], [ -122.419016004189658, 37.77455700029661 ] ] } },
{ "type": "Feature", "properties": { "edge_type": "spoke", "region": "ContigUS" }, "geometry": { "type": "LineString", "coordinates": [ [ -122.304210996468825, 37.825245002296029 ], [ -122.416472999384439, 37.776528002348257 ] ] } },
{ "type": "Feature", "properties": { "edge_type": "spoke", "region": "ContigUS" }, "geometry": { "type": "LineString", "coordinates": [ [ -122.220589000593108, 37.492169999498294 ], [ -122.416472999384439, 37.776528002348257 ] ] } },
{ "type": "Feature", "properties": { "edge_type": "spoke", "region": "ContigUS" }, "geometry": { "type": "LineString", "coordinates": [ [ -122.298866999691967, 37.849024001447134 ], [ -122.304210996468825, 37.825245002296029 ] ] } },
{ "type": "Feature", "properties": { "edge_type": "spoke", "region": "ContigUS" }, "geometry": { "type": "LineString", "coordinates": [ [ -122.25782699881303, 37.798722002537538 ], [ -122.304210996468825, 37.825245002296029 ] ] } },
{ "type": "Feature", "properties": { "edge_type": "spoke", "region": "ContigUS" }, "geometry": { "type": "LineString", "coordinates": [ [ -121.73506499563365, 38.540351997338391 ], [ -122.214137003778532, 38.155662996790298 ], [ -122.298866999691967, 37.849024001447134 ] ] } },
{ "type": "Feature", "properties": { "edge_type": "spoke", "region": "ContigUS" }, "geometry": { "type": "LineString", "coordinates": [ [ -122.257957003000911, 37.873031998998137 ], [ -122.258229003885802, 37.85643400144378 ], [ -122.283683998153279, 37.852773000280365 ], [ -122.295972996155811, 37.84904699814809 ], [ -122.298659003771064, 37.848986002255955 ], [ -122.298866999691967, 37.849024001447134 ] ] } },
{ "type": "Feature", "properties": { "edge_type": "spoke", "region": "ContigUS" }, "geometry": { "type": "LineString", "coordinates": [ [ -122.248023001397812, 37.800483997603472 ], [ -122.25782699881303, 37.798722002537538 ] ] } },
{ "type": "Feature", "properties": { "edge_type": "spoke", "region": "ContigUS" }, "geometry": { "type": "LineString", "coordinates": [ [ -119.784162997678024, 36.771204998247455 ], [ -121.006751001181755, 37.639287002819948 ], [ -122.25782699881303, 37.798722002537538 ] ] } },
{ "type": "Feature", "properties": { "edge_type": "spoke", "region": "ContigUS" }, "geometry": { "type": "LineString", "coordinates": [ [ -121.655928000510642, 36.677635996836962 ], [ -122.220589000593108, 37.492169999498294 ] ] } },
{ "type": "Feature", "properties": { "edge_type": "spoke", "region": "ContigUS" }, "geometry": { "type": "LineString", "coordinates": [ [ -121.875495003789467, 37.301868998390702 ], [ -122.220589000593108, 37.492169999498294 ] ] } },
{ "type": "Feature", "properties": { "edge_type": "spoke", "region": "ContigUS" }, "geometry": { "type": "LineString", "coordinates": [ [ -121.742835000633107, 38.541470000149324 ], [ -121.73506499563365, 38.540351997338391 ] ] } },
{ "type": "Feature", "properties": { "edge_type": "spoke", "region": "ContigUS" }, "geometry": { "type": "LineString", "coordinates": [ [ -121.58048600073009, 38.573717997241118 ], [ -121.73506499563365, 38.540351997338391 ] ] } },
{ "type": "Feature", "properties": { "edge_type": "spoke", "region": "ContigUS" }, "geometry": { "type": "LineString", "coordinates": [ [ -121.485428002129893, 38.578369996218264 ], [ -121.58048600073009, 38.573717997241118 ] ] } },
{ "type": "Feature", "properties": { "edge_type": "spoke", "region": "ContigUS" }, "geometry": { "type": "LineString", "coordinates": [ [ -121.350529999156734, 38.6608830004947 ], [ -121.58048600073009, 38.573717997241118 ] ] } },
{ "type": "Feature", "properties": { "edge_type": "spoke", "region": "ContigUS" }, "geometry": { "type": "LineString", "coordinates": [ [ -119.852546000023381, 34.417275001334993 ], [ -119.719747000543109, 34.425078003468933 ] ] } },
{ "type": "Feature", "properties": { "edge_type": "spoke", "region": "ContigUS" }, "geometry": { "type": "LineString", "coordinates": [ [ -119.717039999299629, 34.427570997033783 ], [ -119.719747000543109, 34.425078003468933 ] ] } },
{ "type": "Feature", "properties": { "edge_type": "spoke", "region": "ContigUS" }, "geometry": { "type": "LineString", "coordinates": [ [ -119.719747000543109, 34.425078003468933 ], [ -118.346542003730107, 34.128418001527052 ] ] } },
{ "type": "Feature", "properties": { "edge_type": "spoke", "region": "ContigUS" }, "geometry": { "type": "LineString", "coordinates": [ [ -118.966658997691169, 35.39751500283981 ], [ -118.883544999108636, 34.809280996320958 ], [ -118.346542003730107, 34.128418001527052 ] ] } },
{ "type": "Feature", "properties": { "edge_type": "spoke", "region": "ContigUS" }, "geometry": { "type": "LineString", "coordinates": [ [ -118.42806200472306, 34.066890996366617 ], [ -118.25295600252079, 34.05899299988701 ] ] } },
{ "type": "Feature", "properties": { "edge_type": "spoke", "region": "ContigUS" }, "geometry": { "type": "LineString", "coordinates": [ [ -118.346542003730107, 34.128418001527052 ], [ -118.25295600252079, 34.05899299988701 ] ] } },
{ "type": "Feature", "properties": { "edge_type": "spoke", "region": "ContigUS" }, "geometry": { "type": "LineString", "coordinates": [ [ -118.282546004923134, 34.02341499960302 ], [ -118.247848002152253, 34.055698997975227 ] ] } },
{ "type": "Feature", "properties": { "edge_type": "spoke", "region": "ContigUS" }, "geometry": { "type": "LineString", "coordinates": [ [ -118.25295600252079, 34.05899299988701 ], [ -118.247848002152253, 34.055698997975227 ] ] } },
{ "type": "Feature", "properties": { "edge_type": "spoke", "region": "ContigUS" }, "geometry": { "type": "LineString", "coordinates": [ [ -118.247848002152253, 34.055698997975227 ], [ -118.241347002238911, 34.051396001533419 ] ] } },
{ "type": "Feature", "properties": { "edge_type": "spoke", "region": "ContigUS" }, "geometry": { "type": "LineString", "coordinates": [ [ -118.225614995314317, 34.052685996032913 ], [ -118.241347002238911, 34.051396001533419 ] ] } },
{ "type": "Feature", "properties": { "edge_type": "spoke", "region": "ContigUS" }, "geometry": { "type": "LineString", "coordinates": [ [ -118.213222996481335, 34.029035000942883 ], [ -118.241347002238911, 34.051396001533419 ] ] } },
{ "type": "Feature", "properties": { "edge_type": "spoke", "region": "ContigUS" }, "geometry": { "type": "LineString", "coordinates": [ [ -115.234776000027466, 36.159140000415164 ], [ -115.452581999922188, 35.469347001018726 ], [ -117.064581998496053, 34.881076997438896 ], [ -117.495757003501524, 34.136234000798623 ], [ -118.034399999195372, 34.139892996449845 ], [ -118.225614995314317, 34.052685996032913 ] ] } },
{ "type": "Feature", "properties": { "edge_type": "spoke", "region": "ContigUS" }, "geometry": { "type": "LineString", "coordinates": [ [ -117.374208001583028, 34.000271998902797 ], [ -118.225614995314317, 34.052685996032913 ] ] } },
{ "type": "Feature", "properties": { "edge_type": "spoke", "region": "ContigUS" }, "geometry": { "type": "LineString", "coordinates": [ [ -117.877387001063184, 33.780420003184538 ], [ -118.213222996481335, 34.029035000942883 ] ] } },
{ "type": "Feature", "properties": { "edge_type": "spoke", "region": "ContigUS" }, "geometry": { "type": "LineString", "coordinates": [ [ -118.151762995620359, 34.033307001805397 ], [ -118.180744003142124, 34.033259997536163 ], [ -118.208291003026403, 34.028003998134601 ], [ -118.213222996481335, 34.029035000942883 ] ] } },
{ "type": "Feature", "properties": { "edge_type": "spoke", "region": "ContigUS" }, "geometry": { "type": "LineString", "coordinates": [ [ -118.145376998029676, 34.037430002706365 ], [ -118.151762995620359, 34.033307001805397 ] ] } },
{ "type": "Feature", "properties": { "edge_type": "spoke", "region": "ContigUS" }, "geometry": { "type": "LineString", "coordinates": [ [ -118.036368998500336, 34.021672003043165 ], [ -118.151762995620359, 34.033307001805397 ] ] } },
{ "type": "Feature", "properties": { "edge_type": "spoke", "region": "ContigUS" }, "geometry": { "type": "LineString", "coordinates": [ [ -117.884223000712268, 33.745464999100136 ], [ -117.877387001063184, 33.780420003184538 ] ] } },
{ "type": "Feature", "properties": { "edge_type": "spoke", "region": "ContigUS" }, "geometry": { "type": "LineString", "coordinates": [ [ -117.170149998459536, 32.714347997467641 ], [ -117.877387001063184, 33.780420003184538 ] ] } },
{ "type": "Feature", "properties": { "edge_type": "spoke", "region": "ContigUS" }, "geometry": { "type": "LineString", "coordinates": [ [ -117.374999004123296, 33.982514997032268 ], [ -117.374208001583028, 34.000271998902797 ] ] } },
{ "type": "Feature", "properties": { "edge_type": "spoke", "region": "ContigUS" }, "geometry": { "type": "LineString", "coordinates": [ [ -117.12567099514466, 33.937984997350462 ], [ -117.374208001583028, 34.000271998902797 ] ] } },
{ "type": "Feature", "properties": { "edge_type": "spoke", "region": "ContigUS" }, "geometry": { "type": "LineString", "coordinates": [ [ -116.971380997251202, 33.815258997330197 ], [ -117.12567099514466, 33.937984997350462 ] ] } },
{ "type": "Feature", "properties": { "edge_type": "spoke", "region": "ContigUS" }, "geometry": { "type": "LineString", "coordinates": [ [ -114.01071599913287, 33.661432998480137 ], [ -115.888452004844339, 33.665269001334828 ], [ -117.12567099514466, 33.937984997350462 ] ] } },
{ "type": "Feature", "properties": { "edge_type": "spoke", "region": "ContigUS" }, "geometry": { "type": "LineString", "coordinates": [ [ -116.513131003144309, 43.613691997509669 ], [ -116.196825001840466, 43.566288002973231 ] ] } },
{ "type": "Feature", "properties": { "edge_type": "spoke", "region": "ContigUS" }, "geometry": { "type": "LineString", "coordinates": [ [ -116.210197996896326, 43.606804002581079 ], [ -116.193601002184678, 43.574844999120607 ] ] } },
{ "type": "Feature", "properties": { "edge_type": "spoke", "region": "ContigUS" }, "geometry": { "type": "LineString", "coordinates": [ [ -116.202303000308234, 43.615030998517518 ], [ -116.193601002184678, 43.574844999120607 ] ] } },
{ "type": "Feature", "properties": { "edge_type": "spoke", "region": "ContigUS" }, "geometry": { "type": "LineString", "coordinates": [ [ -116.193601002184678, 43.574844999120607 ], [ -116.196825001840466, 43.566288002973231 ] ] } },
{ "type": "Feature", "properties": { "edge_type": "spoke", "region": "ContigUS" }, "geometry": { "type": "LineString", "coordinates": [ [ -116.196825001840466, 43.566288002973231 ], [ -115.469674002288016, 42.958439999465476 ], [ -114.950036995436946, 42.934667997698355 ], [ -114.296993000338162, 42.577232001552211 ], [ -113.517361999679281, 42.570306999806043 ], [ -112.141234998842691, 41.680097000503402 ] ] } },
{ "type": "Feature", "properties": { "edge_type": "spoke", "region": "ContigUS" }, "geometry": { "type": "LineString", "coordinates": [ [ -112.75785539533976, 34.204572111002882 ], [ -114.01071599913287, 33.661432998480137 ] ] } },
{ "type": "Feature", "properties": { "edge_type": "spoke", "region": "ContigUS" }, "geometry": { "type": "LineString", "coordinates": [ [ -112.108226996615841, 33.461649003462377 ], [ -114.01071599913287, 33.661432998480137 ] ] } },
{ "type": "Feature", "properties": { "edge_type": "spoke", "region": "ContigUS" }, "geometry": { "type": "LineString", "coordinates": [ [ -113.578434997332721, 37.088142000918999 ], [ -113.082156999595611, 37.654467998667421 ], [ -112.971023235761052, 38.705838415778466 ], [ -112.652212003809709, 39.330752000350245 ], [ -112.14582900117199, 39.942186999854805 ], [ -111.956087996703843, 39.951987997024204 ], [ -111.888225002127001, 40.760651999961333 ] ] } },
{ "type": "Feature", "properties": { "edge_type": "spoke", "region": "ContigUS" }, "geometry": { "type": "LineString", "coordinates": [ [ -111.628355999907768, 35.195138999984792 ], [ -111.740327999700241, 34.88520700273159 ], [ -112.470145998516543, 34.541929997294424 ], [ -112.75785539533976, 34.204572111002882 ] ] } },
{ "type": "Feature", "properties": { "edge_type": "spoke", "region": "ContigUS" }, "geometry": { "type": "LineString", "coordinates": [ [ -112.75785539533976, 34.204572111002882 ], [ -112.757858004489307, 34.204566998622923 ], [ -112.757787998779236, 34.204568997128469 ], [ -112.75785539533976, 34.204572111002882 ] ] } },
{ "type": "Feature", "properties": { "edge_type": "spoke", "region": "ContigUS" }, "geometry": { "type": "LineString", "coordinates": [ [ -111.048968998221156, 45.679333001478867 ], [ -111.272321996180608, 45.492740999168021 ], [ -111.099640996087814, 44.662216997031166 ], [ -111.327083996586424, 44.634036998765566 ], [ -111.455947000699908, 44.071366997431653 ], [ -112.388537998558391, 43.149248998165213 ], [ -112.141234998842691, 41.680097000503402 ] ] } },
{ "type": "Feature", "properties": { "edge_type": "spoke", "region": "ContigUS" }, "geometry": { "type": "LineString", "coordinates": [ [ -112.141234998842691, 41.680097000503402 ], [ -112.026017996783125, 41.116894003368863 ], [ -111.900591003715689, 40.986606002748651 ] ] } },
{ "type": "Feature", "properties": { "edge_type": "spoke", "region": "ContigUS" }, "geometry": { "type": "LineString", "coordinates": [ [ -110.984103996157742, 32.235716996989098 ], [ -112.108226996615841, 33.461649003462377 ] ] } },
{ "type": "Feature", "properties": { "edge_type": "spoke", "region": "ContigUS" }, "geometry": { "type": "LineString", "coordinates": [ [ -112.082638000657425, 33.460806998931538 ], [ -112.108226996615841, 33.461649003462377 ] ] } },
{ "type": "Feature", "properties": { "edge_type": "spoke", "region": "ContigUS" }, "geometry": { "type": "LineString", "coordinates": [ [ -111.934953997767664, 33.421952002218859 ], [ -111.978233004576524, 33.456868003124875 ], [ -112.029616998154282, 33.461964000821354 ], [ -112.082638000657425, 33.460806998931538 ] ] } },
{ "type": "Feature", "properties": { "edge_type": "spoke", "region": "ContigUS" }, "geometry": { "type": "LineString", "coordinates": [ [ -112.073814002335112, 33.448253999285733 ], [ -112.082638000657425, 33.460806998931538 ] ] } },
{ "type": "Feature", "properties": { "edge_type": "spoke", "region": "ContigUS" }, "geometry": { "type": "LineString", "coordinates": [ [ -111.948759001626797, 41.197629000077441 ], [ -111.900591003715689, 40.986606002748651 ] ] } },
{ "type": "Feature", "properties": { "edge_type": "spoke", "region": "ContigUS" }, "geometry": { "type": "LineString", "coordinates": [ [ -111.900591003715689, 40.986606002748651 ], [ -111.888225002127001, 40.760651999961333 ] ] } },
{ "type": "Feature", "properties": { "edge_type": "spoke", "region": "ContigUS" }, "geometry": { "type": "LineString", "coordinates": [ [ -111.725833997001303, 40.311877002764291 ], [ -111.888225002127001, 40.760651999961333 ] ] } },
{ "type": "Feature", "properties": { "edge_type": "spoke", "region": "ContigUS" }, "geometry": { "type": "LineString", "coordinates": [ [ -111.658601997046347, 40.250608999768644 ], [ -111.701435996429737, 40.31183099840645 ], [ -111.705518003962837, 40.312024002780475 ], [ -111.725833997001303, 40.311877002764291 ] ] } },
{ "type": "Feature", "properties": { "edge_type": "spoke", "region": "ContigUS" }, "geometry": { "type": "LineString", "coordinates": [ [ -111.721939997874031, 40.2790650013498 ], [ -111.725833997001303, 40.311877002764291 ] ] } },
{ "type": "Feature", "properties": { "edge_type": "spoke", "region": "ContigUS" }, "geometry": { "type": "LineString", "coordinates": [ [ -110.952399000250509, 32.23598599858196 ], [ -110.984103996157742, 32.235716996989098 ] ] } },
{ "type": "Feature", "properties": { "edge_type": "spoke", "region": "ContigUS" }, "geometry": { "type": "LineString", "coordinates": [ [ -110.88370599828373, 32.22168399707968 ], [ -110.984103996157742, 32.235716996989098 ] ] } },
{ "type": "Feature", "properties": { "edge_type": "spoke", "region": "ContigUS" }, "geometry": { "type": "LineString", "coordinates": [ [ -106.620606000087591, 35.080957002669734 ], [ -105.932001996837585, 35.723852999572799 ], [ -106.135574999539202, 36.092858997182361 ], [ -105.894535000085469, 36.34936700069575 ], [ -106.014801998295695, 37.069186996559274 ], [ -105.85812948860567, 37.542345890904031 ], [ -106.116322998072704, 38.80952900221358 ], [ -105.993567998902122, 39.221248001180783 ], [ -104.998098003393508, 39.74012199970916 ] ] } },
{ "type": "Feature", "properties": { "edge_type": "spoke", "region": "ContigUS" }, "geometry": { "type": "LineString", "coordinates": [ [ -106.375901000038795, 31.77366699844573 ], [ -105.656852418073512, 31.171426841408632 ], [ -99.777388001411367, 30.509783997743195 ], [ -98.899770997382618, 29.978437000591057 ], [ -98.493157998370108, 29.424292002702138 ] ] } },
{ "type": "Feature", "properties": { "edge_type": "spoke", "region": "ContigUS" }, "geometry": { "type": "LineString", "coordinates": [ [ -105.276886001603387, 40.010460002470886 ], [ -105.093901001808263, 39.916167996653492 ] ] } },
{ "type": "Feature", "properties": { "edge_type": "spoke", "region": "ContigUS" }, "geometry": { "type": "LineString", "coordinates": [ [ -105.077112001187785, 40.574318002739901 ], [ -105.093901001808263, 39.916167996653492 ] ] } },
{ "type": "Feature", "properties": { "edge_type": "spoke", "region": "ContigUS" }, "geometry": { "type": "LineString", "coordinates": [ [ -105.093901001808263, 39.916167996653492 ], [ -105.024844999618367, 39.836104000908051 ] ] } },
{ "type": "Feature", "properties": { "edge_type": "spoke", "region": "ContigUS" }, "geometry": { "type": "LineString", "coordinates": [ [ -105.025014996802724, 39.899652001547416 ], [ -105.024844999618367, 39.836104000908051 ] ] } },
{ "type": "Feature", "properties": { "edge_type": "spoke", "region": "ContigUS" }, "geometry": { "type": "LineString", "coordinates": [ [ -105.024844999618367, 39.836104000908051 ], [ -104.998098003393508, 39.74012199970916 ] ] } },
{ "type": "Feature", "properties": { "edge_type": "spoke", "region": "ContigUS" }, "geometry": { "type": "LineString", "coordinates": [ [ -104.998098003393508, 39.74012199970916 ], [ -104.987390004358403, 39.740059002241566 ] ] } },
{ "type": "Feature", "properties": { "edge_type": "spoke", "region": "ContigUS" }, "geometry": { "type": "LineString", "coordinates": [ [ -104.959785000256232, 39.736810997217461 ], [ -104.987390004358403, 39.740059002241566 ] ] } },
{ "type": "Feature", "properties": { "edge_type": "spoke", "region": "ContigUS" }, "geometry": { "type": "LineString", "coordinates": [ [ -104.790080999048755, 41.102248002484089 ], [ -104.992402001772575, 40.75798199981611 ], [ -104.987390004358403, 39.740059002241566 ] ] } },
{ "type": "Feature", "properties": { "edge_type": "spoke", "region": "ContigUS" }, "geometry": { "type": "LineString", "coordinates": [ [ -101.870587003127241, 33.58445299966354 ], [ -99.260372000081659, 33.594321996312509 ], [ -97.339399998897107, 32.754848996021813 ], [ -96.850448004847095, 32.764532000862282 ] ] } },
{ "type": "Feature", "properties": { "edge_type": "spoke", "region": "ContigUS" }, "geometry": { "type": "LineString", "coordinates": [ [ -97.786079997571733, 30.167055997298792 ], [ -98.493157998370108, 29.424292002702138 ] ] } },
{ "type": "Feature", "properties": { "edge_type": "spoke", "region": "ContigUS" }, "geometry": { "type": "LineString", "coordinates": [ [ -98.162275996148182, 26.301367999167923 ], [ -98.114176000704049, 28.326185998693965 ], [ -98.484089002520335, 28.949837998597967 ], [ -98.493157998370108, 29.424292002702138 ] ] } },
{ "type": "Feature", "properties": { "edge_type": "spoke", "region": "ContigUS" }, "geometry": { "type": "LineString", "coordinates": [ [ -98.252048999319399, 26.218564998111471 ], [ -98.162275996148182, 26.301367999167923 ] ] } },
{ "type": "Feature", "properties": { "edge_type": "spoke", "region": "ContigUS" }, "geometry": { "type": "LineString", "coordinates": [ [ -98.178313996208018, 26.30373200203762 ], [ -98.162275996148182, 26.301367999167923 ] ] } },
{ "type": "Feature", "properties": { "edge_type": "spoke", "region": "ContigUS" }, "geometry": { "type": "LineString", "coordinates": [ [ -97.714411999962792, 30.322180996532566 ], [ -97.786079997571733, 30.167055997298792 ] ] } },
{ "type": "Feature", "properties": { "edge_type": "spoke", "region": "ContigUS" }, "geometry": { "type": "LineString", "coordinates": [ [ -97.745548002969102, 30.267787997291034 ], [ -97.786079997571733, 30.167055997298792 ] ] } },
{ "type": "Feature", "properties": { "edge_type": "spoke", "region": "ContigUS" }, "geometry": { "type": "LineString", "coordinates": [ [ -97.74297900091959, 30.277935003413678 ], [ -97.745548002969102, 30.267787997291034 ] ] } },
{ "type": "Feature", "properties": { "edge_type": "spoke", "region": "ContigUS" }, "geometry": { "type": "LineString", "coordinates": [ [ -97.743174995348255, 30.267119998431564 ], [ -97.745548002969102, 30.267787997291034 ] ] } },
{ "type": "Feature", "properties": { "edge_type": "spoke", "region": "ContigUS" }, "geometry": { "type": "LineString", "coordinates": [ [ -97.733057997938616, 30.300312003455282 ], [ -97.74297900091959, 30.277935003413678 ] ] } },
{ "type": "Feature", "properties": { "edge_type": "spoke", "region": "ContigUS" }, "geometry": { "type": "LineString", "coordinates": [ [ -97.738118001321553, 30.280660002558243 ], [ -97.740503001451401, 30.281340996159827 ], [ -97.741915997494431, 30.277646003191432 ], [ -97.74297900091959, 30.277935003413678 ] ] } },
{ "type": "Feature", "properties": { "edge_type": "spoke", "region": "ContigUS" }, "geometry": { "type": "LineString", "coordinates": [ [ -97.114598000418027, 32.72727700151102 ], [ -96.850448004847095, 32.764532000862282 ] ] } },
{ "type": "Feature", "properties": { "edge_type": "spoke", "region": "ContigUS" }, "geometry": { "type": "LineString", "coordinates": [ [ -97.071827997015447, 36.115885996841151 ], [ -96.929180003507398, 34.978620000699287 ], [ -97.177554001654272, 33.255695996167205 ], [ -96.802848999836925, 32.779101001662212 ] ] } },
{ "type": "Feature", "properties": { "edge_type": "spoke", "region": "ContigUS" }, "geometry": { "type": "LineString", "coordinates": [ [ -96.850448004847095, 32.764532000862282 ], [ -96.798824996521731, 32.772495002822929 ] ] } },
{ "type": "Feature", "properties": { "edge_type": "spoke", "region": "ContigUS" }, "geometry": { "type": "LineString", "coordinates": [ [ -96.808079997534179, 32.779535002137358 ], [ -96.802848999836925, 32.779101001662212 ] ] } },
{ "type": "Feature", "properties": { "edge_type": "spoke", "region": "ContigUS" }, "geometry": { "type": "LineString", "coordinates": [ [ -96.802848999836925, 32.779101001662212 ], [ -96.798824996521731, 32.772495002822929 ] ] } },
{ "type": "Feature", "properties": { "edge_type": "spoke", "region": "ContigUS" }, "geometry": { "type": "LineString", "coordinates": [ [ -96.800040003876092, 46.89040099809035 ], [ -95.838207999103147, 46.038344999484416 ], [ -94.405763124771781, 45.608022592049835 ], [ -93.441740003256726, 45.090538002492423 ], [ -92.773161001775179, 44.961752001014489 ] ] } },
{ "type": "Feature", "properties": { "edge_type": "spoke", "region": "ContigUS" }, "geometry": { "type": "LineString", "coordinates": [ [ -96.786147998181704, 32.775511004022299 ], [ -96.798824996521731, 32.772495002822929 ] ] } },
{ "type": "Feature", "properties": { "edge_type": "spoke", "region": "ContigUS" }, "geometry": { "type": "LineString", "coordinates": [ [ -96.789354004582307, 32.765114997644339 ], [ -96.786147998181704, 32.775511004022299 ] ] } },
{ "type": "Feature", "properties": { "edge_type": "spoke", "region": "ContigUS" }, "geometry": { "type": "LineString", "coordinates": [ [ -96.788450002962477, 44.314150997683456 ], [ -95.370673000253291, 44.224809996918765 ], [ -94.481665996225743, 44.330843999471455 ], [ -93.487089995104725, 44.056634999129301 ], [ -91.368097999012562, 43.915935001201909 ], [ -90.248802248447305, 43.20287878879364 ], [ -89.40057699762086, 43.07294500151847 ] ] } },
{ "type": "Feature", "properties": { "edge_type": "spoke", "region": "ContigUS" }, "geometry": { "type": "LineString", "coordinates": [ [ -96.768888001874586, 32.909267998894613 ], [ -96.786147998181704, 32.775511004022299 ] ] } },
{ "type": "Feature", "properties": { "edge_type": "spoke", "region": "ContigUS" }, "geometry": { "type": "LineString", "coordinates": [ [ -96.645501999098968, 33.158150999619032 ], [ -96.768888001874586, 32.909267998894613 ] ] } },
{ "type": "Feature", "properties": { "edge_type": "spoke", "region": "ContigUS" }, "geometry": { "type": "LineString", "coordinates": [ [ -96.744646999865239, 32.978162996635909 ], [ -96.768888001874586, 32.909267998894613 ] ] } },
{ "type": "Feature", "properties": { "edge_type": "spoke", "region": "ContigUS" }, "geometry": { "type": "LineString", "coordinates": [ [ -96.63821700350455, 33.161520001598497 ], [ -96.645501999098968, 33.158150999619032 ] ] } },
{ "type": "Feature", "properties": { "edge_type": "spoke", "region": "ContigUS" }, "geometry": { "type": "LineString", "coordinates": [ [ -95.40265400353158, 35.711450997061043 ], [ -96.534721003676481, 33.819625998388148 ], [ -96.645501999098968, 33.158150999619032 ] ] } },
{ "type": "Feature", "properties": { "edge_type": "spoke", "region": "ContigUS" }, "geometry": { "type": "LineString", "coordinates": [ [ -96.407988003916387, 30.164918001603954 ], [ -95.369149996520562, 29.76382399887828 ] ] } },
{ "type": "Feature", "properties": { "edge_type": "spoke", "region": "ContigUS" }, "geometry": { "type": "LineString", "coordinates": [ [ -96.340600999659131, 30.62260299731491 ], [ -95.41174599625262, 29.877797000810752 ] ] } },
{ "type": "Feature", "properties": { "edge_type": "spoke", "region": "ContigUS" }, "geometry": { "type": "LineString", "coordinates": [ [ -95.95596600272485, 41.304623001495536 ], [ -95.584995998229502, 41.498856001980194 ], [ -94.238759998297539, 41.493552997216028 ], [ -93.49486900122335, 41.661677997072246 ] ] } },
{ "type": "Feature", "properties": { "edge_type": "spoke", "region": "ContigUS" }, "geometry": { "type": "LineString", "coordinates": [ [ -95.481959001579, 30.204270004110274 ], [ -95.41174599625262, 29.877797000810752 ] ] } },
{ "type": "Feature", "properties": { "edge_type": "spoke", "region": "ContigUS" }, "geometry": { "type": "LineString", "coordinates": [ [ -95.41174599625262, 29.877797000810752 ], [ -95.36546100192426, 29.770593000916119 ] ] } },
{ "type": "Feature", "properties": { "edge_type": "spoke", "region": "ContigUS" }, "geometry": { "type": "LineString", "coordinates": [ [ -94.723561003183718, 38.927452997170484 ], [ -94.704332995718502, 37.089525000320201 ], [ -95.220111001805705, 36.557945000035652 ], [ -95.40265400353158, 35.711450997061043 ] ] } },
{ "type": "Feature", "properties": { "edge_type": "spoke", "region": "ContigUS" }, "geometry": { "type": "LineString", "coordinates": [ [ -94.180494002344986, 36.056733000335868 ], [ -94.797372003768146, 35.96801000217873 ], [ -95.073893004543891, 35.807583998136955 ], [ -95.358150997232357, 35.769739997397728 ], [ -95.380725004552133, 35.711184998199727 ], [ -95.40265400353158, 35.711450997061043 ] ] } },
{ "type": "Feature", "properties": { "edge_type": "spoke", "region": "ContigUS" }, "geometry": { "type": "LineString", "coordinates": [ [ -95.381834998849797, 29.742015001268328 ], [ -95.369149996520562, 29.76382399887828 ] ] } },
{ "type": "Feature", "properties": { "edge_type": "spoke", "region": "ContigUS" }, "geometry": { "type": "LineString", "coordinates": [ [ -95.36546100192426, 29.770593000916119 ], [ -95.369149996520562, 29.76382399887828 ] ] } },
{ "type": "Feature", "properties": { "edge_type": "spoke", "region": "ContigUS" }, "geometry": { "type": "LineString", "coordinates": [ [ -91.187656004022656, 30.438982002455589 ], [ -94.85425000379206, 30.053706002209022 ], [ -95.258716999456013, 29.77476499851068 ], [ -95.287600997910275, 29.777969002742338 ], [ -95.336571999853902, 29.769037999427574 ], [ -95.36546100192426, 29.770593000916119 ] ] } },
{ "type": "Feature", "properties": { "edge_type": "spoke", "region": "ContigUS" }, "geometry": { "type": "LineString", "coordinates": [ [ -94.157968000994003, 36.062604997486481 ], [ -94.180494002344986, 36.056733000335868 ] ] } },
{ "type": "Feature", "properties": { "edge_type": "spoke", "region": "ContigUS" }, "geometry": { "type": "LineString", "coordinates": [ [ -94.178069000235496, 36.070369000417486 ], [ -94.180494002344986, 36.056733000335868 ] ] } },
{ "type": "Feature", "properties": { "edge_type": "spoke", "region": "ContigUS" }, "geometry": { "type": "LineString", "coordinates": [ [ -93.644423000090583, 42.022762998890414 ], [ -89.636989999624916, 41.758070000151115 ] ] } },
{ "type": "Feature", "properties": { "edge_type": "spoke", "region": "ContigUS" }, "geometry": { "type": "LineString", "coordinates": [ [ -93.618275997627151, 41.702997002939988 ], [ -93.49486900122335, 41.661677997072246 ] ] } },
{ "type": "Feature", "properties": { "edge_type": "spoke", "region": "ContigUS" }, "geometry": { "type": "LineString", "coordinates": [ [ -93.49486900122335, 41.661677997072246 ], [ -91.601531998888291, 41.693832999028871 ], [ -90.32227000276167, 41.53500000156005 ], [ -89.636989999624916, 41.758070000151115 ] ] } },
{ "type": "Feature", "properties": { "edge_type": "spoke", "region": "ContigUS" }, "geometry": { "type": "LineString", "coordinates": [ [ -93.273076996749907, 44.983549999876878 ], [ -92.773161001775179, 44.961752001014489 ] ] } },
{ "type": "Feature", "properties": { "edge_type": "spoke", "region": "ContigUS" }, "geometry": { "type": "LineString", "coordinates": [ [ -92.773161001775179, 44.961752001014489 ], [ -91.416771999956964, 44.767315997290922 ], [ -90.505267004049003, 44.021193001044288 ], [ -89.494788998819047, 43.491502996889068 ], [ -89.277520002818036, 43.046915999224446 ] ] } },
{ "type": "Feature", "properties": { "edge_type": "spoke", "region": "ContigUS" }, "geometry": { "type": "LineString", "coordinates": [ [ -91.186492003010116, 30.411198002087737 ], [ -91.187656004022656, 30.438982002455589 ] ] } },
{ "type": "Feature", "properties": { "edge_type": "spoke", "region": "ContigUS" }, "geometry": { "type": "LineString", "coordinates": [ [ -90.071759002385392, 29.983184999219159 ], [ -90.80543200446256, 30.153307998519185 ], [ -91.187656004022656, 30.438982002455589 ] ] } },
{ "type": "Feature", "properties": { "edge_type": "spoke", "region": "ContigUS" }, "geometry": { "type": "LineString", "coordinates": [ [ -90.309970000396916, 38.650723999738823 ], [ -89.917473001994935, 38.718661997496781 ], [ -89.642429999356153, 39.321980000406612 ], [ -88.925939998983111, 39.83378999885543 ], [ -87.939717314549227, 40.920693553625675 ] ] } },
{ "type": "Feature", "properties": { "edge_type": "spoke", "region": "ContigUS" }, "geometry": { "type": "LineString", "coordinates": [ [ -89.636989999624916, 41.758070000151115 ], [ -88.437486003977199, 41.765262000163531 ], [ -88.010867002564467, 41.833434002888524 ] ] } },
{ "type": "Feature", "properties": { "edge_type": "spoke", "region": "ContigUS" }, "geometry": { "type": "LineString", "coordinates": [ [ -89.400432000550822, 43.075797999345298 ], [ -89.40057699762086, 43.07294500151847 ] ] } },
{ "type": "Feature", "properties": { "edge_type": "spoke", "region": "ContigUS" }, "geometry": { "type": "LineString", "coordinates": [ [ -89.40057699762086, 43.07294500151847 ], [ -89.277520002818036, 43.046915999224446 ] ] } },
{ "type": "Feature", "properties": { "edge_type": "spoke", "region": "ContigUS" }, "geometry": { "type": "LineString", "coordinates": [ [ -89.277520002818036, 43.046915999224446 ], [ -88.562805001581197, 42.799260998689014 ], [ -87.687729996244514, 41.927964996361659 ] ] } },
{ "type": "Feature", "properties": { "edge_type": "spoke", "region": "ContigUS" }, "geometry": { "type": "LineString", "coordinates": [ [ -88.798611002964606, 33.458579000791026 ], [ -88.280146998245257, 33.490444998361284 ], [ -87.524549425143775, 33.206043756369247 ] ] } },
{ "type": "Feature", "properties": { "edge_type": "spoke", "region": "ContigUS" }, "geometry": { "type": "LineString", "coordinates": [ [ -88.382380002716459, 38.379639996712363 ], [ -88.377820001620634, 39.489070003788207 ], [ -87.939717314549227, 40.920693553625675 ] ] } },
{ "type": "Feature", "properties": { "edge_type": "spoke", "region": "ContigUS" }, "geometry": { "type": "LineString", "coordinates": [ [ -88.067185998953363, 41.830124001405657 ], [ -88.010867002564467, 41.833434002888524 ] ] } },
{ "type": "Feature", "properties": { "edge_type": "spoke", "region": "ContigUS" }, "geometry": { "type": "LineString", "coordinates": [ [ -88.010867002564467, 41.833434002888524 ], [ -87.642450001123436, 41.875610001100156 ] ] } },
{ "type": "Feature", "properties": { "edge_type": "spoke", "region": "ContigUS" }, "geometry": { "type": "LineString", "coordinates": [ [ -87.939717314549227, 40.920693553625675 ], [ -87.928708002960462, 40.9288519974574 ] ] } },
{ "type": "Feature", "properties": { "edge_type": "spoke", "region": "ContigUS" }, "geometry": { "type": "LineString", "coordinates": [ [ -87.939717314549227, 40.920693553625675 ], [ -87.936080000390149, 40.928809999583301 ], [ -87.928708002960462, 40.9288519974574 ] ] } },
{ "type": "Feature", "properties": { "edge_type": "spoke", "region": "ContigUS" }, "geometry": { "type": "LineString", "coordinates": [ [ -87.928708002960462, 40.9288519974574 ], [ -87.630797998488873, 41.79455000278665 ] ] } },
{ "type": "Feature", "properties": { "edge_type": "spoke", "region": "ContigUS" }, "geometry": { "type": "LineString", "coordinates": [ [ -87.898179000574814, 30.60388399993775 ], [ -87.857549996904652, 30.948992001094346 ], [ -87.038474187715721, 31.38215509727959 ], [ -86.334772998986139, 32.327243999532662 ], [ -85.648872996606542, 32.481411001440684 ], [ -85.33165600478992, 32.672906000865062 ] ] } },
{ "type": "Feature", "properties": { "edge_type": "spoke", "region": "ContigUS" }, "geometry": { "type": "LineString", "coordinates": [ [ -87.660729998503015, 42.000591998723344 ], [ -87.711689996249845, 41.997370000363482 ] ] } },
{ "type": "Feature", "properties": { "edge_type": "spoke", "region": "ContigUS" }, "geometry": { "type": "LineString", "coordinates": [ [ -87.710749999136553, 42.040940002347448 ], [ -87.711689996249845, 41.997370000363482 ] ] } },
{ "type": "Feature", "properties": { "edge_type": "spoke", "region": "ContigUS" }, "geometry": { "type": "LineString", "coordinates": [ [ -87.711689996249845, 41.997370000363482 ], [ -87.687729996244514, 41.927964996361659 ] ] } },
{ "type": "Feature", "properties": { "edge_type": "spoke", "region": "ContigUS" }, "geometry": { "type": "LineString", "coordinates": [ [ -87.687729996244514, 41.927964996361659 ], [ -87.630769998001483, 41.878160001725341 ] ] } },
{ "type": "Feature", "properties": { "edge_type": "spoke", "region": "ContigUS" }, "geometry": { "type": "LineString", "coordinates": [ [ -87.64481000113895, 41.850670001063023 ], [ -87.642450001123436, 41.875610001100156 ] ] } },
{ "type": "Feature", "properties": { "edge_type": "spoke", "region": "ContigUS" }, "geometry": { "type": "LineString", "coordinates": [ [ -87.642450001123436, 41.875610001100156 ], [ -87.630769998001483, 41.878160001725341 ] ] } },
{ "type": "Feature", "properties": { "edge_type": "spoke", "region": "ContigUS" }, "geometry": { "type": "LineString", "coordinates": [ [ -87.599845997402227, 41.786473996986224 ], [ -87.630797998488873, 41.79455000278665 ] ] } },
{ "type": "Feature", "properties": { "edge_type": "spoke", "region": "ContigUS" }, "geometry": { "type": "LineString", "coordinates": [ [ -87.630797998488873, 41.79455000278665 ], [ -87.630769998001483, 41.878160001725341 ] ] } },
{ "type": "Feature", "properties": { "edge_type": "spoke", "region": "ContigUS" }, "geometry": { "type": "LineString", "coordinates": [ [ -87.480862000030214, 41.639402999224437 ], [ -87.630769998001483, 41.878160001725341 ] ] } },
{ "type": "Feature", "properties": { "edge_type": "spoke", "region": "ContigUS" }, "geometry": { "type": "LineString", "coordinates": [ [ -87.546553002997342, 33.209569003862285 ], [ -87.524549425143775, 33.206043756369247 ] ] } },
{ "type": "Feature", "properties": { "edge_type": "spoke", "region": "ContigUS" }, "geometry": { "type": "LineString", "coordinates": [ [ -87.524549425143775, 33.206043756369247 ], [ -87.479090998397041, 33.197148998362294 ] ] } },
{ "type": "Feature", "properties": { "edge_type": "spoke", "region": "ContigUS" }, "geometry": { "type": "LineString", "coordinates": [ [ -87.524549425143775, 33.206043756369247 ], [ -87.515861998433337, 33.206000999650513 ], [ -87.493379996564954, 33.206479002829283 ], [ -87.479090998397041, 33.197148998362294 ] ] } },
{ "type": "Feature", "properties": { "edge_type": "spoke", "region": "ContigUS" }, "geometry": { "type": "LineString", "coordinates": [ [ -87.520355003175226, 38.681938002114613 ], [ -87.349315997657698, 40.357032001009372 ], [ -87.470834995845706, 41.490665997395254 ] ] } },
{ "type": "Feature", "properties": { "edge_type": "spoke", "region": "ContigUS" }, "geometry": { "type": "LineString", "coordinates": [ [ -87.470834995845706, 41.490665997395254 ], [ -87.480862000030214, 41.639402999224437 ] ] } },
{ "type": "Feature", "properties": { "edge_type": "spoke", "region": "ContigUS" }, "geometry": { "type": "LineString", "coordinates": [ [ -87.282653996716803, 41.595258996939513 ], [ -87.480862000030214, 41.639402999224437 ] ] } },
{ "type": "Feature", "properties": { "edge_type": "spoke", "region": "ContigUS" }, "geometry": { "type": "LineString", "coordinates": [ [ -87.479090998397041, 33.197148998362294 ], [ -86.395537003131281, 33.595723002930669 ], [ -84.398103998223604, 33.744996003188078 ] ] } },
{ "type": "Feature", "properties": { "edge_type": "spoke", "region": "ContigUS" }, "geometry": { "type": "LineString", "coordinates": [ [ -87.040839999831135, 40.667767997419901 ], [ -87.470834995845706, 41.490665997395254 ] ] } },
{ "type": "Feature", "properties": { "edge_type": "spoke", "region": "ContigUS" }, "geometry": { "type": "LineString", "coordinates": [ [ -85.139783001708494, 41.096295002129935 ], [ -87.017098002978926, 41.448944998860419 ], [ -87.235527999619478, 41.530539999069198 ], [ -87.240435999073171, 41.595225003455738 ], [ -87.271754000756033, 41.596861997785886 ], [ -87.282653996716803, 41.595258996939513 ] ] } },
{ "type": "Feature", "properties": { "edge_type": "spoke", "region": "ContigUS" }, "geometry": { "type": "LineString", "coordinates": [ [ -86.720693997131718, 41.800645000915154 ], [ -87.282653996716803, 41.595258996939513 ] ] } },
{ "type": "Feature", "properties": { "edge_type": "spoke", "region": "ContigUS" }, "geometry": { "type": "LineString", "coordinates": [ [ -86.912378003660521, 40.429851000955146 ], [ -87.040839999831135, 40.667767997419901 ] ] } },
{ "type": "Feature", "properties": { "edge_type": "spoke", "region": "ContigUS" }, "geometry": { "type": "LineString", "coordinates": [ [ -86.868334000538866, 40.496953997935108 ], [ -87.040839999831135, 40.667767997419901 ] ] } },
{ "type": "Feature", "properties": { "edge_type": "spoke", "region": "ContigUS" }, "geometry": { "type": "LineString", "coordinates": [ [ -86.52691299933629, 39.164307002862159 ], [ -86.865410002255359, 39.644025998296271 ], [ -86.868334000538866, 40.496953997935108 ] ] } },
{ "type": "Feature", "properties": { "edge_type": "spoke", "region": "ContigUS" }, "geometry": { "type": "LineString", "coordinates": [ [ -86.156627996177704, 39.804026001611142 ], [ -86.868334000538866, 40.496953997935108 ] ] } },
{ "type": "Feature", "properties": { "edge_type": "spoke", "region": "ContigUS" }, "geometry": { "type": "LineString", "coordinates": [ [ -86.775164997284435, 36.161842996358104 ], [ -85.733160698006699, 35.070245065074438 ], [ -85.074461996840611, 34.89255300199379 ], [ -85.000935995763228, 34.79358599853154 ], [ -85.002924003419565, 34.691305000322401 ], [ -84.935985995107643, 34.557037999080414 ] ] } },
{ "type": "Feature", "properties": { "edge_type": "spoke", "region": "ContigUS" }, "geometry": { "type": "LineString", "coordinates": [ [ -84.476337000709862, 42.733056000517649 ], [ -85.180301997688971, 42.298488001457095 ], [ -86.305218003930406, 42.17570999635462 ], [ -86.720693997131718, 41.800645000915154 ] ] } },
{ "type": "Feature", "properties": { "edge_type": "spoke", "region": "ContigUS" }, "geometry": { "type": "LineString", "coordinates": [ [ -86.22094299572521, 41.807625999835039 ], [ -86.44106600226597, 41.793246997439219 ], [ -86.720693997131718, 41.800645000915154 ] ] } },
{ "type": "Feature", "properties": { "edge_type": "spoke", "region": "ContigUS" }, "geometry": { "type": "LineString", "coordinates": [ [ -86.589600000060713, 34.737950003176266 ], [ -84.932355004729246, 34.376931998396088 ] ] } },
{ "type": "Feature", "properties": { "edge_type": "spoke", "region": "ContigUS" }, "geometry": { "type": "LineString", "coordinates": [ [ -83.744303998948055, 42.274378997420335 ], [ -84.358649999928218, 42.27688300271906 ], [ -86.22094299572521, 41.807625999835039 ] ] } },
{ "type": "Feature", "properties": { "edge_type": "spoke", "region": "ContigUS" }, "geometry": { "type": "LineString", "coordinates": [ [ -83.061890995989984, 42.331549001832514 ], [ -85.389149000440483, 41.802873998148662 ], [ -86.22094299572521, 41.807625999835039 ] ] } },
{ "type": "Feature", "properties": { "edge_type": "spoke", "region": "ContigUS" }, "geometry": { "type": "LineString", "coordinates": [ [ -85.481724001696449, 32.598721002230235 ], [ -85.33165600478992, 32.672906000865062 ] ] } },
{ "type": "Feature", "properties": { "edge_type": "spoke", "region": "ContigUS" }, "geometry": { "type": "LineString", "coordinates": [ [ -85.33165600478992, 32.672906000865062 ], [ -84.389971999114124, 33.744871999364811 ] ] } },
{ "type": "Feature", "properties": { "edge_type": "spoke", "region": "ContigUS" }, "geometry": { "type": "LineString", "coordinates": [ [ -84.201690999527784, 39.757879000184239 ], [ -84.6204840039494, 40.067310998960693 ], [ -84.580362997572408, 40.651254000674903 ], [ -84.937623004033057, 40.829288000562791 ], [ -85.126735996286087, 41.02134699629886 ], [ -85.139783001708494, 41.096295002129935 ] ] } },
{ "type": "Feature", "properties": { "edge_type": "spoke", "region": "ContigUS" }, "geometry": { "type": "LineString", "coordinates": [ [ -82.98705800007312, 39.968164002344075 ], [ -83.607990996688784, 40.647170002314489 ], [ -85.139783001708494, 41.096295002129935 ] ] } },
{ "type": "Feature", "properties": { "edge_type": "spoke", "region": "ContigUS" }, "geometry": { "type": "LineString", "coordinates": [ [ -84.506322001325785, 38.039632996950658 ], [ -85.182222811362081, 36.816086500779704 ], [ -84.928178997484821, 36.454163998130568 ], [ -85.061546190365434, 36.060849784000297 ], [ -84.840591137259068, 35.735623885787575 ], [ -85.018618002624478, 35.484824001326949 ], [ -84.845118996634028, 35.159784999977965 ], [ -84.935985995107643, 34.557037999080414 ] ] } },
{ "type": "Feature", "properties": { "edge_type": "spoke", "region": "ContigUS" }, "geometry": { "type": "LineString", "coordinates": [ [ -84.935985995107643, 34.557037999080414 ], [ -84.932355004729246, 34.376931998396088 ] ] } },
{ "type": "Feature", "properties": { "edge_type": "spoke", "region": "ContigUS" }, "geometry": { "type": "LineString", "coordinates": [ [ -84.932355004729246, 34.376931998396088 ], [ -84.516156999601478, 33.950783003788459 ] ] } },
{ "type": "Feature", "properties": { "edge_type": "spoke", "region": "ContigUS" }, "geometry": { "type": "LineString", "coordinates": [ [ -83.924781001284586, 35.949370002900579 ], [ -84.3715250049232, 35.509273999900955 ], [ -84.516156999601478, 33.950783003788459 ] ] } },
{ "type": "Feature", "properties": { "edge_type": "spoke", "region": "ContigUS" }, "geometry": { "type": "LineString", "coordinates": [ [ -84.516156999601478, 33.950783003788459 ], [ -84.390065998825463, 33.77126600221122 ] ] } },
{ "type": "Feature", "properties": { "edge_type": "spoke", "region": "ContigUS" }, "geometry": { "type": "LineString", "coordinates": [ [ -84.398103998223604, 33.744996003188078 ], [ -84.389971999114124, 33.744871999364811 ] ] } },
{ "type": "Feature", "properties": { "edge_type": "spoke", "region": "ContigUS" }, "geometry": { "type": "LineString", "coordinates": [ [ -84.390670996202985, 33.758395000993893 ], [ -84.398103998223604, 33.744996003188078 ] ] } },
{ "type": "Feature", "properties": { "edge_type": "spoke", "region": "ContigUS" }, "geometry": { "type": "LineString", "coordinates": [ [ -84.396163996536032, 33.771347000688813 ], [ -84.390065998825463, 33.77126600221122 ] ] } },
{ "type": "Feature", "properties": { "edge_type": "spoke", "region": "ContigUS" }, "geometry": { "type": "LineString", "coordinates": [ [ -84.390065998825463, 33.77126600221122 ], [ -84.378862003989411, 33.759473003137998 ] ] } },
{ "type": "Feature", "properties": { "edge_type": "spoke", "region": "ContigUS" }, "geometry": { "type": "LineString", "coordinates": [ [ -84.378862003989411, 33.759473003137998 ], [ -84.389971999114124, 33.744871999364811 ] ] } },
{ "type": "Feature", "properties": { "edge_type": "spoke", "region": "ContigUS" }, "geometry": { "type": "LineString", "coordinates": [ [ -78.88674299910312, 33.689786003136504 ], [ -79.408116997370712, 33.912581002434671 ], [ -81.013376002119927, 34.007589000416324 ], [ -82.137256996440456, 33.481041996383993 ], [ -84.389971999114124, 33.744871999364811 ] ] } },
{ "type": "Feature", "properties": { "edge_type": "spoke", "region": "ContigUS" }, "geometry": { "type": "LineString", "coordinates": [ [ -84.34898199846387, 33.773833998261495 ], [ -84.378862003989411, 33.759473003137998 ] ] } },
{ "type": "Feature", "properties": { "edge_type": "spoke", "region": "ContigUS" }, "geometry": { "type": "LineString", "coordinates": [ [ -83.372736003934349, 33.958308997978705 ], [ -83.926508003435146, 33.982988999258112 ], [ -84.34898199846387, 33.773833998261495 ] ] } },
{ "type": "Feature", "properties": { "edge_type": "spoke", "region": "ContigUS" }, "geometry": { "type": "LineString", "coordinates": [ [ -82.994591999681134, 34.500143997209818 ], [ -84.34898199846387, 33.773833998261495 ] ] } },
{ "type": "Feature", "properties": { "edge_type": "spoke", "region": "ContigUS" }, "geometry": { "type": "LineString", "coordinates": [ [ -83.047015999812757, 42.331643003548294 ], [ -83.061890995989984, 42.331549001832514 ] ] } },
{ "type": "Feature", "properties": { "edge_type": "spoke", "region": "ContigUS" }, "geometry": { "type": "LineString", "coordinates": [ [ -83.054343000629842, 42.327720000957711 ], [ -83.061890995989984, 42.331549001832514 ] ] } },
{ "type": "Feature", "properties": { "edge_type": "spoke", "region": "ContigUS" }, "geometry": { "type": "LineString", "coordinates": [ [ -82.075191998201916, 34.939248002431647 ], [ -82.994591999681134, 34.500143997209818 ] ] } },
{ "type": "Feature", "properties": { "edge_type": "spoke", "region": "ContigUS" }, "geometry": { "type": "LineString", "coordinates": [ [ -82.823535000908436, 34.682811997903485 ], [ -82.994591999681134, 34.500143997209818 ] ] } },
{ "type": "Feature", "properties": { "edge_type": "spoke", "region": "ContigUS" }, "geometry": { "type": "LineString", "coordinates": [ [ -82.458772004683397, 27.947397998866681 ], [ -81.970086001789042, 28.08496899771011 ] ] } },
{ "type": "Feature", "properties": { "edge_type": "spoke", "region": "ContigUS" }, "geometry": { "type": "LineString", "coordinates": [ [ -82.352170996042105, 29.652066996031831 ], [ -81.887530000728418, 28.826413001897102 ], [ -81.382244002749346, 28.553082000437694 ] ] } },
{ "type": "Feature", "properties": { "edge_type": "spoke", "region": "ContigUS" }, "geometry": { "type": "LineString", "coordinates": [ [ -82.15704000105454, 27.065525001333409 ], [ -82.049071001965942, 26.935111997101874 ] ] } },
{ "type": "Feature", "properties": { "edge_type": "spoke", "region": "ContigUS" }, "geometry": { "type": "LineString", "coordinates": [ [ -80.844206004433076, 35.22641400200304 ], [ -81.29834999700563, 35.249783999120517 ], [ -82.075191998201916, 34.939248002431647 ] ] } },
{ "type": "Feature", "properties": { "edge_type": "spoke", "region": "ContigUS" }, "geometry": { "type": "LineString", "coordinates": [ [ -81.932057998158839, 34.94950400023621 ], [ -82.003258997584197, 34.935543003015901 ], [ -82.075191998201916, 34.939248002431647 ] ] } },
{ "type": "Feature", "properties": { "edge_type": "spoke", "region": "ContigUS" }, "geometry": { "type": "LineString", "coordinates": [ [ -82.049071001965942, 26.935111997101874 ], [ -82.018868995326869, 26.940644997406398 ] ] } },
{ "type": "Feature", "properties": { "edge_type": "spoke", "region": "ContigUS" }, "geometry": { "type": "LineString", "coordinates": [ [ -82.047340999442355, 26.929873001595016 ], [ -82.049071001965942, 26.935111997101874 ] ] } },
{ "type": "Feature", "properties": { "edge_type": "spoke", "region": "ContigUS" }, "geometry": { "type": "LineString", "coordinates": [ [ -82.018868995326869, 26.940644997406398 ], [ -81.852611003414466, 27.233772002098771 ] ] } },
{ "type": "Feature", "properties": { "edge_type": "spoke", "region": "ContigUS" }, "geometry": { "type": "LineString", "coordinates": [ [ -81.990003996240873, 26.645247998876641 ], [ -82.018868995326869, 26.940644997406398 ] ] } },
{ "type": "Feature", "properties": { "edge_type": "spoke", "region": "ContigUS" }, "geometry": { "type": "LineString", "coordinates": [ [ -81.970086001789042, 28.08496899771011 ], [ -81.743839000293391, 28.181935997939661 ] ] } },
{ "type": "Feature", "properties": { "edge_type": "spoke", "region": "ContigUS" }, "geometry": { "type": "LineString", "coordinates": [ [ -81.944900996180237, 28.042233000810381 ], [ -81.970086001789042, 28.08496899771011 ] ] } },
{ "type": "Feature", "properties": { "edge_type": "spoke", "region": "ContigUS" }, "geometry": { "type": "LineString", "coordinates": [ [ -81.852611003414466, 27.233772002098771 ], [ -81.743839000293391, 28.181935997939661 ] ] } },
{ "type": "Feature", "properties": { "edge_type": "spoke", "region": "ContigUS" }, "geometry": { "type": "LineString", "coordinates": [ [ -81.795599998829601, 26.147701000940319 ], [ -81.852611003414466, 27.233772002098771 ] ] } },
{ "type": "Feature", "properties": { "edge_type": "spoke", "region": "ContigUS" }, "geometry": { "type": "LineString", "coordinates": [ [ -81.783677001423285, 24.559694003570545 ], [ -80.513181996531074, 25.013268999600246 ], [ -80.430827002498404, 25.950604997474656 ] ] } },
{ "type": "Feature", "properties": { "edge_type": "spoke", "region": "ContigUS" }, "geometry": { "type": "LineString", "coordinates": [ [ -81.743839000293391, 28.181935997939661 ], [ -81.396946998499118, 28.510076003516591 ] ] } },
{ "type": "Feature", "properties": { "edge_type": "spoke", "region": "ContigUS" }, "geometry": { "type": "LineString", "coordinates": [ [ -81.672861995784174, 41.482376002156926 ], [ -81.371355002167661, 41.255899996868038 ], [ -80.981159999563275, 41.236696000438236 ], [ -79.67818800457492, 40.315403996990398 ] ] } },
{ "type": "Feature", "properties": { "edge_type": "spoke", "region": "ContigUS" }, "geometry": { "type": "LineString", "coordinates": [ [ -81.653773002609157, 30.316308000599559 ], [ -81.26506199888783, 29.552875000938702 ], [ -81.382244002749346, 28.553082000437694 ] ] } },
{ "type": "Feature", "properties": { "edge_type": "spoke", "region": "ContigUS" }, "geometry": { "type": "LineString", "coordinates": [ [ -81.396946998499118, 28.510076003516591 ], [ -81.387857997167998, 28.516202996750717 ], [ -81.383146001126136, 28.535142002412584 ], [ -81.38482600342104, 28.535136998936501 ] ] } },
{ "type": "Feature", "properties": { "edge_type": "spoke", "region": "ContigUS" }, "geometry": { "type": "LineString", "coordinates": [ [ -80.894938000777614, 27.695747997879671 ], [ -81.283782503133324, 28.116301551260193 ], [ -81.396946998499118, 28.510076003516591 ] ] } },
{ "type": "Feature", "properties": { "edge_type": "spoke", "region": "ContigUS" }, "geometry": { "type": "LineString", "coordinates": [ [ -81.387766000699742, 28.535128996531039 ], [ -81.38482600342104, 28.535136998936501 ] ] } },
{ "type": "Feature", "properties": { "edge_type": "spoke", "region": "ContigUS" }, "geometry": { "type": "LineString", "coordinates": [ [ -81.38482600342104, 28.535136998936501 ], [ -81.379095003436632, 28.545677998876965 ] ] } },
{ "type": "Feature", "properties": { "edge_type": "spoke", "region": "ContigUS" }, "geometry": { "type": "LineString", "coordinates": [ [ -81.382244002749346, 28.553082000437694 ], [ -81.379095003436632, 28.545677998876965 ] ] } },
{ "type": "Feature", "properties": { "edge_type": "spoke", "region": "ContigUS" }, "geometry": { "type": "LineString", "coordinates": [ [ -80.67142000026675, 27.999077000266826 ], [ -81.243844995619412, 28.246121004305305 ], [ -81.379095003436632, 28.545677998876965 ] ] } },
{ "type": "Feature", "properties": { "edge_type": "spoke", "region": "ContigUS" }, "geometry": { "type": "LineString", "coordinates": [ [ -81.207736000048584, 28.597745998641177 ], [ -81.379095003436632, 28.545677998876965 ] ] } },
{ "type": "Feature", "properties": { "edge_type": "spoke", "region": "ContigUS" }, "geometry": { "type": "LineString", "coordinates": [ [ -80.430827002498404, 25.950604997474656 ], [ -80.894938000777614, 27.695747997879671 ] ] } },
{ "type": "Feature", "properties": { "edge_type": "spoke", "region": "ContigUS" }, "geometry": { "type": "LineString", "coordinates": [ [ -80.280024004026401, 27.125234999164562 ], [ -80.449958000896103, 27.476971002599875 ], [ -80.894938000777614, 27.695747997879671 ] ] } },
{ "type": "Feature", "properties": { "edge_type": "spoke", "region": "ContigUS" }, "geometry": { "type": "LineString", "coordinates": [ [ -80.385296000120618, 25.900674995754748 ], [ -80.430827002498404, 25.950604997474656 ] ] } },
{ "type": "Feature", "properties": { "edge_type": "spoke", "region": "ContigUS" }, "geometry": { "type": "LineString", "coordinates": [ [ -80.372391997508302, 25.761229001136751 ], [ -80.385296000120618, 25.900674995754748 ] ] } },
{ "type": "Feature", "properties": { "edge_type": "spoke", "region": "ContigUS" }, "geometry": { "type": "LineString", "coordinates": [ [ -80.217638998934206, 25.784246001038369 ], [ -80.385296000120618, 25.900674995754748 ] ] } },
{ "type": "Feature", "properties": { "edge_type": "spoke", "region": "ContigUS" }, "geometry": { "type": "LineString", "coordinates": [ [ -80.195951925945664, 26.994424457720143 ], [ -80.229654001791928, 27.024011002680261 ], [ -80.280024004026401, 27.125234999164562 ] ] } },
{ "type": "Feature", "properties": { "edge_type": "spoke", "region": "ContigUS" }, "geometry": { "type": "LineString", "coordinates": [ [ -80.195951925945664, 26.994424457720143 ], [ -80.280024004026401, 27.125234999164562 ] ] } },
{ "type": "Feature", "properties": { "edge_type": "spoke", "region": "ContigUS" }, "geometry": { "type": "LineString", "coordinates": [ [ -80.182078967166035, 26.976571589012789 ], [ -80.195951925945664, 26.994424457720143 ] ] } },
{ "type": "Feature", "properties": { "edge_type": "spoke", "region": "ContigUS" }, "geometry": { "type": "LineString", "coordinates": [ [ -80.182078967166035, 26.976571589012789 ], [ -80.19453220081941, 26.993178102407498 ], [ -80.195951925945664, 26.994424457720143 ] ] } },
{ "type": "Feature", "properties": { "edge_type": "spoke", "region": "ContigUS" }, "geometry": { "type": "LineString", "coordinates": [ [ -80.190426998785682, 25.77907699887194 ], [ -80.16748000197677, 26.245222997341191 ] ] } },
{ "type": "Feature", "properties": { "edge_type": "spoke", "region": "ContigUS" }, "geometry": { "type": "LineString", "coordinates": [ [ -80.16748000197677, 26.245222997341191 ], [ -80.182078967166035, 26.976571589012789 ] ] } },
{ "type": "Feature", "properties": { "edge_type": "spoke", "region": "ContigUS" }, "geometry": { "type": "LineString", "coordinates": [ [ -80.064738003082454, 26.707430003474744 ], [ -80.182078967166035, 26.976571589012789 ] ] } },
{ "type": "Feature", "properties": { "edge_type": "spoke", "region": "ContigUS" }, "geometry": { "type": "LineString", "coordinates": [ [ -80.155257003198201, 26.188458003182756 ], [ -80.156747002827359, 26.23121699730244 ], [ -80.165589003387964, 26.231424000287081 ], [ -80.164822003832072, 26.245252002811711 ], [ -80.16748000197677, 26.245222997341191 ] ] } },
{ "type": "Feature", "properties": { "edge_type": "spoke", "region": "ContigUS" }, "geometry": { "type": "LineString", "coordinates": [ [ -80.159333998132041, 26.188397997024744 ], [ -80.155257003198201, 26.188458003182756 ] ] } },
{ "type": "Feature", "properties": { "edge_type": "spoke", "region": "ContigUS" }, "geometry": { "type": "LineString", "coordinates": [ [ -80.140521003344901, 26.122354999724383 ], [ -80.155257003198201, 26.188458003182756 ] ] } },
{ "type": "Feature", "properties": { "edge_type": "spoke", "region": "ContigUS" }, "geometry": { "type": "LineString", "coordinates": [ [ -79.95658100457122, 39.633102003288549 ], [ -79.463100998432722, 39.391186997015716 ], [ -77.609435000416241, 39.140285003661688 ], [ -77.069040999587443, 38.904140000309646 ] ] } },
{ "type": "Feature", "properties": { "edge_type": "spoke", "region": "ContigUS" }, "geometry": { "type": "LineString", "coordinates": [ [ -79.954775004574586, 40.444417002621002 ], [ -79.67818800457492, 40.315403996990398 ] ] } },
{ "type": "Feature", "properties": { "edge_type": "spoke", "region": "ContigUS" }, "geometry": { "type": "LineString", "coordinates": [ [ -79.67818800457492, 40.315403996990398 ], [ -77.999042998898219, 39.93256199971362 ] ] } },
{ "type": "Feature", "properties": { "edge_type": "spoke", "region": "ContigUS" }, "geometry": { "type": "LineString", "coordinates": [ [ -79.05404600118554, 35.910276000586414 ], [ -78.903050996804751, 35.990148002166521 ] ] } },
{ "type": "Feature", "properties": { "edge_type": "spoke", "region": "ContigUS" }, "geometry": { "type": "LineString", "coordinates": [ [ -78.937263999153743, 36.00815400085731 ], [ -78.903050996804751, 35.990148002166521 ] ] } },
{ "type": "Feature", "properties": { "edge_type": "spoke", "region": "ContigUS" }, "geometry": { "type": "LineString", "coordinates": [ [ -78.903050996804751, 35.990148002166521 ], [ -78.361691001618325, 36.369693998785586 ] ] } },
{ "type": "Feature", "properties": { "edge_type": "spoke", "region": "ContigUS" }, "geometry": { "type": "LineString", "coordinates": [ [ -78.877540001562451, 42.886244998473259 ], [ -78.636532997229097, 42.214365997177644 ], [ -78.682683998849669, 41.496256002392833 ], [ -78.537575995885504, 41.108091002524496 ], [ -78.223202001263218, 40.89971099770591 ], [ -78.234917002748645, 40.670796999965695 ], [ -78.058132004364609, 40.498313001104606 ], [ -77.999083998007777, 40.47665199856818 ] ] } },
{ "type": "Feature", "properties": { "edge_type": "spoke", "region": "ContigUS" }, "geometry": { "type": "LineString", "coordinates": [ [ -78.67552400382705, 35.78070900250372 ], [ -78.642711996028851, 35.785435002060808 ] ] } },
{ "type": "Feature", "properties": { "edge_type": "spoke", "region": "ContigUS" }, "geometry": { "type": "LineString", "coordinates": [ [ -78.642711996028851, 35.785435002060808 ], [ -78.361691001618325, 36.369693998785586 ] ] } },
{ "type": "Feature", "properties": { "edge_type": "spoke", "region": "ContigUS" }, "geometry": { "type": "LineString", "coordinates": [ [ -78.638136004921009, 35.779561002569402 ], [ -78.642711996028851, 35.785435002060808 ] ] } },
{ "type": "Feature", "properties": { "edge_type": "spoke", "region": "ContigUS" }, "geometry": { "type": "LineString", "coordinates": [ [ -78.503467000480072, 38.036717001469206 ], [ -78.241778999642051, 38.39132499706038 ], [ -77.431408997433493, 38.83858199751544 ], [ -77.069040999587443, 38.904140000309646 ] ] } },
{ "type": "Feature", "properties": { "edge_type": "spoke", "region": "ContigUS" }, "geometry": { "type": "LineString", "coordinates": [ [ -78.361691001618325, 36.369693998785586 ], [ -77.403050998510722, 37.232682998454386 ] ] } },
{ "type": "Feature", "properties": { "edge_type": "spoke", "region": "ContigUS" }, "geometry": { "type": "LineString", "coordinates": [ [ -77.861583000734768, 40.794432001786952 ], [ -77.999083998007777, 40.47665199856818 ] ] } },
{ "type": "Feature", "properties": { "edge_type": "spoke", "region": "ContigUS" }, "geometry": { "type": "LineString", "coordinates": [ [ -77.999083998007777, 40.47665199856818 ], [ -77.863369004233164, 40.18536399874165 ], [ -77.999042998898219, 39.93256199971362 ] ] } },
{ "type": "Feature", "properties": { "edge_type": "spoke", "region": "ContigUS" }, "geometry": { "type": "LineString", "coordinates": [ [ -77.999042998898219, 39.93256199971362 ], [ -77.036867999383475, 38.907353000102653 ] ] } },
{ "type": "Feature", "properties": { "edge_type": "spoke", "region": "ContigUS" }, "geometry": { "type": "LineString", "coordinates": [ [ -77.944862001868671, 34.225555996116107 ], [ -78.135778002728472, 35.11645900080309 ], [ -77.403050998510722, 37.232682998454386 ] ] } },
{ "type": "Feature", "properties": { "edge_type": "spoke", "region": "ContigUS" }, "geometry": { "type": "LineString", "coordinates": [ [ -77.403050998510722, 37.232682998454386 ], [ -77.497494001484256, 38.255629002474265 ], [ -77.176044004318413, 38.789333996434074 ], [ -77.048302995994845, 38.867277996777268 ], [ -77.03215499722846, 38.883557996867133 ], [ -77.036529999274663, 38.907020999493817 ] ] } },
{ "type": "Feature", "properties": { "edge_type": "spoke", "region": "ContigUS" }, "geometry": { "type": "LineString", "coordinates": [ [ -77.238814000391912, 38.836824998974905 ], [ -77.03944600255214, 38.902522998090483 ] ] } },
{ "type": "Feature", "properties": { "edge_type": "spoke", "region": "ContigUS" }, "geometry": { "type": "LineString", "coordinates": [ [ -77.069040999587443, 38.904140000309646 ], [ -77.049450000882203, 38.902526996844415 ] ] } },
{ "type": "Feature", "properties": { "edge_type": "spoke", "region": "ContigUS" }, "geometry": { "type": "LineString", "coordinates": [ [ -77.050131004715951, 38.899574002553976 ], [ -77.049450000882203, 38.902526996844415 ] ] } },
{ "type": "Feature", "properties": { "edge_type": "spoke", "region": "ContigUS" }, "geometry": { "type": "LineString", "coordinates": [ [ -77.049450000882203, 38.902526996844415 ], [ -77.03944600255214, 38.902522998090483 ] ] } },
{ "type": "Feature", "properties": { "edge_type": "spoke", "region": "ContigUS" }, "geometry": { "type": "LineString", "coordinates": [ [ -77.03944600255214, 38.902522998090483 ], [ -77.036529999274663, 38.907020999493817 ] ] } },
{ "type": "Feature", "properties": { "edge_type": "spoke", "region": "ContigUS" }, "geometry": { "type": "LineString", "coordinates": [ [ -76.627540004121443, 39.286036002905014 ], [ -77.036867999383475, 38.907353000102653 ] ] } },
{ "type": "Feature", "properties": { "edge_type": "spoke", "region": "ContigUS" }, "geometry": { "type": "LineString", "coordinates": [ [ -77.036529999274663, 38.907020999493817 ], [ -77.036867999383475, 38.907353000102653 ] ] } },
{ "type": "Feature", "properties": { "edge_type": "spoke", "region": "ContigUS" }, "geometry": { "type": "LineString", "coordinates": [ [ -75.753610997559036, 39.681655998144741 ], [ -76.627540004121443, 39.286036002905014 ] ] } },
{ "type": "Feature", "properties": { "edge_type": "spoke", "region": "ContigUS" }, "geometry": { "type": "LineString", "coordinates": [ [ -76.607024001184996, 39.397225003461635 ], [ -76.627540004121443, 39.286036002905014 ] ] } },
{ "type": "Feature", "properties": { "edge_type": "spoke", "region": "ContigUS" }, "geometry": { "type": "LineString", "coordinates": [ [ -76.474933997042697, 42.443502003257997 ], [ -75.978339001808138, 42.338336002861602 ] ] } },
{ "type": "Feature", "properties": { "edge_type": "spoke", "region": "ContigUS" }, "geometry": { "type": "LineString", "coordinates": [ [ -76.142021999908067, 43.038475997540715 ], [ -76.180868000452847, 42.613302002040029 ], [ -75.978339001808138, 42.338336002861602 ] ] } },
{ "type": "Feature", "properties": { "edge_type": "spoke", "region": "ContigUS" }, "geometry": { "type": "LineString", "coordinates": [ [ -75.978339001808138, 42.338336002861602 ], [ -75.669714997555374, 41.708491001504939 ], [ -74.806484000762069, 41.324224001623676 ], [ -74.58503199964052, 40.91825900025907 ], [ -74.177160999904132, 40.736902997419172 ] ] } },
{ "type": "Feature", "properties": { "edge_type": "spoke", "region": "ContigUS" }, "geometry": { "type": "LineString", "coordinates": [ [ -75.19259099508723, 39.950439002724764 ], [ -74.407005996657787, 40.499774999944535 ] ] } },
{ "type": "Feature", "properties": { "edge_type": "spoke", "region": "ContigUS" }, "geometry": { "type": "LineString", "coordinates": [ [ -74.447769002018887, 40.497406000154605 ], [ -74.407005996657787, 40.499774999944535 ] ] } },
{ "type": "Feature", "properties": { "edge_type": "spoke", "region": "ContigUS" }, "geometry": { "type": "LineString", "coordinates": [ [ -74.407005996657787, 40.499774999944535 ], [ -74.125325001024876, 40.734430002572367 ] ] } },
{ "type": "Feature", "properties": { "edge_type": "spoke", "region": "ContigUS" }, "geometry": { "type": "LineString", "coordinates": [ [ -74.182888002385511, 40.735726999987378 ], [ -74.177160999904132, 40.736902997419172 ] ] } },
{ "type": "Feature", "properties": { "edge_type": "spoke", "region": "ContigUS" }, "geometry": { "type": "LineString", "coordinates": [ [ -74.177160999904132, 40.736902997419172 ], [ -74.125325001024876, 40.734430002572367 ] ] } },
{ "type": "Feature", "properties": { "edge_type": "spoke", "region": "ContigUS" }, "geometry": { "type": "LineString", "coordinates": [ [ -74.125325001024876, 40.734430002572367 ], [ -74.004038001742117, 40.713144002086054 ] ] } },
{ "type": "Feature", "properties": { "edge_type": "spoke", "region": "ContigUS" }, "geometry": { "type": "LineString", "coordinates": [ [ -73.917641999285905, 40.81605499760596 ], [ -74.004051997494258, 40.711724999304082 ] ] } },
{ "type": "Feature", "properties": { "edge_type": "spoke", "region": "ContigUS" }, "geometry": { "type": "LineString", "coordinates": [ [ -74.004051997494258, 40.711724999304082 ], [ -74.004038001742117, 40.713144002086054 ] ] } },
{ "type": "Feature", "properties": { "edge_type": "spoke", "region": "ContigUS" }, "geometry": { "type": "LineString", "coordinates": [ [ -73.588715997746803, 40.824912001744259 ], [ -73.744203000756414, 40.765328002929628 ], [ -73.825917001918086, 40.764313997853911 ], [ -73.957044003092633, 40.710363001646982 ], [ -74.004051997494258, 40.711724999304082 ] ] } },
{ "type": "Feature", "properties": { "edge_type": "spoke", "region": "ContigUS" }, "geometry": { "type": "LineString", "coordinates": [ [ -73.958250997474678, 40.810624998890574 ], [ -74.004038001742117, 40.713144002086054 ] ] } },
{ "type": "Feature", "properties": { "edge_type": "spoke", "region": "ContigUS" }, "geometry": { "type": "LineString", "coordinates": [ [ -73.235480003584527, 41.1651889984755 ], [ -73.917641999285905, 40.81605499760596 ] ] } },
{ "type": "Feature", "properties": { "edge_type": "spoke", "region": "ContigUS" }, "geometry": { "type": "LineString", "coordinates": [ [ -73.200681003226251, 44.476353999735963 ], [ -73.57460700399551, 41.415297001300452 ], [ -73.917641999285905, 40.81605499760596 ] ] } },
{ "type": "Feature", "properties": { "edge_type": "spoke", "region": "ContigUS" }, "geometry": { "type": "LineString", "coordinates": [ [ -72.926514998849896, 41.310241001700177 ], [ -73.235480003584527, 41.1651889984755 ] ] } },
{ "type": "Feature", "properties": { "edge_type": "spoke", "region": "ContigUS" }, "geometry": { "type": "LineString", "coordinates": [ [ -72.80883000131135, 41.491475996816725 ], [ -73.235480003584527, 41.1651889984755 ] ] } },
{ "type": "Feature", "properties": { "edge_type": "spoke", "region": "ContigUS" }, "geometry": { "type": "LineString", "coordinates": [ [ -71.400536001016903, 41.827281999954813 ], [ -72.134190003725791, 41.771389998506223 ], [ -72.80883000131135, 41.491475996816725 ] ] } },
{ "type": "Feature", "properties": { "edge_type": "spoke", "region": "ContigUS" }, "geometry": { "type": "LineString", "coordinates": [ [ -72.668235996717272, 41.726388997045476 ], [ -72.80883000131135, 41.491475996816725 ] ] } },
{ "type": "Feature", "properties": { "edge_type": "spoke", "region": "ContigUS" }, "geometry": { "type": "LineString", "coordinates": [ [ -72.673032003204511, 41.768530999411688 ], [ -72.668235996717272, 41.726388997045476 ] ] } },
{ "type": "Feature", "properties": { "edge_type": "spoke", "region": "ContigUS" }, "geometry": { "type": "LineString", "coordinates": [ [ -72.643524996151271, 41.75869699936559 ], [ -72.668235996717272, 41.726388997045476 ] ] } },
{ "type": "Feature", "properties": { "edge_type": "spoke", "region": "ContigUS" }, "geometry": { "type": "LineString", "coordinates": [ [ -72.569909998978673, 41.780129997059703 ], [ -72.643524996151271, 41.75869699936559 ] ] } },
{ "type": "Feature", "properties": { "edge_type": "spoke", "region": "ContigUS" }, "geometry": { "type": "LineString", "coordinates": [ [ -72.52709799933659, 42.384930002223285 ], [ -72.643524996151271, 41.75869699936559 ] ] } },
{ "type": "Feature", "properties": { "edge_type": "spoke", "region": "ContigUS" }, "geometry": { "type": "LineString", "coordinates": [ [ -72.079407997838572, 42.114021002515408 ], [ -72.569909998978673, 41.780129997059703 ] ] } },
{ "type": "Feature", "properties": { "edge_type": "spoke", "region": "ContigUS" }, "geometry": { "type": "LineString", "coordinates": [ [ -72.248899996639011, 41.810708001022249 ], [ -72.266204001411879, 41.827670002436122 ], [ -72.302878998493767, 41.804499996616748 ], [ -72.535001997043821, 41.772600002309723 ], [ -72.569909998978673, 41.780129997059703 ] ] } },
{ "type": "Feature", "properties": { "edge_type": "spoke", "region": "ContigUS" }, "geometry": { "type": "LineString", "coordinates": [ [ -71.813583457556206, 42.204323886920037 ], [ -72.079407997838572, 42.114021002515408 ] ] } },
{ "type": "Feature", "properties": { "edge_type": "spoke", "region": "ContigUS" }, "geometry": { "type": "LineString", "coordinates": [ [ -71.813583457556206, 42.204323886920037 ], [ -72.059052002820536, 42.129773999916132 ], [ -72.079407997838572, 42.114021002515408 ] ] } },
{ "type": "Feature", "properties": { "edge_type": "spoke", "region": "ContigUS" }, "geometry": { "type": "LineString", "coordinates": [ [ -71.478554000723065, 42.29678200089154 ], [ -71.813583457556206, 42.204323886920037 ] ] } },
{ "type": "Feature", "properties": { "edge_type": "spoke", "region": "ContigUS" }, "geometry": { "type": "LineString", "coordinates": [ [ -71.139702998699974, 42.70366500079318 ], [ -71.813583457556206, 42.204323886920037 ] ] } },
{ "type": "Feature", "properties": { "edge_type": "spoke", "region": "ContigUS" }, "geometry": { "type": "LineString", "coordinates": [ [ -71.232099998782402, 42.347392997372438 ], [ -71.478554000723065, 42.29678200089154 ] ] } },
{ "type": "Feature", "properties": { "edge_type": "spoke", "region": "ContigUS" }, "geometry": { "type": "LineString", "coordinates": [ [ -71.114746003476569, 42.331753002975695 ], [ -71.359893998724573, 42.299932001081814 ], [ -71.467270001927815, 42.293937002368345 ], [ -71.478554000723065, 42.29678200089154 ] ] } },
{ "type": "Feature", "properties": { "edge_type": "spoke", "region": "ContigUS" }, "geometry": { "type": "LineString", "coordinates": [ [ -71.108130998370527, 42.351571003494996 ], [ -71.232099998782402, 42.347392997372438 ] ] } },
{ "type": "Feature", "properties": { "edge_type": "spoke", "region": "ContigUS" }, "geometry": { "type": "LineString", "coordinates": [ [ -71.118798995426019, 42.374354997896837 ], [ -71.232099998782402, 42.347392997372438 ] ] } },
{ "type": "Feature", "properties": { "edge_type": "spoke", "region": "ContigUS" }, "geometry": { "type": "LineString", "coordinates": [ [ -70.40872799674716, 43.507686000170324 ], [ -71.139702998699974, 42.70366500079318 ] ] } },
{ "type": "Feature", "properties": { "edge_type": "spoke", "region": "ContigUS" }, "geometry": { "type": "LineString", "coordinates": [ [ -70.915229002080608, 43.141259000157042 ], [ -71.139702998699974, 42.70366500079318 ] ] } },
{ "type": "Feature", "properties": { "edge_type": "spoke", "region": "ContigUS" }, "geometry": { "type": "LineString", "coordinates": [ [ -71.046210000072023, 42.31252400240799 ], [ -71.084909997433712, 42.342739000223105 ], [ -71.114746003476569, 42.331753002975695 ] ] } },
{ "type": "Feature", "properties": { "edge_type": "spoke", "region": "ContigUS" }, "geometry": { "type": "LineString", "coordinates": [ [ -71.057290000449413, 42.360249998089976 ], [ -71.114746003476569, 42.331753002975695 ] ] } }
]
}
